{"type": "FeatureCollection", "features": [{"type": "Feature", "properties": {"d": 2}, "geometry": {"type": "LineString", "coordinates": [[-89.057326, 48.489732], [-89.058296, 48.48938], [-89.059213, 48.489371], [-89.059806, 48.489389], [-89.060507, 48.48951], [-89.061585, 48.489548], [-89.063904, 48.48988], [-89.064875, 48.489953], [-89.065737, 48.489923], [-89.066977, 48.489697], [-89.068218, 48.489699], [-89.069566, 48.48979], [-89.071075, 48.489782], [-89.073017, 48.489512], [-89.073556, 48.48931], [-89.074257, 48.489259], [-89.074958, 48.489128], [-89.077007, 48.488415], [-89.077654, 48.488457], [-89.078031, 48.488643], [-89.078517, 48.488557], [-89.080026, 48.48856], [-89.080781, 48.488483], [-89.081482, 48.488365], [-89.082345, 48.488123], [-89.082806, 48.487896], [-89.083369, 48.487512], [-89.083747, 48.487158], [-89.083769, 48.486825], [-89.083909, 48.486711], [-89.084394, 48.486687], [-89.084825, 48.486446], [-89.085149, 48.486519], [-89.085364, 48.48645], [-89.085526, 48.486494], [-89.085796, 48.486331], [-89.086065, 48.486268], [-89.085581, 48.485325], [-89.085568, 48.485111], [-89.085688, 48.485012], [-89.085904, 48.485001], [-89.086443, 48.485106], [-89.087467, 48.485476], [-89.087899, 48.485692], [-89.088384, 48.485824], [-89.088761, 48.485811], [-89.089193, 48.485899], [-89.089411, 48.485825], [-89.089565, 48.485611], [-89.089251, 48.485361], [-89.089304, 48.485147], [-89.089193, 48.484897], [-89.089255, 48.484647], [-89.089462, 48.484384], [-89.090163, 48.48441], [-89.090595, 48.484297], [-89.091026, 48.484317], [-89.091943, 48.484092], [-89.092428, 48.484145], [-89.092806, 48.484119], [-89.093103, 48.484362], [-89.093399, 48.484462], [-89.093345, 48.484552], [-89.093075, 48.484632], [-89.092482, 48.484953], [-89.092381, 48.485076], [-89.09259, 48.485411], [-89.093237, 48.485736], [-89.094046, 48.485626], [-89.094585, 48.485321], [-89.095663, 48.485243], [-89.096095, 48.485148], [-89.09685, 48.484746], [-89.097872, 48.484719], [-89.098036, 48.484508], [-89.098521, 48.484315], [-89.098845, 48.484319], [-89.099276, 48.484514], [-89.099761, 48.484279], [-89.099977, 48.484358], [-89.100388, 48.484397], [-89.100804, 48.48454], [-89.100836, 48.484683], [-89.100489, 48.484933], [-89.100498, 48.485254], [-89.10084, 48.485643], [-89.100933, 48.486004], [-89.101325, 48.486106], [-89.106448, 48.486541], [-89.111678, 48.486307], [-89.113673, 48.486097], [-89.118849, 48.485292], [-89.123864, 48.484313], [-89.126792, 48.483469], [-89.129094, 48.482542], [-89.129418, 48.48243], [-89.129633, 48.482423], [-89.129741, 48.48224], [-89.130365, 48.481934], [-89.132761, 48.481593]]}}, {"type": "Feature", "properties": {"d": 2}, "geometry": {"type": "LineString", "coordinates": [[-89.057326, 48.493193], [-89.057533, 48.492822], [-89.057597, 48.492286], [-89.057487, 48.491933], [-89.057326, 48.491894]]}}, {"type": "Feature", "properties": {"d": 4}, "geometry": {"type": "LineString", "coordinates": [[-89.083639, 48.485109], [-89.083771, 48.485218], [-89.083639, 48.485409], [-89.083504, 48.485361], [-89.083452, 48.485254], [-89.083639, 48.485109]]}}, {"type": "Feature", "properties": {"d": 4}, "geometry": {"type": "LineString", "coordinates": [[-89.080296, 48.485501], [-89.080619, 48.485628], [-89.080684, 48.485754], [-89.080619, 48.485884], [-89.080404, 48.48595], [-89.080106, 48.485897], [-89.07982, 48.485682], [-89.079867, 48.485504], [-89.080296, 48.485501]]}}, {"type": "Feature", "properties": {"d": 4}, "geometry": {"type": "LineString", "coordinates": [[-89.083315, 48.485773], [-89.083315, 48.485901], [-89.083154, 48.485927], [-89.083185, 48.485789], [-89.083315, 48.485773]]}}, {"type": "Feature", "properties": {"d": 4}, "geometry": {"type": "LineString", "coordinates": [[-89.083154, 48.486142], [-89.083212, 48.486254], [-89.0831, 48.486302], [-89.083036, 48.486182], [-89.083154, 48.486142]]}}, {"type": "Feature", "properties": {"d": 4}, "geometry": {"type": "LineString", "coordinates": [[-89.057326, 48.489556], [-89.057649, 48.489359], [-89.058134, 48.489232], [-89.061208, 48.488996], [-89.06261, 48.489058], [-89.064174, 48.489375], [-89.064767, 48.48944], [-89.066492, 48.489175], [-89.067625, 48.489122], [-89.068541, 48.489147], [-89.070669, 48.489359], [-89.071089, 48.489323], [-89.073286, 48.488813], [-89.075551, 48.488471], [-89.076886, 48.488003], [-89.077492, 48.487455], [-89.078409, 48.486259], [-89.078678, 48.486185], [-89.079056, 48.486204], [-89.079325, 48.486127], [-89.079649, 48.486254], [-89.079736, 48.486432], [-89.079779, 48.486825], [-89.079595, 48.48724], [-89.079379, 48.487375], [-89.078786, 48.487521], [-89.07857, 48.487689], [-89.078314, 48.487753], [-89.078786, 48.487994], [-89.07911, 48.488008], [-89.079325, 48.487911], [-89.079487, 48.488028], [-89.079595, 48.488027], [-89.080889, 48.487588], [-89.081482, 48.487472], [-89.082938, 48.486749], [-89.083208, 48.48643], [-89.083801, 48.486168], [-89.084178, 48.485879], [-89.084199, 48.485789], [-89.084022, 48.485575], [-89.08434, 48.485321], [-89.084502, 48.485266], [-89.084933, 48.485593], [-89.085041, 48.485593], [-89.085158, 48.485433], [-89.085269, 48.484897], [-89.08558, 48.484628], [-89.087036, 48.484982], [-89.087252, 48.484722], [-89.087899, 48.48475], [-89.087972, 48.48454], [-89.08789, 48.484326], [-89.088061, 48.484189], [-89.088761, 48.484143], [-89.089031, 48.484292], [-89.089379, 48.48404], [-89.08957, 48.483981], [-89.08984, 48.484006], [-89.09011, 48.484112], [-89.090487, 48.484034], [-89.090918, 48.484108], [-89.091889, 48.483851], [-89.09232, 48.48388], [-89.092752, 48.483804], [-89.093237, 48.483859], [-89.09356, 48.483822], [-89.093938, 48.484335], [-89.095124, 48.484724], [-89.096095, 48.484544], [-89.096418, 48.484424], [-89.097173, 48.484333], [-89.097551, 48.484092], [-89.09782, 48.484206], [-89.098198, 48.484035], [-89.100732, 48.483911], [-89.101595, 48.484471], [-89.102188, 48.484652], [-89.103698, 48.485365], [-89.105261, 48.485849], [-89.107256, 48.485954], [-89.108173, 48.485876], [-89.110222, 48.485896], [-89.110923, 48.485851], [-89.11157, 48.485731], [-89.112756, 48.485731], [-89.114859, 48.485404], [-89.115827, 48.485183], [-89.119412, 48.484719], [-89.120629, 48.484422], [-89.123198, 48.483969], [-89.127069, 48.482719], [-89.127648, 48.482505], [-89.128056, 48.48222], [-89.129795, 48.481567], [-89.131682, 48.48115], [-89.132761, 48.481001]]}}, {"type": "Feature", "properties": {"d": 6}, "geometry": {"type": "LineString", "coordinates": [[-89.057326, 48.48906], [-89.058674, 48.488751], [-89.060453, 48.488575], [-89.061531, 48.488536], [-89.063419, 48.488581], [-89.06509, 48.488731], [-89.066977, 48.488596], [-89.069674, 48.488599], [-89.071539, 48.48836], [-89.074016, 48.487789], [-89.074956, 48.487432], [-89.075734, 48.487039], [-89.077007, 48.486753], [-89.078145, 48.486004], [-89.078894, 48.485599], [-89.079433, 48.4852], [-89.080889, 48.484859], [-89.082021, 48.484309], [-89.0831, 48.484451], [-89.083963, 48.483974], [-89.084408, 48.483969], [-89.084443, 48.483897], [-89.08434, 48.483801], [-89.083855, 48.483617], [-89.083815, 48.483398], [-89.08403, 48.483255], [-89.084448, 48.483112], [-89.085149, 48.482958], [-89.08585, 48.482996], [-89.086119, 48.483127], [-89.08709, 48.483111], [-89.087467, 48.483248], [-89.087936, 48.483291], [-89.088028, 48.483433], [-89.088222, 48.483509], [-89.088761, 48.483559], [-89.089732, 48.483483], [-89.090649, 48.483485], [-89.091511, 48.483319], [-89.093075, 48.483202], [-89.094962, 48.483365], [-89.096149, 48.483245], [-89.098521, 48.48319], [-89.101055, 48.482928], [-89.101649, 48.482914], [-89.102383, 48.483041], [-89.10359, 48.483368], [-89.105693, 48.484036], [-89.1059, 48.484147], [-89.107796, 48.484543], [-89.108712, 48.484464], [-89.109629, 48.484571], [-89.111624, 48.484614], [-89.115614, 48.484283], [-89.120036, 48.483603], [-89.121538, 48.483076], [-89.121597, 48.482969], [-89.121546, 48.482719], [-89.121797, 48.482505], [-89.1223, 48.482396], [-89.123379, 48.482584], [-89.123972, 48.482505], [-89.125913, 48.481989], [-89.129202, 48.480963], [-89.131637, 48.480399], [-89.132761, 48.480202]]}}, {"type": "Feature", "properties": {"d": 8}, "geometry": {"type": "LineString", "coordinates": [[-89.057326, 48.488752], [-89.058566, 48.488512], [-89.060507, 48.488325], [-89.065468, 48.488122], [-89.068541, 48.487904], [-89.07059, 48.48766], [-89.072046, 48.487347], [-89.072985, 48.48711], [-89.075821, 48.486186], [-89.076521, 48.485743], [-89.077276, 48.485387], [-89.077693, 48.48529], [-89.079265, 48.484611], [-89.080458, 48.484247], [-89.08132, 48.483882], [-89.082896, 48.483469], [-89.084329, 48.482791], [-89.085095, 48.482556], [-89.08709, 48.48229], [-89.087899, 48.481814], [-89.088276, 48.481735], [-89.088923, 48.48177], [-89.088991, 48.48197], [-89.089247, 48.482074], [-89.089624, 48.48214], [-89.09011, 48.482129], [-89.091511, 48.481922], [-89.094261, 48.481187], [-89.095124, 48.48126], [-89.096095, 48.481519], [-89.096634, 48.481468], [-89.097065, 48.481251], [-89.098198, 48.481336], [-89.099058, 48.481648], [-89.099977, 48.481825], [-89.101649, 48.481852], [-89.10524, 48.482148], [-89.105825, 48.482291], [-89.107472, 48.482546], [-89.108712, 48.482468], [-89.111085, 48.482774], [-89.113996, 48.482666], [-89.11459, 48.482614], [-89.115344, 48.482459], [-89.116746, 48.482361], [-89.117555, 48.48216], [-89.11831, 48.482168], [-89.120089, 48.481956], [-89.123864, 48.481191], [-89.12435, 48.481077], [-89.125751, 48.480591], [-89.126452, 48.480269], [-89.12812, 48.479649], [-89.131413, 48.478795], [-89.132189, 48.478507], [-89.132761, 48.478395]]}}, {"type": "Feature", "properties": {"d": 10}, "geometry": {"type": "LineString", "coordinates": [[-89.057326, 48.488642], [-89.059416, 48.488253], [-89.06261, 48.488024], [-89.066115, 48.487468], [-89.068379, 48.487373], [-89.070174, 48.48711], [-89.072046, 48.486741], [-89.07361, 48.486273], [-89.075348, 48.485861], [-89.075928, 48.48564], [-89.077421, 48.484897], [-89.078678, 48.484431], [-89.079487, 48.484053], [-89.081258, 48.483469], [-89.081806, 48.483202], [-89.082938, 48.482476], [-89.083262, 48.482338], [-89.083477, 48.482314], [-89.08407, 48.481986], [-89.08585, 48.481491], [-89.088222, 48.480924], [-89.090541, 48.480528], [-89.092911, 48.479935], [-89.093938, 48.479499], [-89.094542, 48.479114], [-89.095178, 48.478959], [-89.09631, 48.478833], [-89.096688, 48.47889], [-89.097173, 48.47912], [-89.097411, 48.479328], [-89.097518, 48.479578], [-89.098036, 48.479996], [-89.099531, 48.480399], [-89.100667, 48.481041], [-89.101055, 48.481166], [-89.102727, 48.481239], [-89.105207, 48.481635], [-89.106987, 48.48169], [-89.109683, 48.481969], [-89.110869, 48.481947], [-89.11184, 48.482099], [-89.112487, 48.482105], [-89.113835, 48.481994], [-89.114967, 48.481788], [-89.116531, 48.48173], [-89.119227, 48.481422], [-89.120926, 48.481006], [-89.122408, 48.480801], [-89.123443, 48.480506], [-89.124619, 48.479952], [-89.124834, 48.47992], [-89.12532, 48.479592], [-89.12642, 48.479149], [-89.127638, 48.479049], [-89.12904, 48.4787], [-89.129593, 48.478649], [-89.131413, 48.478285], [-89.132761, 48.477932]]}}, {"type": "Feature", "properties": {"d": 12}, "geometry": {"type": "LineString", "coordinates": [[-89.057326, 48.488539], [-89.059213, 48.488138], [-89.062017, 48.487753], [-89.063742, 48.487143], [-89.064713, 48.486679], [-89.065198, 48.486523], [-89.065522, 48.486512], [-89.066924, 48.486757], [-89.067894, 48.486752], [-89.071022, 48.486322], [-89.074904, 48.485379], [-89.075497, 48.485151], [-89.076683, 48.48482], [-89.077708, 48.484369], [-89.078409, 48.483959], [-89.079595, 48.483572], [-89.080026, 48.483353], [-89.080889, 48.483093], [-89.082237, 48.482227], [-89.082776, 48.482067], [-89.083801, 48.481542], [-89.085418, 48.481153], [-89.087829, 48.480006], [-89.089786, 48.479437], [-89.092806, 48.478818], [-89.095232, 48.477765], [-89.09685, 48.477345], [-89.097119, 48.477332], [-89.097389, 48.477401], [-89.097658, 48.47737], [-89.098012, 48.477471], [-89.098467, 48.477509], [-89.099815, 48.478281], [-89.099977, 48.478502], [-89.100948, 48.478918], [-89.10181, 48.479105], [-89.102457, 48.479071], [-89.103212, 48.479148], [-89.103428, 48.479399], [-89.103913, 48.479604], [-89.104506, 48.479693], [-89.105261, 48.479641], [-89.105423, 48.479721], [-89.105747, 48.479719], [-89.105908, 48.479621], [-89.106448, 48.479541], [-89.106609, 48.479677], [-89.10731, 48.479764], [-89.108065, 48.479681], [-89.108279, 48.479756], [-89.108065, 48.480035], [-89.108389, 48.480051], [-89.10882, 48.480385], [-89.109251, 48.480532], [-89.109952, 48.480485], [-89.11033, 48.480347], [-89.110599, 48.480326], [-89.111246, 48.480056], [-89.111624, 48.480076], [-89.112118, 48.480506], [-89.112379, 48.480598], [-89.112648, 48.480613], [-89.114428, 48.48034], [-89.11556, 48.48006], [-89.115938, 48.480045], [-89.116207, 48.479942], [-89.116477, 48.479986], [-89.116746, 48.47989], [-89.117447, 48.480024], [-89.118849, 48.479943], [-89.119227, 48.479995], [-89.119658, 48.480143], [-89.120251, 48.480152], [-89.121977, 48.479714], [-89.123298, 48.479042], [-89.124727, 48.478818], [-89.126021, 48.478735], [-89.126668, 48.478573], [-89.127638, 48.47846], [-89.128447, 48.478241], [-89.129592, 48.478078], [-89.131555, 48.477543], [-89.132761, 48.477034]]}}, {"type": "Feature", "properties": {"d": 15}, "geometry": {"type": "LineString", "coordinates": [[-89.094937, 48.4749], [-89.095609, 48.475357]]}}, {"type": "Feature", "properties": {"d": 15}, "geometry": {"type": "LineString", "coordinates": [[-89.095609, 48.475375], [-89.0946, 48.475696]]}}, {"type": "Feature", "properties": {"d": 15}, "geometry": {"type": "LineString", "coordinates": [[-89.116207, 48.475895], [-89.116299, 48.475972], [-89.116261, 48.476072], [-89.116135, 48.476007], [-89.116207, 48.475895]]}}, {"type": "Feature", "properties": {"d": 15}, "geometry": {"type": "LineString", "coordinates": [[-89.115938, 48.476878], [-89.115938, 48.476986], [-89.11583, 48.477014], [-89.115744, 48.476971], [-89.115771, 48.4769], [-89.115938, 48.476878]]}}, {"type": "Feature", "properties": {"d": 15}, "geometry": {"type": "LineString", "coordinates": [[-89.057326, 48.488224], [-89.058156, 48.488074], [-89.058367, 48.487967], [-89.058404, 48.487817], [-89.058782, 48.487889], [-89.05896, 48.487824], [-89.058997, 48.487688], [-89.05928, 48.487753], [-89.05959, 48.487582], [-89.05986, 48.487518], [-89.060384, 48.487217], [-89.060992, 48.486482], [-89.061002, 48.486325], [-89.060754, 48.485968], [-89.060884, 48.48554], [-89.061182, 48.485183], [-89.061392, 48.484968], [-89.061639, 48.48485], [-89.062125, 48.484812], [-89.06234, 48.484851], [-89.062556, 48.484758], [-89.062664, 48.48451], [-89.063203, 48.484207], [-89.06358, 48.484212], [-89.06412, 48.484337], [-89.064497, 48.484506], [-89.065252, 48.485068], [-89.065885, 48.48529], [-89.06633, 48.485325], [-89.067894, 48.485155], [-89.068433, 48.485181], [-89.069026, 48.485315], [-89.071013, 48.48529], [-89.071815, 48.48504], [-89.071938, 48.484909], [-89.072154, 48.484963], [-89.072316, 48.48492], [-89.07334, 48.484284], [-89.073664, 48.484315], [-89.074203, 48.484077], [-89.074419, 48.484098], [-89.075069, 48.483897], [-89.075461, 48.48354], [-89.075424, 48.483362], [-89.075772, 48.483112], [-89.075986, 48.482684], [-89.076521, 48.482415], [-89.077384, 48.482137], [-89.078139, 48.481999], [-89.079541, 48.481997], [-89.079972, 48.4819], [-89.080134, 48.481769], [-89.080404, 48.481753], [-89.081008, 48.481541], [-89.081482, 48.481514], [-89.082183, 48.481306], [-89.083315, 48.481139], [-89.083477, 48.480988], [-89.083693, 48.480996], [-89.084466, 48.48072], [-89.084933, 48.480361], [-89.085095, 48.480106], [-89.085881, 48.479613], [-89.086982, 48.478985], [-89.087889, 48.478649], [-89.088114, 48.478511], [-89.089786, 48.478014], [-89.090541, 48.477869], [-89.091565, 48.477539], [-89.092105, 48.477486], [-89.093399, 48.47709], [-89.093722, 48.477065], [-89.094046, 48.476924], [-89.094315, 48.476889], [-89.094477, 48.476789], [-89.096418, 48.476304], [-89.098521, 48.475979], [-89.0996, 48.475917], [-89.101163, 48.475977], [-89.10181, 48.476154], [-89.102188, 48.476125], [-89.102621, 48.476293], [-89.10305, 48.476268], [-89.103374, 48.476346], [-89.103859, 48.476319], [-89.104345, 48.476467], [-89.104776, 48.476394], [-89.104784, 48.476222], [-89.104966, 48.476114], [-89.105477, 48.476104], [-89.105639, 48.475962], [-89.105962, 48.475884], [-89.106168, 48.475936], [-89.106289, 48.476114], [-89.10618, 48.476257], [-89.106448, 48.476413], [-89.106663, 48.476395], [-89.106987, 48.476212], [-89.107256, 48.476338], [-89.107796, 48.476359], [-89.108119, 48.476291], [-89.108496, 48.476319], [-89.10882, 48.476261], [-89.109251, 48.476262], [-89.109521, 48.476325], [-89.110168, 48.476279], [-89.110384, 48.476166], [-89.111408, 48.476324], [-89.111624, 48.476216], [-89.111786, 48.476366], [-89.111947, 48.476286], [-89.112271, 48.476336], [-89.112648, 48.476226], [-89.11281, 48.476322], [-89.113026, 48.476277], [-89.113457, 48.476318], [-89.113673, 48.476284], [-89.113996, 48.476375], [-89.114805, 48.476277], [-89.115344, 48.476056], [-89.115884, 48.475988], [-89.116051, 48.476257], [-89.116024, 48.476471], [-89.115884, 48.47668], [-89.115695, 48.476757], [-89.115689, 48.476936], [-89.115522, 48.477114], [-89.115575, 48.477257], [-89.115499, 48.477471], [-89.115612, 48.477507], [-89.115722, 48.477336], [-89.115884, 48.477662], [-89.116207, 48.477642], [-89.116692, 48.477738], [-89.116962, 48.4777], [-89.117447, 48.477851], [-89.117771, 48.477807], [-89.118148, 48.47781], [-89.11831, 48.477876], [-89.119173, 48.477838], [-89.119335, 48.477905], [-89.119712, 48.477882], [-89.11982, 48.477949], [-89.120036, 48.477896], [-89.120197, 48.477976], [-89.120359, 48.477909], [-89.120844, 48.478136], [-89.121276, 48.478187], [-89.121545, 48.478081], [-89.121707, 48.478226], [-89.121869, 48.478002], [-89.122031, 48.478211], [-89.122246, 48.478236], [-89.123756, 48.478058], [-89.124457, 48.478047], [-89.125428, 48.477786], [-89.125913, 48.477767], [-89.126344, 48.47759], [-89.126506, 48.477638], [-89.127369, 48.477437], [-89.128447, 48.477019], [-89.128854, 48.476936], [-89.129256, 48.476737], [-89.129605, 48.476686], [-89.130658, 48.476365], [-89.130877, 48.476186], [-89.131362, 48.476043], [-89.131445, 48.4759], [-89.131736, 48.475828], [-89.132276, 48.47551], [-89.132761, 48.475365]]}}, {"type": "Feature", "properties": {"d": 20}, "geometry": {"type": "LineString", "coordinates": [[-89.130227, 48.469684], [-89.130256, 48.469866], [-89.130227, 48.470077], [-89.12985, 48.46983], [-89.130227, 48.469684]]}}, {"type": "Feature", "properties": {"d": 20}, "geometry": {"type": "LineString", "coordinates": [[-89.12668, 48.471874], [-89.12683, 48.471742], [-89.127477, 48.471572], [-89.127775, 48.471187], [-89.1282, 48.471023]]}}, {"type": "Feature", "properties": {"d": 20}, "geometry": {"type": "LineString", "coordinates": [[-89.119335, 48.472584], [-89.119701, 48.472187]]}}, {"type": "Feature", "properties": {"d": 20}, "geometry": {"type": "LineString", "coordinates": [[-89.104865, 48.472758], [-89.105211, 48.473256]]}}, {"type": "Feature", "properties": {"d": 20}, "geometry": {"type": "LineString", "coordinates": [[-89.109418, 48.472934], [-89.109629, 48.473075], [-89.110707, 48.473081]]}}, {"type": "Feature", "properties": {"d": 20}, "geometry": {"type": "LineString", "coordinates": [[-89.106869, 48.472979], [-89.107364, 48.472926], [-89.107957, 48.473215]]}}, {"type": "Feature", "properties": {"d": 20}, "geometry": {"type": "LineString", "coordinates": [[-89.11347, 48.473195], [-89.1142, 48.473195]]}}, {"type": "Feature", "properties": {"d": 20}, "geometry": {"type": "LineString", "coordinates": [[-89.110977, 48.473208], [-89.112217, 48.473208]]}}, {"type": "Feature", "properties": {"d": 20}, "geometry": {"type": "LineString", "coordinates": [[-89.100678, 48.473307], [-89.100974, 48.473508], [-89.101923, 48.473541]]}}, {"type": "Feature", "properties": {"d": 20}, "geometry": {"type": "LineString", "coordinates": [[-89.102502, 48.473466], [-89.102673, 48.47299], [-89.102835, 48.472841], [-89.103374, 48.473194], [-89.103967, 48.473324], [-89.104129, 48.473272], [-89.104705, 48.472722]]}}, {"type": "Feature", "properties": {"d": 20}, "geometry": {"type": "LineString", "coordinates": [[-89.095016, 48.474865], [-89.095662, 48.475294]]}}, {"type": "Feature", "properties": {"d": 20}, "geometry": {"type": "LineString", "coordinates": [[-89.096041, 48.475313], [-89.09631, 48.475062], [-89.097161, 48.474928]]}}, {"type": "Feature", "properties": {"d": 20}, "geometry": {"type": "LineString", "coordinates": [[-89.091554, 48.476286], [-89.092224, 48.476286]]}}, {"type": "Feature", "properties": {"d": 20}, "geometry": {"type": "LineString", "coordinates": [[-89.084378, 48.47841], [-89.084879, 48.478455], [-89.085472, 48.477935]]}}, {"type": "Feature", "properties": {"d": 25}, "geometry": {"type": "LineString", "coordinates": [[-89.131742, 48.469862], [-89.131742, 48.470298]]}}, {"type": "Feature", "properties": {"d": 25}, "geometry": {"type": "LineString", "coordinates": [[-89.132761, 48.469936], [-89.131892, 48.469763]]}}, {"type": "Feature", "properties": {"d": 25}, "geometry": {"type": "LineString", "coordinates": [[-89.115532, 48.470383], [-89.116423, 48.470085], [-89.11699, 48.470401]]}}, {"type": "Feature", "properties": {"d": 25}, "geometry": {"type": "LineString", "coordinates": [[-89.113134, 48.47108], [-89.113422, 48.470342]]}}, {"type": "Feature", "properties": {"d": 25}, "geometry": {"type": "LineString", "coordinates": [[-89.10459, 48.471885], [-89.10483, 48.471527], [-89.104992, 48.471465], [-89.105869, 48.471998]]}}, {"type": "Feature", "properties": {"d": 25}, "geometry": {"type": "LineString", "coordinates": [[-89.102726, 48.471936], [-89.103266, 48.471629], [-89.103428, 48.471607], [-89.103638, 48.471651], [-89.10404, 48.471924]]}}, {"type": "Feature", "properties": {"d": 25}, "geometry": {"type": "LineString", "coordinates": [[-89.110907, 48.471998], [-89.111462, 48.471742], [-89.112217, 48.471741]]}}, {"type": "Feature", "properties": {"d": 25}, "geometry": {"type": "LineString", "coordinates": [[-89.100724, 48.47236], [-89.101163, 48.471919], [-89.101975, 48.472077]]}}, {"type": "Feature", "properties": {"d": 25}, "geometry": {"type": "LineString", "coordinates": [[-89.086238, 48.474572], [-89.087194, 48.475153]]}}, {"type": "Feature", "properties": {"d": 25}, "geometry": {"type": "LineString", "coordinates": [[-89.087253, 48.475116], [-89.087425, 48.474829], [-89.087908, 48.474514]]}}, {"type": "Feature", "properties": {"d": 25}, "geometry": {"type": "LineString", "coordinates": [[-89.08388, 48.475757], [-89.083723, 48.475293], [-89.083887, 48.47515], [-89.084562, 48.475468]]}}, {"type": "Feature", "properties": {"d": 25}, "geometry": {"type": "LineString", "coordinates": [[-89.084239, 48.477726], [-89.085043, 48.477614], [-89.084895, 48.47715], [-89.085147, 48.476792]]}}]}