{"type": "FeatureCollection", "features": [{"type": "Feature", "properties": {"d": 2}, "geometry": {"type": "LineString", "coordinates": [[-89.224758, 48.3758], [-89.224514, 48.37595], [-89.220201, 48.37622], [-89.220039, 48.376304], [-89.218637, 48.376428], [-89.217921, 48.376373], [-89.218043, 48.376265], [-89.218046, 48.375836]]}}, {"type": "Feature", "properties": {"d": 2}, "geometry": {"type": "LineString", "coordinates": [[-89.217259, 48.375979], [-89.217606, 48.376373], [-89.217132, 48.376516], [-89.216642, 48.376543], [-89.216426, 48.376459], [-89.216059, 48.376552], [-89.215864, 48.376373], [-89.215861, 48.376087]]}}, {"type": "Feature", "properties": {"d": 2}, "geometry": {"type": "LineString", "coordinates": [[-89.230328, 48.376122], [-89.230314, 48.376265], [-89.230176, 48.376316], [-89.229628, 48.376301], [-89.228936, 48.376186], [-89.22872, 48.376288], [-89.228343, 48.376181], [-89.22775, 48.376166], [-89.227372, 48.37608], [-89.226057, 48.376015], [-89.226023, 48.375872]]}}, {"type": "Feature", "properties": {"d": 2}, "geometry": {"type": "LineString", "coordinates": [[-89.231577, 48.37623], [-89.231524, 48.376402], [-89.231254, 48.376426], [-89.231114, 48.376373], [-89.231136, 48.376194]]}}, {"type": "Feature", "properties": {"d": 2}, "geometry": {"type": "LineString", "coordinates": [[-89.21567, 48.376231], [-89.215698, 48.37648], [-89.215564, 48.376612], [-89.215348, 48.376598], [-89.215022, 48.37641]]}}, {"type": "Feature", "properties": {"d": 2}, "geometry": {"type": "LineString", "coordinates": [[-89.233528, 48.376337], [-89.233513, 48.37648], [-89.233357, 48.376515], [-89.233236, 48.37648], [-89.233209, 48.376301]]}}, {"type": "Feature", "properties": {"d": 2}, "geometry": {"type": "LineString", "coordinates": [[-89.235391, 48.376409], [-89.235083, 48.376571], [-89.234858, 48.376516], [-89.234822, 48.376373]]}}, {"type": "Feature", "properties": {"d": 2}, "geometry": {"type": "LineString", "coordinates": [[-89.243019, 48.376623], [-89.243151, 48.376802], [-89.243069, 48.376981], [-89.24295, 48.376945], [-89.242891, 48.376666]]}}, {"type": "Feature", "properties": {"d": 2}, "geometry": {"type": "LineString", "coordinates": [[-89.238302, 48.376623], [-89.237995, 48.376738], [-89.237628, 48.376695], [-89.237609, 48.376587]]}}, {"type": "Feature", "properties": {"d": 2}, "geometry": {"type": "LineString", "coordinates": [[-89.212734, 48.376695], [-89.212697, 48.377053], [-89.212328, 48.377099], [-89.212113, 48.377217], [-89.21163, 48.377196], [-89.211347, 48.376874]]}}, {"type": "Feature", "properties": {"d": 2}, "geometry": {"type": "LineString", "coordinates": [[-89.238868, 48.376731], [-89.238816, 48.376838], [-89.238534, 48.376866], [-89.238461, 48.376659]]}}, {"type": "Feature", "properties": {"d": 2}, "geometry": {"type": "LineString", "coordinates": [[-89.211127, 48.376874], [-89.211104, 48.37741], [-89.210819, 48.377356], [-89.210495, 48.377372], [-89.210225, 48.377207], [-89.209894, 48.377518], [-89.210323, 48.377661], [-89.210225, 48.377733], [-89.210251, 48.377804], [-89.210627, 48.377768], [-89.210708, 48.377875], [-89.210614, 48.377983], [-89.21065, 48.378166]]}}, {"type": "Feature", "properties": {"d": 2}, "geometry": {"type": "LineString", "coordinates": [[-89.222837, 48.377264], [-89.222951, 48.377128], [-89.223089, 48.377196], [-89.223032, 48.377285]]}}, {"type": "Feature", "properties": {"d": 2}, "geometry": {"type": "LineString", "coordinates": [[-89.224392, 48.377293], [-89.226833, 48.377424], [-89.227264, 48.377401], [-89.227678, 48.377458]]}}, {"type": "Feature", "properties": {"d": 2}, "geometry": {"type": "LineString", "coordinates": [[-89.218636, 48.377446], [-89.219773, 48.377372]]}}, {"type": "Feature", "properties": {"d": 2}, "geometry": {"type": "LineString", "coordinates": [[-89.217936, 48.377743], [-89.218044, 48.377717], [-89.218152, 48.37758], [-89.218566, 48.377458]]}}, {"type": "Feature", "properties": {"d": 2}, "geometry": {"type": "LineString", "coordinates": [[-89.205103, 48.380949], [-89.205572, 48.381238], [-89.205373, 48.381371], [-89.205265, 48.381347], [-89.204956, 48.380952], [-89.205103, 48.380949]]}}, {"type": "Feature", "properties": {"d": 2}, "geometry": {"type": "LineString", "coordinates": [[-89.206343, 48.384651], [-89.207097, 48.384314], [-89.206571, 48.383957], [-89.206572, 48.383885], [-89.206953, 48.383813], [-89.20726, 48.38418], [-89.207597, 48.383921], [-89.207529, 48.383808], [-89.207368, 48.383759], [-89.207076, 48.383241], [-89.207035, 48.382883], [-89.206828, 48.382795], [-89.20646, 48.382919], [-89.206289, 48.38305], [-89.205912, 48.383038], [-89.205804, 48.38311], [-89.205718, 48.383027], [-89.205787, 48.382883], [-89.205588, 48.382869], [-89.205495, 48.382919], [-89.205502, 48.383062], [-89.205157, 48.383089], [-89.205105, 48.383027], [-89.205234, 48.382919], [-89.205087, 48.382776], [-89.205319, 48.382536], [-89.205642, 48.382373], [-89.205804, 48.382496], [-89.206073, 48.382522], [-89.206763, 48.38224], [-89.206675, 48.381918], [-89.206424, 48.381739], [-89.206108, 48.381667], [-89.205864, 48.381238], [-89.206127, 48.380695], [-89.206552, 48.380988], [-89.206774, 48.381251], [-89.206836, 48.381238], [-89.206742, 48.381095], [-89.206918, 48.380916], [-89.206966, 48.380594], [-89.207206, 48.380121], [-89.20723, 48.379843], [-89.207087, 48.379271], [-89.207122, 48.379127], [-89.206774, 48.379029], [-89.206598, 48.378877], [-89.206656, 48.378448], [-89.207011, 48.37809], [-89.207637, 48.377826], [-89.207788, 48.377625], [-89.207206, 48.377484], [-89.206667, 48.377458], [-89.206053, 48.377339], [-89.205373, 48.376898], [-89.205265, 48.376982], [-89.205054, 48.376981], [-89.205296, 48.376874], [-89.205211, 48.376731], [-89.204564, 48.376219], [-89.204072, 48.375657], [-89.203647, 48.375312], [-89.203028, 48.374405], [-89.202299, 48.373988]]}}, {"type": "Feature", "properties": {"d": 2}, "geometry": {"type": "LineString", "coordinates": [[-89.207421, 48.385255], [-89.207044, 48.385145], [-89.206445, 48.385069]]}}, {"type": "Feature", "properties": {"d": 2}, "geometry": {"type": "LineString", "coordinates": [[-89.234987, 48.385308], [-89.235001, 48.38553], [-89.234575, 48.385745], [-89.234431, 48.385712]]}}, {"type": "Feature", "properties": {"d": 2}, "geometry": {"type": "LineString", "coordinates": [[-89.207691, 48.385291], [-89.208198, 48.385173], [-89.208321, 48.384994], [-89.208176, 48.384607], [-89.207907, 48.384344], [-89.207637, 48.384334], [-89.207499, 48.384386], [-89.207898, 48.3846], [-89.207879, 48.384851], [-89.207615, 48.385194]]}}, {"type": "Feature", "properties": {"d": 2}, "geometry": {"type": "LineString", "coordinates": [[-89.234232, 48.385845], [-89.234349, 48.38596], [-89.234326, 48.386031], [-89.234166, 48.386072], [-89.233965, 48.386022]]}}, {"type": "Feature", "properties": {"d": 2}, "geometry": {"type": "LineString", "coordinates": [[-89.207691, 48.385822], [-89.207945, 48.385924], [-89.208284, 48.385958], [-89.208392, 48.385912], [-89.208446, 48.385745], [-89.208392, 48.385411], [-89.207691, 48.385387]]}}, {"type": "Feature", "properties": {"d": 2}, "geometry": {"type": "LineString", "coordinates": [[-89.20638, 48.385984], [-89.206828, 48.385828], [-89.207035, 48.385822]]}}, {"type": "Feature", "properties": {"d": 2}, "geometry": {"type": "LineString", "coordinates": [[-89.233787, 48.38614], [-89.233797, 48.386317], [-89.233573, 48.386377], [-89.23325, 48.386627], [-89.23298, 48.386606], [-89.232764, 48.386797], [-89.232495, 48.386872], [-89.232279, 48.387019], [-89.231848, 48.387119], [-89.231632, 48.387299], [-89.231147, 48.387422], [-89.231039, 48.387592], [-89.230607, 48.387703], [-89.230214, 48.387676]]}}, {"type": "Feature", "properties": {"d": 2}, "geometry": {"type": "LineString", "coordinates": [[-89.205764, 48.387507], [-89.206378, 48.387176], [-89.206345, 48.386711]]}}, {"type": "Feature", "properties": {"d": 2}, "geometry": {"type": "LineString", "coordinates": [[-89.229988, 48.387765], [-89.229906, 48.38797], [-89.229529, 48.388159], [-89.229044, 48.388249], [-89.228904, 48.388428], [-89.228437, 48.388499], [-89.228289, 48.388715], [-89.228019, 48.388748], [-89.227588, 48.388922], [-89.227218, 48.388852]]}}, {"type": "Feature", "properties": {"d": 2}, "geometry": {"type": "LineString", "coordinates": [[-89.234314, 48.387972], [-89.234376, 48.387748], [-89.234705, 48.38771], [-89.234966, 48.387498], [-89.23515, 48.387489]]}}, {"type": "Feature", "properties": {"d": 2}, "geometry": {"type": "LineString", "coordinates": [[-89.207044, 48.388347], [-89.207475, 48.388482], [-89.207745, 48.388426], [-89.207749, 48.388249], [-89.207637, 48.388111], [-89.207277, 48.388023]]}}, {"type": "Feature", "properties": {"d": 2}, "geometry": {"type": "LineString", "coordinates": [[-89.23339, 48.38837], [-89.233519, 48.388241], [-89.233914, 48.388166]]}}, {"type": "Feature", "properties": {"d": 2}, "geometry": {"type": "LineString", "coordinates": [[-89.225949, 48.389286], [-89.225954, 48.389501], [-89.225883, 48.389572], [-89.225485, 48.389736], [-89.224838, 48.389824], [-89.224299, 48.390091], [-89.223946, 48.390073], [-89.223895, 48.389822]]}}, {"type": "Feature", "properties": {"d": 2}, "geometry": {"type": "LineString", "coordinates": [[-89.219338, 48.389561], [-89.219261, 48.389501], [-89.219293, 48.389393], [-89.219643, 48.389286], [-89.219581, 48.389071], [-89.218961, 48.388906]]}}, {"type": "Feature", "properties": {"d": 2}, "geometry": {"type": "LineString", "coordinates": [[-89.215151, 48.389917], [-89.214809, 48.389861], [-89.214701, 48.389649], [-89.214216, 48.389796], [-89.213928, 48.390037], [-89.21375, 48.390323], [-89.213684, 48.390788], [-89.213549, 48.391003], [-89.213063, 48.391289], [-89.212275, 48.391897], [-89.212021, 48.391968], [-89.211897, 48.392137], [-89.211304, 48.392394], [-89.211088, 48.392379], [-89.210603, 48.392523], [-89.210064, 48.392456], [-89.209363, 48.392263], [-89.209291, 48.392147], [-89.209039, 48.392095], [-89.207745, 48.392339], [-89.207475, 48.39229], [-89.207044, 48.392362], [-89.207314, 48.392221], [-89.207475, 48.39229], [-89.207853, 48.392132], [-89.208176, 48.39207], [-89.208338, 48.391946], [-89.208662, 48.391925], [-89.208759, 48.391789], [-89.208554, 48.391614], [-89.208122, 48.39145], [-89.207694, 48.391003], [-89.207745, 48.390688], [-89.207465, 48.390216], [-89.207579, 48.390073], [-89.20752, 48.389965], [-89.207628, 48.389751], [-89.207587, 48.389143], [-89.20726, 48.389001], [-89.206774, 48.388969], [-89.206235, 48.389028], [-89.206071, 48.388964], [-89.205797, 48.388719]]}}, {"type": "Feature", "properties": {"d": 2}, "geometry": {"type": "LineString", "coordinates": [[-89.223299, 48.389965], [-89.223294, 48.39018], [-89.223166, 48.390263], [-89.220794, 48.390855], [-89.220039, 48.390957], [-89.219877, 48.391045], [-89.219554, 48.391063], [-89.219014, 48.391243], [-89.218637, 48.391251], [-89.218421, 48.39136], [-89.218175, 48.391325], [-89.217828, 48.391495], [-89.217559, 48.391469], [-89.217501, 48.391575], [-89.217397, 48.391592], [-89.217505, 48.391352], [-89.217842, 48.391253]]}}, {"type": "Feature", "properties": {"d": 2}, "geometry": {"type": "LineString", "coordinates": [[-89.21497, 48.390361], [-89.214851, 48.390287], [-89.21485, 48.390144], [-89.215078, 48.390088]]}}, {"type": "Feature", "properties": {"d": 2}, "geometry": {"type": "LineString", "coordinates": [[-89.214809, 48.390795], [-89.214666, 48.390717], [-89.214663, 48.390573], [-89.214747, 48.390502], [-89.214916, 48.390501]]}}, {"type": "Feature", "properties": {"d": 2}, "geometry": {"type": "LineString", "coordinates": [[-89.214485, 48.391602], [-89.214363, 48.391539], [-89.214362, 48.391432], [-89.214431, 48.391358], [-89.214593, 48.391352]]}}, {"type": "Feature", "properties": {"d": 2}, "geometry": {"type": "LineString", "coordinates": [[-89.215388, 48.391825], [-89.215392, 48.392004], [-89.215294, 48.392107], [-89.214863, 48.392104]]}}, {"type": "Feature", "properties": {"d": 2}, "geometry": {"type": "LineString", "coordinates": [[-89.223113, 48.391897], [-89.223147, 48.391789], [-89.223586, 48.391761]]}}, {"type": "Feature", "properties": {"d": 2}, "geometry": {"type": "LineString", "coordinates": [[-89.214805, 48.392145], [-89.214647, 48.392189], [-89.214431, 48.392151], [-89.214216, 48.39224], [-89.214359, 48.392099]]}}, {"type": "Feature", "properties": {"d": 2}, "geometry": {"type": "LineString", "coordinates": [[-89.221856, 48.39229], [-89.221904, 48.392147], [-89.22198, 48.39214], [-89.222358, 48.39233], [-89.222431, 48.39204], [-89.222627, 48.391992], [-89.222778, 48.39204]]}}, {"type": "Feature", "properties": {"d": 2}, "geometry": {"type": "LineString", "coordinates": [[-89.219412, 48.392778], [-89.219446, 48.392718], [-89.219931, 48.392651], [-89.220201, 48.392514], [-89.220337, 48.392541]]}}, {"type": "Feature", "properties": {"d": 2}, "geometry": {"type": "LineString", "coordinates": [[-89.218408, 48.393077], [-89.218583, 48.393014], [-89.218853, 48.393032], [-89.219267, 48.392838]]}}, {"type": "Feature", "properties": {"d": 2}, "geometry": {"type": "LineString", "coordinates": [[-89.202299, 48.393131], [-89.205804, 48.392419], [-89.206684, 48.392469], [-89.206235, 48.392662], [-89.20602, 48.39284], [-89.205426, 48.392951], [-89.205103, 48.392913], [-89.204294, 48.393143], [-89.204024, 48.393126], [-89.203755, 48.393251], [-89.203485, 48.393228], [-89.203, 48.393389], [-89.202676, 48.393365], [-89.202299, 48.393447]]}}, {"type": "Feature", "properties": {"d": 2}, "geometry": {"type": "LineString", "coordinates": [[-89.216554, 48.393542], [-89.21675, 48.393464], [-89.217181, 48.393444]]}}, {"type": "Feature", "properties": {"d": 2}, "geometry": {"type": "LineString", "coordinates": [[-89.215729, 48.393792], [-89.215833, 48.393689], [-89.216265, 48.393579], [-89.216391, 48.393613]]}}, {"type": "Feature", "properties": {"d": 2}, "geometry": {"type": "LineString", "coordinates": [[-89.212544, 48.397792], [-89.212544, 48.397905], [-89.212274, 48.398027], [-89.212222, 48.397833], [-89.212544, 48.397792]]}}, {"type": "Feature", "properties": {"d": 2}, "geometry": {"type": "LineString", "coordinates": [[-89.212706, 48.398613], [-89.212869, 48.398763], [-89.212652, 48.3989], [-89.21254, 48.398763], [-89.212598, 48.398617], [-89.212706, 48.398613]]}}, {"type": "Feature", "properties": {"d": 2}, "geometry": {"type": "LineString", "coordinates": [[-89.214727, 48.399442], [-89.214431, 48.39943], [-89.214323, 48.399574], [-89.214647, 48.399631], [-89.21502, 48.39955], [-89.214727, 48.399442]]}}, {"type": "Feature", "properties": {"d": 2}, "geometry": {"type": "LineString", "coordinates": [[-89.202299, 48.403787], [-89.20256, 48.404234], [-89.202593, 48.404556], [-89.20273, 48.404665], [-89.202747, 48.404949], [-89.202894, 48.40502], [-89.202838, 48.405275], [-89.202515, 48.405066], [-89.202413, 48.40477], [-89.202299, 48.404719]]}}, {"type": "Feature", "properties": {"d": 2}, "geometry": {"type": "LineString", "coordinates": [[-89.214764, 48.404549], [-89.214571, 48.403984], [-89.214647, 48.403732], [-89.214863, 48.403773], [-89.214943, 48.403662], [-89.214798, 48.402947], [-89.214601, 48.402839], [-89.214486, 48.402589], [-89.214647, 48.402432], [-89.214672, 48.402267], [-89.214488, 48.402124], [-89.214431, 48.40178], [-89.214248, 48.401659], [-89.214328, 48.401481], [-89.214099, 48.400801], [-89.213775, 48.400694], [-89.21373, 48.4006], [-89.213568, 48.400615], [-89.213546, 48.400551], [-89.213522, 48.400372], [-89.213608, 48.400193], [-89.21347, 48.400015], [-89.213803, 48.3998], [-89.213874, 48.399621], [-89.213299, 48.399228], [-89.213191, 48.398755], [-89.212934, 48.398191], [-89.212805, 48.398084], [-89.21235, 48.396689], [-89.211843, 48.395845], [-89.211624, 48.395723], [-89.211627, 48.395551], [-89.211466, 48.395473], [-89.211631, 48.395187], [-89.211578, 48.394972], [-89.211681, 48.394845], [-89.213137, 48.394308], [-89.213515, 48.39427], [-89.213892, 48.39414], [-89.214108, 48.394143], [-89.21434, 48.394233]]}}, {"type": "Feature", "properties": {"d": 2}, "geometry": {"type": "LineString", "coordinates": [[-89.202946, 48.405649], [-89.203236, 48.406129], [-89.203216, 48.406333], [-89.2031, 48.406272], [-89.203018, 48.40595], [-89.202892, 48.405789], [-89.202883, 48.405664], [-89.202946, 48.405649]]}}, {"type": "Feature", "properties": {"d": 2}, "geometry": {"type": "LineString", "coordinates": [[-89.203431, 48.406801], [-89.203471, 48.406951], [-89.203431, 48.407027], [-89.203338, 48.406844], [-89.203431, 48.406801]]}}, {"type": "Feature", "properties": {"d": 2}, "geometry": {"type": "LineString", "coordinates": [[-89.203755, 48.407587], [-89.20383, 48.407774], [-89.203755, 48.407836], [-89.203678, 48.407738], [-89.203755, 48.407587]]}}, {"type": "Feature", "properties": {"d": 2}, "geometry": {"type": "LineString", "coordinates": [[-89.204024, 48.408012], [-89.204097, 48.408095], [-89.203917, 48.408137], [-89.20389, 48.40806], [-89.204024, 48.408012]]}}, {"type": "Feature", "properties": {"d": 2}, "geometry": {"type": "LineString", "coordinates": [[-89.204132, 48.408512], [-89.204402, 48.408819], [-89.204513, 48.409025], [-89.204496, 48.409168], [-89.204636, 48.409275], [-89.204564, 48.409642], [-89.204441, 48.409633], [-89.204378, 48.409561], [-89.204375, 48.409275], [-89.20424, 48.409159], [-89.204189, 48.408739], [-89.204048, 48.40856], [-89.204132, 48.408512]]}}, {"type": "Feature", "properties": {"d": 2}, "geometry": {"type": "LineString", "coordinates": [[-89.221225, 48.409326], [-89.22101, 48.409401], [-89.220686, 48.409377], [-89.220147, 48.409538], [-89.219948, 48.409454], [-89.219942, 48.409339]]}}, {"type": "Feature", "properties": {"d": 2}, "geometry": {"type": "LineString", "coordinates": [[-89.204618, 48.409843], [-89.204755, 48.409919], [-89.204725, 48.409976], [-89.204563, 48.409954], [-89.204538, 48.409883], [-89.204618, 48.409843]]}}, {"type": "Feature", "properties": {"d": 2}, "geometry": {"type": "LineString", "coordinates": [[-89.224283, 48.410015], [-89.224083, 48.410108], [-89.223726, 48.410048]]}}, {"type": "Feature", "properties": {"d": 2}, "geometry": {"type": "LineString", "coordinates": [[-89.22569, 48.410026], [-89.225636, 48.410133], [-89.225485, 48.410171], [-89.224693, 48.410026]]}}, {"type": "Feature", "properties": {"d": 2}, "geometry": {"type": "LineString", "coordinates": [[-89.223455, 48.410026], [-89.223251, 48.410205], [-89.223057, 48.410205], [-89.222904, 48.409847], [-89.222886, 48.409561]]}}, {"type": "Feature", "properties": {"d": 2}, "geometry": {"type": "LineString", "coordinates": [[-89.204887, 48.410152], [-89.204967, 48.410276], [-89.204833, 48.410368], [-89.20476, 48.41024], [-89.204887, 48.410152]]}}, {"type": "Feature", "properties": {"d": 2}, "geometry": {"type": "LineString", "coordinates": [[-89.226291, 48.410634], [-89.226348, 48.410561], [-89.226643, 48.410491], [-89.226617, 48.410283], [-89.225808, 48.410187], [-89.225701, 48.410026]]}}, {"type": "Feature", "properties": {"d": 2}, "geometry": {"type": "LineString", "coordinates": [[-89.220343, 48.41092], [-89.220632, 48.410795], [-89.221171, 48.410774], [-89.221387, 48.410692], [-89.221603, 48.410719], [-89.221656, 48.410777]]}}, {"type": "Feature", "properties": {"d": 2}, "geometry": {"type": "LineString", "coordinates": [[-89.22498, 48.411921], [-89.22517, 48.411742], [-89.225145, 48.411635], [-89.22465, 48.411492]]}}, {"type": "Feature", "properties": {"d": 2}, "geometry": {"type": "LineString", "coordinates": [[-89.219608, 48.41238], [-89.219304, 48.412421], [-89.219176, 48.412886], [-89.219068, 48.41293], [-89.218885, 48.412457], [-89.219176, 48.412208], [-89.219392, 48.412195], [-89.219608, 48.412258]]}}, {"type": "Feature", "properties": {"d": 2}, "geometry": {"type": "LineString", "coordinates": [[-89.220572, 48.413315], [-89.220579, 48.413422], [-89.220421, 48.413494], [-89.219554, 48.413485], [-89.219392, 48.413439], [-89.219348, 48.413351], [-89.219608, 48.413197]]}}, {"type": "Feature", "properties": {"d": 2}, "geometry": {"type": "LineString", "coordinates": [[-89.226925, 48.414101], [-89.226671, 48.413955], [-89.225539, 48.413818], [-89.225215, 48.413608], [-89.224854, 48.413529]]}}, {"type": "Feature", "properties": {"d": 2}, "geometry": {"type": "LineString", "coordinates": [[-89.219392, 48.41511], [-89.219122, 48.415173], [-89.218918, 48.415102], [-89.218842, 48.414995]]}}, {"type": "Feature", "properties": {"d": 2}, "geometry": {"type": "LineString", "coordinates": [[-89.225269, 48.415889], [-89.225314, 48.415317]]}}, {"type": "Feature", "properties": {"d": 2}, "geometry": {"type": "LineString", "coordinates": [[-89.218637, 48.416156], [-89.218737, 48.416318], [-89.218637, 48.416377], [-89.218491, 48.416246], [-89.218637, 48.416156]]}}, {"type": "Feature", "properties": {"d": 2}, "geometry": {"type": "LineString", "coordinates": [[-89.219446, 48.416305], [-89.219176, 48.416377], [-89.219074, 48.416282], [-89.219122, 48.416084], [-89.219446, 48.416131]]}}, {"type": "Feature", "properties": {"d": 2}, "geometry": {"type": "LineString", "coordinates": [[-89.22053, 48.416353], [-89.220416, 48.41644], [-89.219985, 48.41656], [-89.219796, 48.416496], [-89.219891, 48.416353]]}}, {"type": "Feature", "properties": {"d": 2}, "geometry": {"type": "LineString", "coordinates": [[-89.223809, 48.417319], [-89.223812, 48.417211], [-89.223975, 48.417152], [-89.225, 48.41703], [-89.225166, 48.417137]]}}, {"type": "Feature", "properties": {"d": 2}, "geometry": {"type": "LineString", "coordinates": [[-89.208338, 48.418462], [-89.208291, 48.418605], [-89.208422, 48.418713], [-89.208338, 48.418759], [-89.208268, 48.418534], [-89.208338, 48.418462]]}}, {"type": "Feature", "properties": {"d": 2}, "geometry": {"type": "LineString", "coordinates": [[-89.217253, 48.42], [-89.217236, 48.418677], [-89.217471, 48.418105], [-89.217308, 48.417676], [-89.217505, 48.417651]]}}, {"type": "Feature", "properties": {"d": 2}, "geometry": {"type": "LineString", "coordinates": [[-89.207662, 48.42], [-89.208403, 48.419142], [-89.208336, 48.418999], [-89.208446, 48.418919], [-89.208657, 48.419177], [-89.208639, 48.419356], [-89.208766, 48.419499], [-89.208321, 48.419642], [-89.208086, 48.42]]}}, {"type": "Feature", "properties": {"d": 4}, "geometry": {"type": "LineString", "coordinates": [[-89.237285, 48.37007], [-89.238048, 48.370166], [-89.238155, 48.370291]]}}, {"type": "Feature", "properties": {"d": 4}, "geometry": {"type": "LineString", "coordinates": [[-89.243916, 48.370291], [-89.244001, 48.370219], [-89.244411, 48.370149], [-89.245274, 48.370075], [-89.245433, 48.370148]]}}, {"type": "Feature", "properties": {"d": 4}, "geometry": {"type": "LineString", "coordinates": [[-89.241408, 48.370291], [-89.241661, 48.370231], [-89.241985, 48.370239], [-89.242083, 48.370291], [-89.242085, 48.370398]]}}, {"type": "Feature", "properties": {"d": 4}, "geometry": {"type": "LineString", "coordinates": [[-89.242597, 48.370362], [-89.242615, 48.370255], [-89.242794, 48.370209], [-89.242955, 48.370221], [-89.243031, 48.370326]]}}, {"type": "Feature", "properties": {"d": 4}, "geometry": {"type": "LineString", "coordinates": [[-89.248249, 48.370404], [-89.248364, 48.370434], [-89.248412, 48.370541], [-89.248476, 48.372151], [-89.248409, 48.372402], [-89.248186, 48.372443]]}}, {"type": "Feature", "properties": {"d": 4}, "geometry": {"type": "LineString", "coordinates": [[-89.249641, 48.372585], [-89.24948, 48.372447], [-89.24952, 48.372366], [-89.249749, 48.37231], [-89.249914, 48.372364]]}}, {"type": "Feature", "properties": {"d": 4}, "geometry": {"type": "LineString", "coordinates": [[-89.248725, 48.373334], [-89.248833, 48.373086], [-89.248985, 48.373123]]}}, {"type": "Feature", "properties": {"d": 4}, "geometry": {"type": "LineString", "coordinates": [[-89.246406, 48.373475], [-89.246526, 48.373511], [-89.24646, 48.373517], [-89.246352, 48.373762], [-89.246244, 48.373826], [-89.245975, 48.373818]]}}, {"type": "Feature", "properties": {"d": 4}, "geometry": {"type": "LineString", "coordinates": [[-89.24519, 48.374604], [-89.245308, 48.374691], [-89.24531, 48.374834], [-89.245091, 48.374906], [-89.245058, 48.375095], [-89.244735, 48.375093]]}}, {"type": "Feature", "properties": {"d": 4}, "geometry": {"type": "LineString", "coordinates": [[-89.224927, 48.3758], [-89.224514, 48.376023], [-89.220686, 48.376263], [-89.219068, 48.376466], [-89.218313, 48.376489], [-89.216642, 48.37666], [-89.216426, 48.376631], [-89.216157, 48.376714], [-89.215887, 48.376672], [-89.215078, 48.376737], [-89.214809, 48.376854], [-89.214539, 48.376753], [-89.214378, 48.376516]]}}, {"type": "Feature", "properties": {"d": 4}, "geometry": {"type": "LineString", "coordinates": [[-89.243602, 48.376249], [-89.243776, 48.376409], [-89.243548, 48.376571], [-89.24329, 48.376587], [-89.243477, 48.376838], [-89.243171, 48.37706], [-89.242146, 48.377077], [-89.241899, 48.376981], [-89.241814, 48.376838]]}}, {"type": "Feature", "properties": {"d": 4}, "geometry": {"type": "LineString", "coordinates": [[-89.214296, 48.376534], [-89.214308, 48.376802], [-89.214216, 48.37686], [-89.214163, 48.376552]]}}, {"type": "Feature", "properties": {"d": 4}, "geometry": {"type": "LineString", "coordinates": [[-89.213442, 48.376659], [-89.213444, 48.376981], [-89.212867, 48.377172], [-89.211789, 48.377402], [-89.21159, 48.377518], [-89.211401, 48.377696], [-89.211451, 48.377911], [-89.211246, 48.378126], [-89.211297, 48.378269]]}}, {"type": "Feature", "properties": {"d": 4}, "geometry": {"type": "LineString", "coordinates": [[-89.239458, 48.376838], [-89.239235, 48.376993], [-89.238749, 48.376985], [-89.237294, 48.376793], [-89.236161, 48.376755], [-89.235568, 48.376676], [-89.234921, 48.376684], [-89.233951, 48.376571], [-89.23325, 48.376639], [-89.232926, 48.376547], [-89.232063, 48.376478], [-89.231201, 48.37653], [-89.230392, 48.376373], [-89.228505, 48.376349], [-89.228235, 48.376236], [-89.22524, 48.376051], [-89.225135, 48.375979], [-89.225133, 48.3758]]}}, {"type": "Feature", "properties": {"d": 4}, "geometry": {"type": "LineString", "coordinates": [[-89.224253, 48.377267], [-89.224407, 48.377216], [-89.22624, 48.377268], [-89.228158, 48.377375], [-89.228416, 48.377446]]}}, {"type": "Feature", "properties": {"d": 4}, "geometry": {"type": "LineString", "coordinates": [[-89.221208, 48.377267], [-89.221441, 48.377167], [-89.222411, 48.377148], [-89.222951, 48.37703], [-89.223169, 48.377088], [-89.223247, 48.377196], [-89.223209, 48.377331]]}}, {"type": "Feature", "properties": {"d": 4}, "geometry": {"type": "LineString", "coordinates": [[-89.223507, 48.377339], [-89.223652, 48.377241], [-89.223975, 48.377221], [-89.224131, 48.377267]]}}, {"type": "Feature", "properties": {"d": 4}, "geometry": {"type": "LineString", "coordinates": [[-89.229861, 48.377589], [-89.229906, 48.377507], [-89.230122, 48.377481], [-89.23025, 48.377518], [-89.230272, 48.377589]]}}, {"type": "Feature", "properties": {"d": 4}, "geometry": {"type": "LineString", "coordinates": [[-89.240367, 48.377668], [-89.240637, 48.377708], [-89.241122, 48.377896], [-89.241427, 48.378126], [-89.241392, 48.378207]]}}, {"type": "Feature", "properties": {"d": 4}, "geometry": {"type": "LineString", "coordinates": [[-89.217615, 48.377804], [-89.217583, 48.377661], [-89.21772, 48.377562], [-89.218313, 48.377396], [-89.220201, 48.37725], [-89.220838, 48.377273]]}}, {"type": "Feature", "properties": {"d": 4}, "geometry": {"type": "LineString", "coordinates": [[-89.213038, 48.378269], [-89.213083, 48.378194], [-89.213407, 48.378081], [-89.213568, 48.378089], [-89.213606, 48.378162]]}}, {"type": "Feature", "properties": {"d": 4}, "geometry": {"type": "LineString", "coordinates": [[-89.202299, 48.378425], [-89.204294, 48.378416], [-89.204564, 48.37835], [-89.20575, 48.378314], [-89.206181, 48.3782], [-89.206559, 48.378004], [-89.207206, 48.377882], [-89.207445, 48.377768], [-89.207152, 48.377675], [-89.206451, 48.377601], [-89.206289, 48.377507], [-89.205642, 48.377443], [-89.202299, 48.377482]]}}, {"type": "Feature", "properties": {"d": 4}, "geometry": {"type": "LineString", "coordinates": [[-89.241769, 48.378554], [-89.242064, 48.378698], [-89.241985, 48.379414], [-89.241499, 48.380535], [-89.241284, 48.380768], [-89.24099, 48.380825]]}}, {"type": "Feature", "properties": {"d": 4}, "geometry": {"type": "LineString", "coordinates": [[-89.244303, 48.378787], [-89.244195, 48.378769], [-89.244134, 48.378519], [-89.244195, 48.37825], [-89.244387, 48.377983], [-89.244681, 48.377742], [-89.245058, 48.377266], [-89.245274, 48.377152], [-89.245436, 48.377213]]}}, {"type": "Feature", "properties": {"d": 4}, "geometry": {"type": "LineString", "coordinates": [[-89.239092, 48.382919], [-89.239101, 48.383062], [-89.238212, 48.383635], [-89.237941, 48.383711], [-89.237812, 48.383649]]}}, {"type": "Feature", "properties": {"d": 4}, "geometry": {"type": "LineString", "coordinates": [[-89.236816, 48.384207], [-89.236945, 48.384314], [-89.236916, 48.384427], [-89.236754, 48.384478], [-89.236566, 48.384403]]}}, {"type": "Feature", "properties": {"d": 4}, "geometry": {"type": "LineString", "coordinates": [[-89.235048, 48.385267], [-89.235105, 48.38553], [-89.23453, 48.385888], [-89.234274, 48.386229], [-89.233627, 48.386444], [-89.23329, 48.386711], [-89.23298, 48.386701], [-89.232764, 48.386886], [-89.23188, 48.387176], [-89.231686, 48.387335], [-89.231201, 48.387449], [-89.231093, 48.387629], [-89.230661, 48.387745], [-89.230141, 48.3877]]}}, {"type": "Feature", "properties": {"d": 4}, "geometry": {"type": "LineString", "coordinates": [[-89.230054, 48.387748], [-89.230003, 48.387963], [-89.229691, 48.388166], [-89.229313, 48.3883], [-89.229098, 48.388283], [-89.22899, 48.388452], [-89.228451, 48.388599], [-89.228343, 48.388754], [-89.228073, 48.388785], [-89.227426, 48.389103], [-89.227009, 48.388928]]}}, {"type": "Feature", "properties": {"d": 4}, "geometry": {"type": "LineString", "coordinates": [[-89.23427, 48.388001], [-89.234249, 48.38782], [-89.234328, 48.38773], [-89.234705, 48.387653], [-89.234943, 48.387462], [-89.235216, 48.387445]]}}, {"type": "Feature", "properties": {"d": 4}, "geometry": {"type": "LineString", "coordinates": [[-89.233318, 48.388392], [-89.233474, 48.388213], [-89.233789, 48.388123], [-89.233988, 48.388141]]}}, {"type": "Feature", "properties": {"d": 4}, "geometry": {"type": "LineString", "coordinates": [[-89.226011, 48.389259], [-89.226014, 48.389536], [-89.225556, 48.389787], [-89.224892, 48.389883], [-89.223975, 48.390234], [-89.222627, 48.390465], [-89.221279, 48.390849], [-89.220147, 48.391037], [-89.219985, 48.391112], [-89.219608, 48.391138], [-89.219068, 48.391307], [-89.218788, 48.391325], [-89.21799, 48.391588], [-89.217666, 48.391582], [-89.217505, 48.391687], [-89.217328, 48.391682], [-89.217231, 48.391575], [-89.217314, 48.391325], [-89.217661, 48.391038], [-89.21772, 48.390879], [-89.217917, 48.390788], [-89.218313, 48.39041], [-89.218528, 48.390395]]}}, {"type": "Feature", "properties": {"d": 4}, "geometry": {"type": "LineString", "coordinates": [[-89.218637, 48.390258], [-89.218538, 48.39018], [-89.218545, 48.390073], [-89.218712, 48.389965], [-89.218773, 48.389822], [-89.219069, 48.389644], [-89.219142, 48.389465], [-89.219383, 48.389286], [-89.219338, 48.389218], [-89.219014, 48.389152], [-89.218882, 48.38898]]}}, {"type": "Feature", "properties": {"d": 4}, "geometry": {"type": "LineString", "coordinates": [[-89.21497, 48.39043], [-89.21479, 48.390287], [-89.21484, 48.389965], [-89.214593, 48.389805], [-89.214377, 48.389834], [-89.214048, 48.390109], [-89.213845, 48.39043], [-89.213815, 48.390895], [-89.213589, 48.391146], [-89.212895, 48.391539], [-89.211304, 48.392653], [-89.210657, 48.392912], [-89.20974, 48.39281], [-89.207745, 48.39289], [-89.206343, 48.392779], [-89.205588, 48.392991], [-89.204779, 48.393047], [-89.204402, 48.393258], [-89.203971, 48.393367], [-89.20327, 48.393379], [-89.202892, 48.39348], [-89.202299, 48.393495]]}}, {"type": "Feature", "properties": {"d": 4}, "geometry": {"type": "LineString", "coordinates": [[-89.226165, 48.391053], [-89.22624, 48.390973], [-89.226779, 48.390867]]}}, {"type": "Feature", "properties": {"d": 4}, "geometry": {"type": "LineString", "coordinates": [[-89.224029, 48.391312], [-89.224061, 48.39136], [-89.223975, 48.391455], [-89.223878, 48.391325], [-89.224029, 48.391312]]}}, {"type": "Feature", "properties": {"d": 4}, "geometry": {"type": "LineString", "coordinates": [[-89.216453, 48.391414], [-89.216265, 48.391679], [-89.215948, 48.391677]]}}, {"type": "Feature", "properties": {"d": 4}, "geometry": {"type": "LineString", "coordinates": [[-89.214485, 48.391656], [-89.214314, 48.391575], [-89.214287, 48.391468], [-89.214367, 48.391217], [-89.214495, 48.391146], [-89.214472, 48.390967], [-89.214713, 48.39086], [-89.214593, 48.390732], [-89.214615, 48.390538], [-89.214701, 48.390458], [-89.214969, 48.390431]]}}, {"type": "Feature", "properties": {"d": 4}, "geometry": {"type": "LineString", "coordinates": [[-89.215909, 48.391682], [-89.21601, 48.391897], [-89.21582, 48.391968], [-89.215701, 48.392111], [-89.21532, 48.392254], [-89.214701, 48.392282], [-89.214485, 48.39224], [-89.214054, 48.392329], [-89.213994, 48.392254], [-89.214154, 48.392076], [-89.214162, 48.391786], [-89.214431, 48.391726]]}}, {"type": "Feature", "properties": {"d": 4}, "geometry": {"type": "LineString", "coordinates": [[-89.223007, 48.391967], [-89.223112, 48.391737], [-89.22349, 48.391701], [-89.223867, 48.391568], [-89.223975, 48.391618], [-89.224191, 48.391598], [-89.224892, 48.391407], [-89.225161, 48.391273], [-89.225282, 48.391325]]}}, {"type": "Feature", "properties": {"d": 4}, "geometry": {"type": "LineString", "coordinates": [[-89.22132, 48.39229], [-89.221549, 48.392193], [-89.221764, 48.392223], [-89.221926, 48.392085], [-89.22225, 48.392153], [-89.222287, 48.392004], [-89.222411, 48.391958], [-89.222789, 48.391928], [-89.222932, 48.391981]]}}, {"type": "Feature", "properties": {"d": 4}, "geometry": {"type": "LineString", "coordinates": [[-89.217387, 48.393327], [-89.21799, 48.393088], [-89.218853, 48.392944], [-89.219366, 48.392684], [-89.219769, 48.392627], [-89.220255, 48.392446], [-89.221063, 48.392275], [-89.221276, 48.392292]]}}, {"type": "Feature", "properties": {"d": 4}, "geometry": {"type": "LineString", "coordinates": [[-89.215595, 48.393792], [-89.215671, 48.393669], [-89.21648, 48.39345], [-89.216858, 48.393371], [-89.217213, 48.393378]]}}, {"type": "Feature", "properties": {"d": 4}, "geometry": {"type": "LineString", "coordinates": [[-89.214595, 48.394007], [-89.214647, 48.393911], [-89.214863, 48.393822], [-89.215132, 48.393823], [-89.215147, 48.3939]]}}, {"type": "Feature", "properties": {"d": 4}, "geometry": {"type": "LineString", "coordinates": [[-89.202299, 48.403513], [-89.202439, 48.40359], [-89.202795, 48.404413], [-89.202995, 48.405092], [-89.202946, 48.405477], [-89.202641, 48.405414], [-89.202299, 48.404848]]}}, {"type": "Feature", "properties": {"d": 4}, "geometry": {"type": "LineString", "coordinates": [[-89.211573, 48.404373], [-89.211646, 48.404448], [-89.211697, 48.40502], [-89.211604, 48.4057], [-89.211466, 48.406077], [-89.210875, 48.405235], [-89.211196, 48.404656], [-89.211415, 48.404413], [-89.211573, 48.404373]]}}, {"type": "Feature", "properties": {"d": 4}, "geometry": {"type": "LineString", "coordinates": [[-89.214701, 48.404591], [-89.214536, 48.404484], [-89.214402, 48.404091], [-89.214162, 48.403899], [-89.21373, 48.404117], [-89.213407, 48.404186], [-89.212909, 48.404162], [-89.212652, 48.404277], [-89.212248, 48.404198], [-89.212274, 48.404126], [-89.212567, 48.404055], [-89.212683, 48.403948], [-89.213353, 48.403738], [-89.214054, 48.403722], [-89.214281, 48.403626], [-89.214097, 48.403233], [-89.214126, 48.402625], [-89.213771, 48.402518], [-89.213802, 48.402446], [-89.214108, 48.402402], [-89.214183, 48.402303], [-89.213879, 48.401981], [-89.213622, 48.400835], [-89.213416, 48.400658], [-89.213368, 48.400408], [-89.213159, 48.400229], [-89.213126, 48.400086], [-89.212841, 48.399836], [-89.212785, 48.399514], [-89.212932, 48.399299], [-89.212749, 48.399049], [-89.212472, 48.398942], [-89.212402, 48.398799], [-89.212465, 48.398477], [-89.212089, 48.397941], [-89.212131, 48.397797], [-89.212275, 48.39769], [-89.212272, 48.397547], [-89.212031, 48.397333], [-89.211831, 48.396868], [-89.211427, 48.396474], [-89.211401, 48.396224], [-89.211137, 48.395938], [-89.211466, 48.395863], [-89.211469, 48.395759], [-89.21125, 48.395614], [-89.21098, 48.395697], [-89.210711, 48.395619], [-89.210536, 48.395044], [-89.210603, 48.394948], [-89.212328, 48.394547], [-89.212598, 48.394371], [-89.213337, 48.39415], [-89.213515, 48.394186], [-89.213892, 48.39407], [-89.214323, 48.394167]]}}, {"type": "Feature", "properties": {"d": 4}, "geometry": {"type": "LineString", "coordinates": [[-89.203054, 48.405547], [-89.20339, 48.406343], [-89.203216, 48.406661], [-89.202803, 48.405807], [-89.202838, 48.405597], [-89.202946, 48.405523], [-89.203054, 48.405547]]}}, {"type": "Feature", "properties": {"d": 4}, "geometry": {"type": "LineString", "coordinates": [[-89.203539, 48.406725], [-89.203657, 48.407166], [-89.203845, 48.407309], [-89.203763, 48.407416], [-89.204146, 48.407988], [-89.20415, 48.408131], [-89.204024, 48.408187], [-89.203855, 48.408167], [-89.20367, 48.407917], [-89.20347, 48.407237], [-89.203324, 48.407094], [-89.20327, 48.406746], [-89.203539, 48.406725]]}}, {"type": "Feature", "properties": {"d": 4}, "geometry": {"type": "LineString", "coordinates": [[-89.204024, 48.408308], [-89.204227, 48.408381], [-89.20451, 48.408929], [-89.204662, 48.409025], [-89.204749, 48.409454], [-89.204883, 48.409668], [-89.20485, 48.409811], [-89.205093, 48.410276], [-89.204833, 48.41045], [-89.204725, 48.410405], [-89.204489, 48.409954], [-89.204502, 48.409776], [-89.204332, 48.409633], [-89.203915, 48.408417], [-89.203917, 48.408325], [-89.204024, 48.408308]]}}, {"type": "Feature", "properties": {"d": 4}, "geometry": {"type": "LineString", "coordinates": [[-89.22123, 48.409386], [-89.221063, 48.409499], [-89.220147, 48.409617], [-89.219338, 48.409534], [-89.219195, 48.409418]]}}, {"type": "Feature", "properties": {"d": 4}, "geometry": {"type": "LineString", "coordinates": [[-89.204941, 48.41051], [-89.205105, 48.410598], [-89.205049, 48.410686], [-89.204863, 48.410634], [-89.204857, 48.410526], [-89.204941, 48.41051]]}}, {"type": "Feature", "properties": {"d": 4}, "geometry": {"type": "LineString", "coordinates": [[-89.226201, 48.410634], [-89.22622, 48.410455], [-89.225701, 48.410305], [-89.224083, 48.410227], [-89.223112, 48.410316], [-89.222843, 48.410205], [-89.222196, 48.410226], [-89.22198, 48.40999], [-89.221711, 48.410123], [-89.221549, 48.410118], [-89.221549, 48.409937], [-89.222627, 48.409818], [-89.222666, 48.409561]]}}, {"type": "Feature", "properties": {"d": 4}, "geometry": {"type": "LineString", "coordinates": [[-89.219608, 48.411166], [-89.219176, 48.41123], [-89.219039, 48.411098], [-89.219063, 48.410955], [-89.219284, 48.410841], [-89.220255, 48.410682], [-89.221441, 48.410645], [-89.222088, 48.410672], [-89.222308, 48.410738]]}}, {"type": "Feature", "properties": {"d": 4}, "geometry": {"type": "LineString", "coordinates": [[-89.224888, 48.411921], [-89.224913, 48.411635], [-89.22427, 48.411527], [-89.224108, 48.411384]]}}, {"type": "Feature", "properties": {"d": 4}, "geometry": {"type": "LineString", "coordinates": [[-89.205966, 48.412706], [-89.206141, 48.41285], [-89.206127, 48.413151], [-89.205912, 48.412982], [-89.205966, 48.412706]]}}, {"type": "Feature", "properties": {"d": 4}, "geometry": {"type": "LineString", "coordinates": [[-89.221387, 48.413489], [-89.221171, 48.413573], [-89.220902, 48.413538], [-89.220362, 48.413605], [-89.2195, 48.413581], [-89.218745, 48.413459], [-89.218367, 48.413288], [-89.218273, 48.413172], [-89.218216, 48.412779], [-89.218544, 48.412207], [-89.219284, 48.412068], [-89.219608, 48.412178]]}}, {"type": "Feature", "properties": {"d": 4}, "geometry": {"type": "LineString", "coordinates": [[-89.206343, 48.413563], [-89.206397, 48.413708], [-89.206289, 48.413789], [-89.206204, 48.413744], [-89.206197, 48.413601], [-89.206235, 48.413541], [-89.206343, 48.413563]]}}, {"type": "Feature", "properties": {"d": 4}, "geometry": {"type": "LineString", "coordinates": [[-89.226238, 48.414316], [-89.226275, 48.414101], [-89.226522, 48.41403], [-89.225485, 48.4139], [-89.225161, 48.413752], [-89.224622, 48.413717], [-89.224385, 48.413615]]}}, {"type": "Feature", "properties": {"d": 4}, "geometry": {"type": "LineString", "coordinates": [[-89.218206, 48.414912], [-89.217991, 48.414924], [-89.217932, 48.414638], [-89.218044, 48.414478], [-89.218206, 48.414513]]}}, {"type": "Feature", "properties": {"d": 4}, "geometry": {"type": "LineString", "coordinates": [[-89.220234, 48.415174], [-89.220211, 48.415281], [-89.220093, 48.415304], [-89.218799, 48.415256], [-89.2183, 48.415138], [-89.218216, 48.414966]]}}, {"type": "Feature", "properties": {"d": 4}, "geometry": {"type": "LineString", "coordinates": [[-89.225045, 48.415889], [-89.225186, 48.415531], [-89.225004, 48.415245]]}}, {"type": "Feature", "properties": {"d": 4}, "geometry": {"type": "LineString", "coordinates": [[-89.220674, 48.416353], [-89.220416, 48.416529], [-89.219931, 48.416597], [-89.219662, 48.416537], [-89.218811, 48.416532], [-89.21826, 48.416459], [-89.218042, 48.416389], [-89.217955, 48.416246], [-89.218084, 48.416032], [-89.218637, 48.415924], [-89.220578, 48.415904], [-89.220902, 48.415976], [-89.221171, 48.415889], [-89.22128, 48.41596]]}}, {"type": "Feature", "properties": {"d": 4}, "geometry": {"type": "LineString", "coordinates": [[-89.207691, 48.416913], [-89.207907, 48.417093], [-89.207902, 48.417211], [-89.207799, 48.417281], [-89.207618, 48.417211], [-89.207586, 48.416961], [-89.207691, 48.416913]]}}, {"type": "Feature", "properties": {"d": 4}, "geometry": {"type": "LineString", "coordinates": [[-89.223355, 48.417408], [-89.223382, 48.417261], [-89.223652, 48.417041], [-89.225, 48.416904], [-89.225311, 48.417068]]}}, {"type": "Feature", "properties": {"d": 4}, "geometry": {"type": "LineString", "coordinates": [[-89.207745, 48.417414], [-89.208085, 48.417533], [-89.208069, 48.417761], [-89.207879, 48.417712], [-89.207815, 48.417533], [-89.207663, 48.417462], [-89.207745, 48.417414]]}}, {"type": "Feature", "properties": {"d": 4}, "geometry": {"type": "LineString", "coordinates": [[-89.21772, 48.417625], [-89.218174, 48.41784]]}}, {"type": "Feature", "properties": {"d": 4}, "geometry": {"type": "LineString", "coordinates": [[-89.217163, 48.42], [-89.217167, 48.418713], [-89.217261, 48.418141], [-89.217154, 48.417605], [-89.217235, 48.417568], [-89.217505, 48.417614]]}}, {"type": "Feature", "properties": {"d": 4}, "geometry": {"type": "LineString", "coordinates": [[-89.207389, 48.42], [-89.207451, 48.419821], [-89.207645, 48.419749], [-89.207853, 48.419552], [-89.208223, 48.418963], [-89.208252, 48.41882], [-89.208113, 48.418641], [-89.208075, 48.418248], [-89.20823, 48.418235], [-89.208415, 48.418284], [-89.208439, 48.418605], [-89.208604, 48.418713], [-89.208655, 48.419034], [-89.20879, 48.419106], [-89.208988, 48.419463], [-89.208978, 48.419535], [-89.208592, 48.419714], [-89.208576, 48.419892], [-89.208725, 48.42]]}}, {"type": "Feature", "properties": {"d": 6}, "geometry": {"type": "LineString", "coordinates": [[-89.237588, 48.369969], [-89.23821, 48.370119], [-89.238749, 48.370015], [-89.241338, 48.370111], [-89.244735, 48.370035], [-89.245086, 48.369969]]}}, {"type": "Feature", "properties": {"d": 6}, "geometry": {"type": "LineString", "coordinates": [[-89.248132, 48.370267], [-89.248401, 48.370281], [-89.248589, 48.37047], [-89.248523, 48.371293], [-89.248757, 48.37208], [-89.248636, 48.372437], [-89.248357, 48.372759], [-89.247939, 48.372974], [-89.247654, 48.373225], [-89.246696, 48.373833], [-89.246044, 48.374369], [-89.245701, 48.374691], [-89.245339, 48.375192], [-89.245004, 48.375455], [-89.243507, 48.377017], [-89.243225, 48.377185], [-89.24274, 48.377344], [-89.241446, 48.377397], [-89.239235, 48.377134], [-89.23724, 48.377002], [-89.236161, 48.377014], [-89.235299, 48.376799], [-89.234651, 48.376833], [-89.233962, 48.376731], [-89.233088, 48.376711], [-89.232818, 48.376636], [-89.231848, 48.376577], [-89.231201, 48.376604], [-89.230715, 48.376503], [-89.229152, 48.376409], [-89.228612, 48.376408], [-89.228451, 48.376467], [-89.228235, 48.376365], [-89.227382, 48.376265], [-89.224299, 48.376116], [-89.223652, 48.376152], [-89.223112, 48.376255], [-89.222002, 48.376265], [-89.218212, 48.376623], [-89.217989, 48.376695], [-89.217793, 48.376874], [-89.216804, 48.377094], [-89.216589, 48.377303], [-89.21675, 48.377738], [-89.217127, 48.377685], [-89.217505, 48.377469], [-89.218098, 48.377326], [-89.219446, 48.377182], [-89.22196, 48.377053], [-89.223112, 48.376904], [-89.223274, 48.377], [-89.223706, 48.377101], [-89.223975, 48.377045], [-89.224838, 48.377153], [-89.229098, 48.377356], [-89.230338, 48.37735], [-89.231093, 48.377425], [-89.231225, 48.377518], [-89.231238, 48.377625]]}}, {"type": "Feature", "properties": {"d": 6}, "geometry": {"type": "LineString", "coordinates": [[-89.248424, 48.373603], [-89.248591, 48.373153], [-89.249129, 48.372616], [-89.24921, 48.372294], [-89.249974, 48.371829], [-89.250342, 48.371167], [-89.25072, 48.370838], [-89.250786, 48.370649], [-89.251097, 48.37033], [-89.251246, 48.369969]]}}, {"type": "Feature", "properties": {"d": 6}, "geometry": {"type": "LineString", "coordinates": [[-89.215703, 48.377482], [-89.214701, 48.377745], [-89.214465, 48.377661], [-89.214323, 48.377515], [-89.214054, 48.377726], [-89.213267, 48.377947], [-89.214216, 48.378011], [-89.214701, 48.377917], [-89.215725, 48.377926], [-89.216109, 48.377732], [-89.215794, 48.377589], [-89.215703, 48.377482]]}}, {"type": "Feature", "properties": {"d": 6}, "geometry": {"type": "LineString", "coordinates": [[-89.233151, 48.377696], [-89.23325, 48.377606], [-89.233411, 48.377578], [-89.233627, 48.377602], [-89.233752, 48.377696]]}}, {"type": "Feature", "properties": {"d": 6}, "geometry": {"type": "LineString", "coordinates": [[-89.237017, 48.377804], [-89.237033, 48.377661], [-89.237205, 48.377518], [-89.237671, 48.377415], [-89.238156, 48.377357], [-89.23972, 48.377352], [-89.240691, 48.377471], [-89.241553, 48.377684], [-89.241953, 48.377911], [-89.242254, 48.378424], [-89.242406, 48.378555], [-89.242424, 48.378913], [-89.241582, 48.380701], [-89.241338, 48.380905], [-89.240906, 48.381081]]}}, {"type": "Feature", "properties": {"d": 6}, "geometry": {"type": "LineString", "coordinates": [[-89.202299, 48.378298], [-89.203809, 48.378198], [-89.204026, 48.37809], [-89.203882, 48.377875], [-89.202946, 48.377704], [-89.202299, 48.37768]]}}, {"type": "Feature", "properties": {"d": 6}, "geometry": {"type": "LineString", "coordinates": [[-89.243307, 48.380611], [-89.243299, 48.380272], [-89.243476, 48.380165], [-89.243533, 48.379771], [-89.244144, 48.37809], [-89.244681, 48.377435], [-89.245702, 48.37648], [-89.246191, 48.376178], [-89.246438, 48.375908], [-89.246752, 48.375851]]}}, {"type": "Feature", "properties": {"d": 6}, "geometry": {"type": "LineString", "coordinates": [[-89.240561, 48.381574], [-89.240606, 48.381846], [-89.240343, 48.382383], [-89.239652, 48.382919], [-89.2367, 48.384773], [-89.236323, 48.384874], [-89.235997, 48.384709]]}}, {"type": "Feature", "properties": {"d": 6}, "geometry": {"type": "LineString", "coordinates": [[-89.240881, 48.383652], [-89.240915, 48.38342], [-89.241553, 48.382981], [-89.242021, 48.382454], [-89.242927, 48.381023], [-89.243171, 48.380932]]}}, {"type": "Feature", "properties": {"d": 6}, "geometry": {"type": "LineString", "coordinates": [[-89.235325, 48.38512], [-89.235505, 48.385316], [-89.235406, 48.385356], [-89.235218, 48.385316], [-89.235242, 48.385566], [-89.234759, 48.385847], [-89.234439, 48.386246], [-89.233789, 48.386615], [-89.232117, 48.387384], [-89.231362, 48.387535], [-89.231201, 48.38768], [-89.230823, 48.387839], [-89.2305, 48.387935], [-89.23023, 48.387826], [-89.230231, 48.388034], [-89.229906, 48.388112], [-89.229367, 48.388429], [-89.229152, 48.388473], [-89.228692, 48.388714], [-89.228103, 48.388857], [-89.22748, 48.38919], [-89.226887, 48.389336], [-89.226509, 48.389553], [-89.225808, 48.389725], [-89.225593, 48.389849], [-89.224676, 48.390067], [-89.224229, 48.390216], [-89.224029, 48.390343], [-89.223278, 48.39043], [-89.221818, 48.390841], [-89.220362, 48.39111], [-89.218044, 48.391729], [-89.216858, 48.391863], [-89.216801, 48.391789], [-89.216965, 48.391672], [-89.217187, 48.391253], [-89.218313, 48.390226], [-89.218646, 48.389787], [-89.218961, 48.389539], [-89.219067, 48.389322], [-89.218799, 48.389248], [-89.218529, 48.389363], [-89.218377, 48.389351]]}}, {"type": "Feature", "properties": {"d": 6}, "geometry": {"type": "LineString", "coordinates": [[-89.234227, 48.38803], [-89.23419, 48.38782], [-89.234328, 48.387682], [-89.234651, 48.387617], [-89.234813, 48.387453], [-89.235162, 48.38739], [-89.235299, 48.387176], [-89.235564, 48.38725]]}}, {"type": "Feature", "properties": {"d": 6}, "geometry": {"type": "LineString", "coordinates": [[-89.233253, 48.388425], [-89.233465, 48.388167], [-89.233789, 48.388084], [-89.234048, 48.388113]]}}, {"type": "Feature", "properties": {"d": 6}, "geometry": {"type": "LineString", "coordinates": [[-89.217544, 48.390261], [-89.217548, 48.390359], [-89.217385, 48.390538], [-89.217073, 48.390769]]}}, {"type": "Feature", "properties": {"d": 6}, "geometry": {"type": "LineString", "coordinates": [[-89.227497, 48.390598], [-89.227588, 48.390456], [-89.22775, 48.390408], [-89.227896, 48.390441]]}}, {"type": "Feature", "properties": {"d": 6}, "geometry": {"type": "LineString", "coordinates": [[-89.224029, 48.390606], [-89.224061, 48.390824], [-89.223813, 48.390853], [-89.223733, 48.390788], [-89.223759, 48.390645], [-89.223867, 48.390592], [-89.224029, 48.390606]]}}, {"type": "Feature", "properties": {"d": 6}, "geometry": {"type": "LineString", "coordinates": [[-89.216946, 48.390908], [-89.216996, 48.391003], [-89.215941, 48.392177], [-89.21524, 48.392384], [-89.214, 48.392411], [-89.213925, 48.39229], [-89.213957, 48.392004], [-89.214189, 48.391646], [-89.214566, 48.390502], [-89.214726, 48.390323], [-89.214744, 48.389965], [-89.214485, 48.389872], [-89.214255, 48.390073], [-89.214054, 48.390787], [-89.21364, 48.39136], [-89.212975, 48.391583], [-89.212814, 48.391786], [-89.21249, 48.391923], [-89.21222, 48.392209], [-89.211789, 48.392413], [-89.211358, 48.392822], [-89.211088, 48.392902], [-89.210603, 48.393213], [-89.208985, 48.393605], [-89.20823, 48.393718], [-89.205804, 48.394429], [-89.205319, 48.394495], [-89.204779, 48.394657], [-89.204078, 48.394741], [-89.202299, 48.395154]]}}, {"type": "Feature", "properties": {"d": 6}, "geometry": {"type": "LineString", "coordinates": [[-89.22606, 48.391074], [-89.226132, 48.390943], [-89.226779, 48.390809], [-89.226941, 48.390661], [-89.22721, 48.390581], [-89.227404, 48.390624]]}}, {"type": "Feature", "properties": {"d": 6}, "geometry": {"type": "LineString", "coordinates": [[-89.214509, 48.394007], [-89.214669, 48.393828], [-89.215833, 48.39346], [-89.216534, 48.393313], [-89.217127, 48.393313], [-89.217613, 48.39311], [-89.218853, 48.392854], [-89.219284, 48.392646], [-89.220255, 48.392386], [-89.222897, 48.391814], [-89.223059, 48.391686], [-89.223654, 48.391575], [-89.223813, 48.391236], [-89.224137, 48.39126], [-89.224299, 48.39146], [-89.225161, 48.391186], [-89.225431, 48.391169], [-89.225639, 48.391222]]}}, {"type": "Feature", "properties": {"d": 6}, "geometry": {"type": "LineString", "coordinates": [[-89.202299, 48.397005], [-89.202676, 48.396885], [-89.202892, 48.396882], [-89.203054, 48.396757], [-89.203377, 48.396764], [-89.203701, 48.396606], [-89.205103, 48.396326], [-89.205265, 48.396211], [-89.205642, 48.39618], [-89.206223, 48.395974], [-89.20699, 48.395843], [-89.207475, 48.395676], [-89.207691, 48.395682], [-89.207961, 48.395533], [-89.209902, 48.395073], [-89.210549, 48.39484], [-89.212328, 48.394449], [-89.212436, 48.39435], [-89.213137, 48.394071], [-89.213622, 48.394077], [-89.213892, 48.394019], [-89.214272, 48.394077]]}}, {"type": "Feature", "properties": {"d": 6}, "geometry": {"type": "LineString", "coordinates": [[-89.202982, 48.403376], [-89.202892, 48.403411], [-89.202946, 48.403569], [-89.203037, 48.403483], [-89.202982, 48.403376]]}}, {"type": "Feature", "properties": {"d": 6}, "geometry": {"type": "LineString", "coordinates": [[-89.214658, 48.40462], [-89.214398, 48.40452], [-89.214162, 48.404166], [-89.213568, 48.404328], [-89.213083, 48.404335], [-89.211897, 48.404527], [-89.211825, 48.404663], [-89.211871, 48.405092], [-89.211716, 48.406272], [-89.211584, 48.406594], [-89.211589, 48.407237], [-89.211054, 48.407881], [-89.211001, 48.408131], [-89.210872, 48.408177], [-89.210673, 48.408131], [-89.210603, 48.40786], [-89.210441, 48.407926], [-89.210279, 48.407871], [-89.209417, 48.407908], [-89.208877, 48.408053], [-89.207853, 48.408126], [-89.207577, 48.40831], [-89.20754, 48.408417], [-89.207835, 48.408918], [-89.207439, 48.409239], [-89.207314, 48.409451], [-89.207246, 48.409204], [-89.207152, 48.409173], [-89.206936, 48.409244], [-89.206828, 48.409088], [-89.206992, 48.408703], [-89.206772, 48.408381], [-89.206863, 48.40806], [-89.206451, 48.407915], [-89.206124, 48.407702], [-89.205974, 48.407416], [-89.206073, 48.407289], [-89.205588, 48.407071], [-89.205491, 48.406915], [-89.205521, 48.406737], [-89.205426, 48.40664], [-89.205122, 48.406701], [-89.204941, 48.406844], [-89.204796, 48.406772], [-89.204941, 48.406514], [-89.205147, 48.406486], [-89.205329, 48.406558], [-89.205214, 48.4062], [-89.20536, 48.405914], [-89.204779, 48.405464], [-89.204602, 48.405485], [-89.204456, 48.405409], [-89.204186, 48.405403], [-89.204149, 48.404913], [-89.203906, 48.404663], [-89.203957, 48.404448], [-89.203701, 48.404116], [-89.203377, 48.403947], [-89.203053, 48.404448], [-89.203108, 48.404968], [-89.203278, 48.405235], [-89.203216, 48.405498], [-89.203431, 48.406066], [-89.203584, 48.406236], [-89.203513, 48.406522], [-89.203783, 48.406737], [-89.203891, 48.407166], [-89.204041, 48.407273], [-89.204034, 48.407344], [-89.203898, 48.407416], [-89.204214, 48.407809], [-89.204212, 48.408238], [-89.204343, 48.40831], [-89.204571, 48.408882], [-89.204748, 48.408989], [-89.205032, 48.409668], [-89.205083, 48.410062], [-89.20523, 48.410276], [-89.205045, 48.410455], [-89.20524, 48.410598], [-89.205196, 48.410741], [-89.205049, 48.410785], [-89.204856, 48.410741], [-89.204501, 48.410205], [-89.203816, 48.408453], [-89.203826, 48.408238], [-89.203611, 48.408024], [-89.203216, 48.406907], [-89.202679, 48.405843], [-89.202676, 48.405629], [-89.202299, 48.405092]]}}, {"type": "Feature", "properties": {"d": 6}, "geometry": {"type": "LineString", "coordinates": [[-89.203593, 48.40491], [-89.203809, 48.404983], [-89.203809, 48.405196], [-89.203553, 48.405164], [-89.203458, 48.40502], [-89.203593, 48.40491]]}}, {"type": "Feature", "properties": {"d": 6}, "geometry": {"type": "LineString", "coordinates": [[-89.205668, 48.4062], [-89.205588, 48.40619], [-89.205536, 48.406272], [-89.20575, 48.406367], [-89.205787, 48.406272], [-89.205668, 48.4062]]}}, {"type": "Feature", "properties": {"d": 6}, "geometry": {"type": "LineString", "coordinates": [[-89.205103, 48.40783], [-89.205215, 48.407988], [-89.205103, 48.408066], [-89.204946, 48.408024], [-89.204888, 48.407917], [-89.204941, 48.407824], [-89.205103, 48.40783]]}}, {"type": "Feature", "properties": {"d": 6}, "geometry": {"type": "LineString", "coordinates": [[-89.210603, 48.408344], [-89.210646, 48.408524], [-89.210603, 48.408598], [-89.210437, 48.408489], [-89.210603, 48.408344]]}}, {"type": "Feature", "properties": {"d": 6}, "geometry": {"type": "LineString", "coordinates": [[-89.224055, 48.410634], [-89.223975, 48.410557], [-89.222951, 48.410375], [-89.220686, 48.410305], [-89.22013, 48.410205], [-89.22042, 48.410026], [-89.221441, 48.409754], [-89.221934, 48.409704], [-89.221926, 48.409668], [-89.221225, 48.409684], [-89.220956, 48.409593], [-89.220686, 48.409585], [-89.220255, 48.409714], [-89.219662, 48.409795], [-89.21923, 48.409615], [-89.218853, 48.409548], [-89.217235, 48.409551], [-89.217127, 48.409516], [-89.21711, 48.409418]]}}, {"type": "Feature", "properties": {"d": 6}, "geometry": {"type": "LineString", "coordinates": [[-89.22306, 48.410777], [-89.223274, 48.410591], [-89.223595, 48.410636]]}}, {"type": "Feature", "properties": {"d": 6}, "geometry": {"type": "LineString", "coordinates": [[-89.219608, 48.41123], [-89.21923, 48.411387], [-89.218637, 48.41136], [-89.21826, 48.411293], [-89.218189, 48.411098], [-89.218421, 48.41077], [-89.218799, 48.410647], [-89.222573, 48.41059], [-89.222815, 48.410634], [-89.223057, 48.410777]]}}, {"type": "Feature", "properties": {"d": 6}, "geometry": {"type": "LineString", "coordinates": [[-89.224718, 48.411921], [-89.224699, 48.41167], [-89.224299, 48.41167], [-89.223794, 48.411563], [-89.223957, 48.411384]]}}, {"type": "Feature", "properties": {"d": 6}, "geometry": {"type": "LineString", "coordinates": [[-89.205804, 48.411942], [-89.205945, 48.412099], [-89.205966, 48.412472], [-89.206261, 48.412779], [-89.206288, 48.413136], [-89.206181, 48.413273], [-89.20602, 48.413231], [-89.205853, 48.413029], [-89.205807, 48.412743], [-89.205463, 48.412135], [-89.205534, 48.41203], [-89.205804, 48.411942]]}}, {"type": "Feature", "properties": {"d": 6}, "geometry": {"type": "LineString", "coordinates": [[-89.20699, 48.412635], [-89.207206, 48.412673], [-89.20726, 48.412832], [-89.207853, 48.412829], [-89.208359, 48.412993], [-89.208486, 48.4131], [-89.208457, 48.413243], [-89.208588, 48.413494], [-89.20874, 48.413601], [-89.208942, 48.414387], [-89.209057, 48.414495], [-89.209236, 48.415102], [-89.209417, 48.415322], [-89.209377, 48.415531], [-89.209493, 48.415639], [-89.20969, 48.416211], [-89.209902, 48.416532], [-89.209853, 48.416782], [-89.209968, 48.416961], [-89.209975, 48.417211], [-89.209812, 48.417283], [-89.209776, 48.41739], [-89.209848, 48.417438], [-89.210118, 48.417424], [-89.210225, 48.417491], [-89.210171, 48.417544], [-89.20991, 48.417569], [-89.209833, 48.417783], [-89.210064, 48.417902], [-89.210135, 48.418069], [-89.210376, 48.418141], [-89.210118, 48.418231], [-89.21001, 48.418368], [-89.209902, 48.418366], [-89.209721, 48.418177], [-89.209702, 48.417712], [-89.209828, 48.417569], [-89.209481, 48.417211], [-89.209569, 48.416675], [-89.209417, 48.41657], [-89.209113, 48.416568], [-89.209093, 48.416425], [-89.208962, 48.416318], [-89.209065, 48.416211], [-89.209032, 48.415996], [-89.208716, 48.41588], [-89.208554, 48.416428], [-89.208284, 48.416326], [-89.208221, 48.41596], [-89.208069, 48.415614], [-89.207934, 48.415531], [-89.207804, 48.415281], [-89.207606, 48.414566], [-89.207444, 48.414459], [-89.20738, 48.414066], [-89.207458, 48.413672], [-89.207313, 48.413351], [-89.207356, 48.413243], [-89.20709, 48.413136], [-89.207202, 48.412957], [-89.20688, 48.412707], [-89.20699, 48.412635]]}}, {"type": "Feature", "properties": {"d": 6}, "geometry": {"type": "LineString", "coordinates": [[-89.206289, 48.413314], [-89.206546, 48.413672], [-89.206551, 48.413815], [-89.206808, 48.413994], [-89.206741, 48.414173], [-89.206613, 48.414253], [-89.206391, 48.41403], [-89.206372, 48.413851], [-89.206194, 48.413815], [-89.206134, 48.413744], [-89.206112, 48.413386], [-89.206181, 48.413302], [-89.206289, 48.413314]]}}, {"type": "Feature", "properties": {"d": 6}, "geometry": {"type": "LineString", "coordinates": [[-89.221387, 48.413557], [-89.22101, 48.413751], [-89.220201, 48.413728], [-89.218583, 48.413581], [-89.218183, 48.413494], [-89.217769, 48.413315], [-89.217517, 48.412886], [-89.217673, 48.412564], [-89.217611, 48.412421], [-89.217841, 48.412314], [-89.217911, 48.412207], [-89.218853, 48.411986], [-89.219338, 48.41199], [-89.219608, 48.412117]]}}, {"type": "Feature", "properties": {"d": 6}, "geometry": {"type": "LineString", "coordinates": [[-89.225467, 48.414316], [-89.225643, 48.414137], [-89.225593, 48.414005], [-89.224407, 48.413877], [-89.224083, 48.41376], [-89.224012, 48.413637]]}}, {"type": "Feature", "properties": {"d": 6}, "geometry": {"type": "LineString", "coordinates": [[-89.206828, 48.414652], [-89.206899, 48.414745], [-89.206774, 48.414838], [-89.206667, 48.41484], [-89.206588, 48.414709], [-89.206828, 48.414652]]}}, {"type": "Feature", "properties": {"d": 6}, "geometry": {"type": "LineString", "coordinates": [[-89.220341, 48.415174], [-89.220303, 48.415317], [-89.220147, 48.415371], [-89.218799, 48.415343], [-89.21826, 48.415274], [-89.217397, 48.414995], [-89.217219, 48.414709], [-89.21725, 48.414495], [-89.21735, 48.414387], [-89.217606, 48.414244], [-89.217774, 48.414278], [-89.21799, 48.414226], [-89.218206, 48.414408]]}}, {"type": "Feature", "properties": {"d": 6}, "geometry": {"type": "LineString", "coordinates": [[-89.207691, 48.415388], [-89.207874, 48.415567], [-89.207959, 48.41596], [-89.207853, 48.416065], [-89.207542, 48.415531], [-89.207691, 48.415388]]}}, {"type": "Feature", "properties": {"d": 6}, "geometry": {"type": "LineString", "coordinates": [[-89.224914, 48.415889], [-89.224997, 48.41546], [-89.224838, 48.415349], [-89.224335, 48.415245]]}}, {"type": "Feature", "properties": {"d": 6}, "geometry": {"type": "LineString", "coordinates": [[-89.220794, 48.416452], [-89.22047, 48.416615], [-89.220093, 48.416651], [-89.218338, 48.416568], [-89.21772, 48.41646], [-89.217525, 48.416318], [-89.217513, 48.416103], [-89.217949, 48.415925], [-89.218799, 48.415821], [-89.221171, 48.415802], [-89.22133, 48.415927]]}}, {"type": "Feature", "properties": {"d": 6}, "geometry": {"type": "LineString", "coordinates": [[-89.20823, 48.416905], [-89.208392, 48.416963], [-89.208446, 48.41706], [-89.208536, 48.417354], [-89.208446, 48.41753], [-89.208315, 48.417497], [-89.208286, 48.417211], [-89.208079, 48.417068], [-89.20823, 48.416905]]}}, {"type": "Feature", "properties": {"d": 6}, "geometry": {"type": "LineString", "coordinates": [[-89.222488, 48.417497], [-89.222862, 48.417283], [-89.223112, 48.417237], [-89.223577, 48.416961], [-89.224622, 48.416908], [-89.225323, 48.416732]]}}, {"type": "Feature", "properties": {"d": 6}, "geometry": {"type": "LineString", "coordinates": [[-89.217749, 48.417585], [-89.218206, 48.417805]]}}, {"type": "Feature", "properties": {"d": 6}, "geometry": {"type": "LineString", "coordinates": [[-89.216995, 48.42], [-89.216908, 48.419606], [-89.21716, 48.418105], [-89.217115, 48.417783], [-89.216858, 48.417462], [-89.217127, 48.417392], [-89.217289, 48.417512], [-89.21754, 48.417581]]}}, {"type": "Feature", "properties": {"d": 6}, "geometry": {"type": "LineString", "coordinates": [[-89.207013, 48.42], [-89.207314, 48.419553], [-89.207547, 48.419392], [-89.207677, 48.419142], [-89.208089, 48.41882], [-89.208018, 48.418463], [-89.207877, 48.418248], [-89.207893, 48.418069], [-89.207756, 48.417926], [-89.207795, 48.417783], [-89.207587, 48.417497], [-89.207614, 48.417319], [-89.207397, 48.417033], [-89.207455, 48.416782], [-89.207314, 48.416696], [-89.207181, 48.416461], [-89.206967, 48.415889], [-89.206987, 48.415639], [-89.207127, 48.415531], [-89.206828, 48.4154], [-89.206815, 48.415102], [-89.206936, 48.415018], [-89.207044, 48.415052], [-89.207032, 48.415174], [-89.207307, 48.415424], [-89.207491, 48.415496], [-89.207401, 48.415674], [-89.207421, 48.415992], [-89.207632, 48.416211], [-89.207673, 48.416425], [-89.207583, 48.416551], [-89.207745, 48.416604], [-89.20782, 48.416854], [-89.208047, 48.416997], [-89.207954, 48.417354], [-89.208151, 48.417426], [-89.208392, 48.417868], [-89.2085, 48.417697], [-89.208738, 48.417891], [-89.208782, 48.418248], [-89.208931, 48.41841], [-89.209, 48.41882], [-89.209184, 48.419106], [-89.209301, 48.419499], [-89.209439, 48.419642], [-89.209472, 48.42]]}}, {"type": "Feature", "properties": {"d": 8}, "geometry": {"type": "LineString", "coordinates": [[-89.247821, 48.373869], [-89.247754, 48.373839], [-89.247577, 48.374012], [-89.247431, 48.374391], [-89.247695, 48.374119], [-89.247821, 48.373869]]}}, {"type": "Feature", "properties": {"d": 8}, "geometry": {"type": "LineString", "coordinates": [[-89.241058, 48.382275], [-89.24087, 48.382311], [-89.240583, 48.38274], [-89.239443, 48.383563], [-89.239343, 48.383726], [-89.239616, 48.383599], [-89.24085, 48.382669], [-89.241014, 48.382469], [-89.241058, 48.382275]]}}, {"type": "Feature", "properties": {"d": 8}, "geometry": {"type": "LineString", "coordinates": [[-89.236221, 48.385817], [-89.235784, 48.385962], [-89.232117, 48.387875], [-89.230332, 48.388642], [-89.229205, 48.389097], [-89.227965, 48.389477], [-89.227579, 48.389679], [-89.225377, 48.390365], [-89.224407, 48.390606], [-89.224341, 48.390788], [-89.225161, 48.390523], [-89.225595, 48.390466], [-89.228343, 48.3896], [-89.230068, 48.388902], [-89.231093, 48.388603], [-89.232117, 48.388205], [-89.234004, 48.387344], [-89.234436, 48.387042], [-89.234867, 48.386846], [-89.235282, 48.386603], [-89.236221, 48.385817]]}}, {"type": "Feature", "properties": {"d": 8}, "geometry": {"type": "LineString", "coordinates": [[-89.223612, 48.39086], [-89.223382, 48.390866], [-89.222897, 48.391037], [-89.222573, 48.391077], [-89.221603, 48.391347], [-89.221339, 48.391503], [-89.221603, 48.391518], [-89.222142, 48.391365], [-89.222411, 48.391433], [-89.222951, 48.391153], [-89.223166, 48.391165], [-89.223683, 48.391038], [-89.223612, 48.39086]]}}, {"type": "Feature", "properties": {"d": 8}, "geometry": {"type": "LineString", "coordinates": [[-89.202299, 48.396638], [-89.203, 48.39652], [-89.203377, 48.396372], [-89.203755, 48.396341], [-89.204024, 48.396183], [-89.204618, 48.396281], [-89.204887, 48.396134], [-89.205103, 48.396124], [-89.205265, 48.396032], [-89.205639, 48.396009], [-89.205804, 48.395875], [-89.205928, 48.395866], [-89.20575, 48.395795], [-89.20583, 48.395723], [-89.206289, 48.395765], [-89.206344, 48.395759], [-89.20625, 48.395688], [-89.206343, 48.395622], [-89.206828, 48.39566], [-89.20699, 48.395468], [-89.207607, 48.395437], [-89.207765, 48.395223], [-89.208015, 48.395229], [-89.208176, 48.395132], [-89.208608, 48.395034], [-89.208877, 48.395137], [-89.209201, 48.394918], [-89.210603, 48.394689], [-89.210872, 48.394541], [-89.211466, 48.394359], [-89.212211, 48.394221], [-89.212598, 48.393941], [-89.212948, 48.393828], [-89.213245, 48.393823], [-89.213676, 48.393965], [-89.214377, 48.393887], [-89.21524, 48.393385], [-89.215775, 48.39322], [-89.216306, 48.39297], [-89.216592, 48.392684], [-89.216609, 48.392541], [-89.216426, 48.392474], [-89.216103, 48.392558], [-89.215887, 48.392515], [-89.214863, 48.39252], [-89.214216, 48.392741], [-89.213996, 48.392684], [-89.213865, 48.392362], [-89.213883, 48.392004], [-89.214302, 48.390824], [-89.214655, 48.390216], [-89.214629, 48.390037], [-89.214539, 48.389983], [-89.214377, 48.390132], [-89.214249, 48.390788], [-89.21373, 48.391526], [-89.213515, 48.391693], [-89.213303, 48.391682], [-89.213101, 48.391754], [-89.212307, 48.392433], [-89.212167, 48.392702], [-89.210765, 48.393408], [-89.209039, 48.393951], [-89.207152, 48.394365], [-89.206559, 48.394582], [-89.206289, 48.394554], [-89.206073, 48.394659], [-89.20575, 48.394685], [-89.205642, 48.39479], [-89.205265, 48.394901], [-89.204995, 48.394905], [-89.204779, 48.395032], [-89.20451, 48.395037], [-89.204402, 48.394963], [-89.204132, 48.395091], [-89.203539, 48.395156], [-89.203108, 48.395348], [-89.202708, 48.39533], [-89.202515, 48.395445], [-89.202299, 48.395472]]}}, {"type": "Feature", "properties": {"d": 8}, "geometry": {"type": "LineString", "coordinates": [[-89.2146, 48.404658], [-89.214323, 48.404626], [-89.214216, 48.404558], [-89.214162, 48.404785], [-89.214, 48.404883], [-89.214216, 48.405048], [-89.214279, 48.405271], [-89.214216, 48.405556], [-89.213946, 48.405486], [-89.213784, 48.405071], [-89.213455, 48.405128], [-89.213297, 48.405235], [-89.213406, 48.405378], [-89.213411, 48.405557], [-89.213564, 48.4057], [-89.213432, 48.405986], [-89.213353, 48.406037], [-89.212975, 48.406013], [-89.212819, 48.406165], [-89.212921, 48.406315], [-89.213191, 48.406393], [-89.213568, 48.406379], [-89.213783, 48.406486], [-89.213917, 48.407094], [-89.214199, 48.407201], [-89.214245, 48.407309], [-89.213946, 48.407427], [-89.213897, 48.407738], [-89.213673, 48.407774], [-89.213556, 48.408095], [-89.213187, 48.408167], [-89.212598, 48.40876], [-89.212316, 48.408739], [-89.21222, 48.409121], [-89.212113, 48.409188], [-89.211951, 48.409188], [-89.211789, 48.40934], [-89.211721, 48.409561], [-89.211318, 48.409668], [-89.211142, 48.409883], [-89.210819, 48.409922], [-89.210279, 48.410236], [-89.210171, 48.410226], [-89.209902, 48.41004], [-89.209777, 48.410312], [-89.20877, 48.410497], [-89.208069, 48.41053], [-89.207583, 48.410411], [-89.207152, 48.410408], [-89.207044, 48.410602], [-89.206596, 48.410777], [-89.206127, 48.410832], [-89.206001, 48.410777], [-89.206016, 48.410669], [-89.206391, 48.410491], [-89.206127, 48.410522], [-89.206037, 48.410455], [-89.206098, 48.41024], [-89.206387, 48.410026], [-89.206181, 48.409986], [-89.20602, 48.410059], [-89.206054, 48.410205], [-89.205814, 48.410312], [-89.20575, 48.410509], [-89.205576, 48.410562], [-89.205319, 48.410801], [-89.204348, 48.41087], [-89.202847, 48.410383], [-89.202515, 48.410164], [-89.202438, 48.409919], [-89.202543, 48.409668], [-89.202299, 48.409562]]}}, {"type": "Feature", "properties": {"d": 8}, "geometry": {"type": "LineString", "coordinates": [[-89.214269, 48.405613], [-89.214331, 48.4057], [-89.214269, 48.405803], [-89.214166, 48.4057], [-89.214269, 48.405613]]}}, {"type": "Feature", "properties": {"d": 8}, "geometry": {"type": "LineString", "coordinates": [[-89.215007, 48.405724], [-89.21478, 48.405593], [-89.214916, 48.405451]]}}, {"type": "Feature", "properties": {"d": 8}, "geometry": {"type": "LineString", "coordinates": [[-89.215348, 48.406704], [-89.21524, 48.406683], [-89.215024, 48.406484], [-89.214865, 48.406093], [-89.214893, 48.405986], [-89.215078, 48.4059]]}}, {"type": "Feature", "properties": {"d": 8}, "geometry": {"type": "LineString", "coordinates": [[-89.214269, 48.407559], [-89.214421, 48.407774], [-89.214216, 48.40788], [-89.214144, 48.407666], [-89.214269, 48.407559]]}}, {"type": "Feature", "properties": {"d": 8}, "geometry": {"type": "LineString", "coordinates": [[-89.215833, 48.408095], [-89.215645, 48.407988], [-89.215553, 48.407631], [-89.215617, 48.407515]]}}, {"type": "Feature", "properties": {"d": 8}, "geometry": {"type": "LineString", "coordinates": [[-89.216081, 48.408581], [-89.215887, 48.408556], [-89.215887, 48.408403], [-89.215995, 48.408371]]}}, {"type": "Feature", "properties": {"d": 8}, "geometry": {"type": "LineString", "coordinates": [[-89.202299, 48.409246], [-89.20252, 48.409132], [-89.202299, 48.408699]]}}, {"type": "Feature", "properties": {"d": 8}, "geometry": {"type": "LineString", "coordinates": [[-89.21685, 48.409418], [-89.216867, 48.409597], [-89.216805, 48.409633], [-89.216426, 48.409623], [-89.216271, 48.409561], [-89.216108, 48.409025], [-89.216204, 48.408806]]}}, {"type": "Feature", "properties": {"d": 8}, "geometry": {"type": "LineString", "coordinates": [[-89.206778, 48.409847], [-89.206451, 48.409829], [-89.206432, 48.409954], [-89.206669, 48.410062], [-89.206828, 48.410068], [-89.206863, 48.409883], [-89.206778, 48.409847]]}}, {"type": "Feature", "properties": {"d": 8}, "geometry": {"type": "LineString", "coordinates": [[-89.206746, 48.410383], [-89.206613, 48.410376], [-89.206472, 48.410491], [-89.206828, 48.410532], [-89.206845, 48.410455], [-89.206746, 48.410383]]}}, {"type": "Feature", "properties": {"d": 8}, "geometry": {"type": "LineString", "coordinates": [[-89.222116, 48.410455], [-89.221387, 48.410426], [-89.220981, 48.410491], [-89.221603, 48.410528], [-89.222403, 48.410491], [-89.222116, 48.410455]]}}, {"type": "Feature", "properties": {"d": 8}, "geometry": {"type": "LineString", "coordinates": [[-89.219608, 48.411283], [-89.21923, 48.411485], [-89.218475, 48.4115], [-89.21772, 48.411429], [-89.21727, 48.41117], [-89.217192, 48.411063], [-89.217312, 48.410955], [-89.217282, 48.410848], [-89.217488, 48.410741], [-89.217565, 48.410598], [-89.219054, 48.410383], [-89.218853, 48.410253], [-89.218641, 48.410205], [-89.217559, 48.410221], [-89.216872, 48.410097], [-89.216795, 48.409954], [-89.216858, 48.409885], [-89.217305, 48.409776], [-89.217008, 48.409633], [-89.217021, 48.409418]]}}, {"type": "Feature", "properties": {"d": 8}, "geometry": {"type": "LineString", "coordinates": [[-89.220455, 48.411384], [-89.220416, 48.411527], [-89.220255, 48.411564], [-89.220018, 48.411384]]}}, {"type": "Feature", "properties": {"d": 8}, "geometry": {"type": "LineString", "coordinates": [[-89.223053, 48.411921], [-89.222897, 48.411551], [-89.222573, 48.411494], [-89.22225, 48.411575], [-89.222158, 48.411527], [-89.222126, 48.411384]]}}, {"type": "Feature", "properties": {"d": 8}, "geometry": {"type": "LineString", "coordinates": [[-89.209363, 48.413024], [-89.209552, 48.413136], [-89.209417, 48.41326], [-89.209248, 48.413136], [-89.209363, 48.413024]]}}, {"type": "Feature", "properties": {"d": 8}, "geometry": {"type": "LineString", "coordinates": [[-89.209902, 48.413247], [-89.209974, 48.413458], [-89.209776, 48.413601], [-89.20974, 48.413719], [-89.209604, 48.413494], [-89.209902, 48.413247]]}}, {"type": "Feature", "properties": {"d": 8}, "geometry": {"type": "LineString", "coordinates": [[-89.209417, 48.413607], [-89.209454, 48.413744], [-89.209363, 48.413803], [-89.209239, 48.413672], [-89.209417, 48.413607]]}}, {"type": "Feature", "properties": {"d": 8}, "geometry": {"type": "LineString", "coordinates": [[-89.210279, 48.413755], [-89.210333, 48.413954], [-89.210171, 48.414043], [-89.21001, 48.41404], [-89.209997, 48.413815], [-89.210279, 48.413755]]}}, {"type": "Feature", "properties": {"d": 8}, "geometry": {"type": "LineString", "coordinates": [[-89.204618, 48.413822], [-89.204679, 48.413923], [-89.204535, 48.413958], [-89.204495, 48.413887], [-89.204618, 48.413822]]}}, {"type": "Feature", "properties": {"d": 8}, "geometry": {"type": "LineString", "coordinates": [[-89.209794, 48.414026], [-89.210064, 48.414342], [-89.210225, 48.414322], [-89.210333, 48.414397], [-89.210333, 48.414686], [-89.210171, 48.414685], [-89.21001, 48.414491], [-89.20974, 48.414537], [-89.209686, 48.414499], [-89.209675, 48.41403], [-89.209794, 48.414026]]}}, {"type": "Feature", "properties": {"d": 8}, "geometry": {"type": "LineString", "coordinates": [[-89.222871, 48.414316], [-89.222951, 48.414188], [-89.223436, 48.414083], [-89.223842, 48.414066], [-89.223652, 48.414019], [-89.220147, 48.413909], [-89.218583, 48.413785], [-89.217397, 48.413452], [-89.217127, 48.413312], [-89.216977, 48.413136], [-89.217014, 48.412993], [-89.216905, 48.412886], [-89.216971, 48.412779], [-89.216903, 48.412636], [-89.217028, 48.412421], [-89.217397, 48.412121], [-89.218313, 48.411873], [-89.218799, 48.411823], [-89.219392, 48.411845], [-89.21965, 48.411964]]}}, {"type": "Feature", "properties": {"d": 8}, "geometry": {"type": "LineString", "coordinates": [[-89.209902, 48.414629], [-89.210013, 48.414673], [-89.209956, 48.414749], [-89.209657, 48.414709], [-89.20974, 48.414627], [-89.209902, 48.414629]]}}, {"type": "Feature", "properties": {"d": 8}, "geometry": {"type": "LineString", "coordinates": [[-89.220657, 48.415245], [-89.220519, 48.415388], [-89.220039, 48.415465], [-89.218098, 48.415431], [-89.217613, 48.415335], [-89.217235, 48.415338], [-89.216742, 48.415174], [-89.216633, 48.414959], [-89.216691, 48.414495], [-89.216912, 48.414249], [-89.217613, 48.41412], [-89.220902, 48.414166], [-89.221603, 48.414243], [-89.221926, 48.414239], [-89.222088, 48.414177], [-89.222371, 48.414244], [-89.222418, 48.414316]]}}, {"type": "Feature", "properties": {"d": 8}, "geometry": {"type": "LineString", "coordinates": [[-89.222789, 48.415608], [-89.222848, 48.415674], [-89.222789, 48.415745], [-89.22259, 48.415674], [-89.222789, 48.415608]]}}, {"type": "Feature", "properties": {"d": 8}, "geometry": {"type": "LineString", "coordinates": [[-89.222304, 48.415638], [-89.222493, 48.415674], [-89.22225, 48.415712], [-89.2221, 48.415674], [-89.222304, 48.415638]]}}, {"type": "Feature", "properties": {"d": 8}, "geometry": {"type": "LineString", "coordinates": [[-89.224576, 48.415889], [-89.224596, 48.415531], [-89.223759, 48.415391], [-89.223059, 48.415431], [-89.22285, 48.415245]]}}, {"type": "Feature", "properties": {"d": 8}, "geometry": {"type": "LineString", "coordinates": [[-89.206349, 48.416139], [-89.206289, 48.416113], [-89.206259, 48.416175], [-89.206343, 48.416274], [-89.206442, 48.416211], [-89.206349, 48.416139]]}}, {"type": "Feature", "properties": {"d": 8}, "geometry": {"type": "LineString", "coordinates": [[-89.205921, 48.416389], [-89.20577, 48.416389], [-89.205804, 48.416599], [-89.205968, 48.416461], [-89.205921, 48.416389]]}}, {"type": "Feature", "properties": {"d": 8}, "geometry": {"type": "LineString", "coordinates": [[-89.220794, 48.416524], [-89.220586, 48.416711], [-89.220416, 48.41674], [-89.217828, 48.416698], [-89.217581, 48.416604], [-89.216968, 48.416532], [-89.216602, 48.416318], [-89.216554, 48.416175], [-89.21675, 48.415949], [-89.217289, 48.415821], [-89.21826, 48.415702], [-89.22074, 48.415656], [-89.221279, 48.415732], [-89.221408, 48.415911]]}}, {"type": "Feature", "properties": {"d": 8}, "geometry": {"type": "LineString", "coordinates": [[-89.21654, 48.42], [-89.216452, 48.419857], [-89.216477, 48.419714], [-89.216124, 48.419392], [-89.216156, 48.419106], [-89.216314, 48.41907], [-89.216265, 48.419014], [-89.216103, 48.419005], [-89.21601, 48.418713], [-89.216215, 48.418355], [-89.216122, 48.418034], [-89.216426, 48.417943], [-89.216804, 48.418018], [-89.21692, 48.417962], [-89.216972, 48.417783], [-89.216912, 48.417707], [-89.216265, 48.41759], [-89.216396, 48.417319], [-89.218853, 48.417255], [-89.219931, 48.417299], [-89.220255, 48.417142], [-89.220686, 48.417041], [-89.221225, 48.417057], [-89.222519, 48.416832], [-89.223112, 48.416783], [-89.223024, 48.416604]]}}, {"type": "Feature", "properties": {"d": 8}, "geometry": {"type": "LineString", "coordinates": [[-89.205262, 48.42], [-89.205242, 48.419857], [-89.205434, 48.419749], [-89.205455, 48.419499], [-89.205646, 48.419249], [-89.205642, 48.41909], [-89.205495, 48.418927], [-89.205534, 48.418764], [-89.205588, 48.418689], [-89.205797, 48.418641], [-89.205875, 48.418355], [-89.205812, 48.418141], [-89.205858, 48.417776], [-89.205508, 48.417569], [-89.205928, 48.417426], [-89.205878, 48.417319], [-89.205534, 48.417233], [-89.205319, 48.416998], [-89.205013, 48.417033], [-89.205236, 48.41689], [-89.205126, 48.416353], [-89.205265, 48.416155], [-89.205534, 48.416332], [-89.205754, 48.416353], [-89.20584, 48.416211], [-89.205713, 48.41596], [-89.205711, 48.415746], [-89.205804, 48.415639], [-89.206289, 48.415916], [-89.206395, 48.415782], [-89.206208, 48.415639], [-89.206182, 48.415317], [-89.206, 48.415245], [-89.20602, 48.414723], [-89.205642, 48.41488], [-89.205534, 48.414781], [-89.20554, 48.414602], [-89.205858, 48.41458], [-89.205901, 48.414459], [-89.206028, 48.414387], [-89.205966, 48.414341], [-89.20575, 48.41438], [-89.205539, 48.41428], [-89.205422, 48.413958], [-89.20548, 48.413918], [-89.205814, 48.413994], [-89.205729, 48.413923], [-89.205809, 48.413672], [-89.205595, 48.413565], [-89.205722, 48.413458], [-89.205653, 48.4131], [-89.205426, 48.412912], [-89.205241, 48.412993], [-89.205157, 48.412651], [-89.205066, 48.412671], [-89.204941, 48.412934], [-89.204805, 48.412707], [-89.205103, 48.412393], [-89.205183, 48.412421], [-89.205215, 48.4126], [-89.205283, 48.4126], [-89.205269, 48.412099], [-89.205426, 48.411961], [-89.205804, 48.411837], [-89.206127, 48.411984], [-89.206289, 48.411958], [-89.206451, 48.412081], [-89.206828, 48.412103], [-89.207028, 48.412207], [-89.206937, 48.412314], [-89.207152, 48.412395], [-89.207817, 48.412421], [-89.208015, 48.41261], [-89.208392, 48.41261], [-89.2086, 48.412707], [-89.208808, 48.412993], [-89.208765, 48.413243], [-89.209005, 48.413601], [-89.209029, 48.413923], [-89.20914, 48.41403], [-89.209091, 48.414137], [-89.209291, 48.414459], [-89.209363, 48.414832], [-89.209578, 48.414905], [-89.210078, 48.414924], [-89.210456, 48.415138], [-89.210695, 48.415639], [-89.210657, 48.415761], [-89.210441, 48.415786], [-89.210176, 48.415639], [-89.210361, 48.415496], [-89.210149, 48.415424], [-89.209902, 48.415004], [-89.209753, 48.415067], [-89.209792, 48.41571], [-89.209909, 48.415853], [-89.209961, 48.416211], [-89.210118, 48.416297], [-89.210279, 48.416267], [-89.210338, 48.416318], [-89.210106, 48.416425], [-89.210258, 48.417033], [-89.210441, 48.417136], [-89.210819, 48.417148], [-89.210978, 48.417211], [-89.210907, 48.417354], [-89.210953, 48.417497], [-89.210602, 48.417569], [-89.210765, 48.417579], [-89.210872, 48.417664], [-89.211088, 48.417616], [-89.211359, 48.41764], [-89.211461, 48.418034], [-89.211735, 48.418074], [-89.211826, 48.418141], [-89.211573, 48.418386], [-89.211507, 48.418713], [-89.211614, 48.418856], [-89.21134, 48.418963], [-89.211412, 48.419025], [-89.211627, 48.418945], [-89.211792, 48.41907], [-89.211627, 48.419234], [-89.211412, 48.419037], [-89.21125, 48.41905], [-89.211158, 48.419142], [-89.211304, 48.419293], [-89.211934, 48.419356], [-89.211897, 48.419508], [-89.211627, 48.419531], [-89.211515, 48.419606], [-89.211573, 48.419668], [-89.211885, 48.419714], [-89.211843, 48.419815], [-89.211627, 48.419782], [-89.211525, 48.419821], [-89.211663, 48.42]]}}, {"type": "Feature", "properties": {"d": 10}, "geometry": {"type": "LineString", "coordinates": [[-89.213715, 48.391933], [-89.213676, 48.391904], [-89.213418, 48.392147], [-89.213353, 48.392386], [-89.213622, 48.392286], [-89.213715, 48.391933]]}}, {"type": "Feature", "properties": {"d": 10}, "geometry": {"type": "LineString", "coordinates": [[-89.214647, 48.404759], [-89.214485, 48.404793], [-89.214474, 48.404877], [-89.214539, 48.404941], [-89.214701, 48.404945]]}}, {"type": "Feature", "properties": {"d": 10}, "geometry": {"type": "LineString", "coordinates": [[-89.213609, 48.409311], [-89.213461, 48.409345], [-89.213283, 48.409561], [-89.213513, 48.409704], [-89.213518, 48.410062], [-89.212814, 48.410312], [-89.212802, 48.410419], [-89.212943, 48.410455], [-89.212814, 48.410741], [-89.212544, 48.410557], [-89.212113, 48.410521], [-89.211925, 48.410705], [-89.211984, 48.410848], [-89.211915, 48.410955], [-89.211412, 48.41121], [-89.210819, 48.411191], [-89.210603, 48.411357], [-89.210441, 48.411206], [-89.210118, 48.411145], [-89.20974, 48.411158], [-89.209363, 48.411263], [-89.209112, 48.411384], [-89.209039, 48.411581], [-89.208804, 48.411813], [-89.208823, 48.412107], [-89.209255, 48.412145], [-89.209578, 48.412038], [-89.209686, 48.412327], [-89.209902, 48.412405], [-89.210387, 48.412436], [-89.210487, 48.412314], [-89.210657, 48.412296], [-89.210872, 48.412672], [-89.211304, 48.41272], [-89.211681, 48.413011], [-89.212005, 48.413386], [-89.21249, 48.413392], [-89.21276, 48.413277], [-89.212814, 48.413351], [-89.213083, 48.413443], [-89.213622, 48.413447], [-89.213751, 48.413386], [-89.213708, 48.413315], [-89.213353, 48.413333], [-89.213145, 48.413243], [-89.213299, 48.413158], [-89.213515, 48.413198], [-89.213728, 48.413136], [-89.213568, 48.413016], [-89.213348, 48.413029], [-89.213403, 48.412957], [-89.213659, 48.412886], [-89.213515, 48.412689], [-89.213838, 48.412589], [-89.214, 48.412469], [-89.214253, 48.412493], [-89.214229, 48.412314], [-89.214755, 48.412288], [-89.214969, 48.412207], [-89.214623, 48.412135], [-89.214608, 48.412064], [-89.215075, 48.412028], [-89.215294, 48.41195], [-89.215617, 48.412119], [-89.215757, 48.412064], [-89.215404, 48.411921], [-89.215429, 48.411849], [-89.216103, 48.411842], [-89.216265, 48.411749], [-89.216696, 48.411804], [-89.21702, 48.411742], [-89.216965, 48.411648], [-89.21588, 48.411527], [-89.215725, 48.41146], [-89.215779, 48.41141], [-89.215941, 48.411441], [-89.216079, 48.411349], [-89.21632, 48.410955], [-89.215725, 48.410857], [-89.215078, 48.410827], [-89.214647, 48.410719], [-89.214363, 48.410562], [-89.214539, 48.410497], [-89.215186, 48.41062], [-89.216019, 48.410491], [-89.215531, 48.410312], [-89.215372, 48.410169], [-89.215377, 48.410026], [-89.21551, 48.409857], [-89.215671, 48.409815], [-89.215995, 48.409844], [-89.216157, 48.409791], [-89.216212, 48.409704], [-89.215887, 48.409639], [-89.21551, 48.40977], [-89.214916, 48.409695], [-89.214647, 48.409563], [-89.214365, 48.409525], [-89.214216, 48.409418], [-89.213609, 48.409311]]}}, {"type": "Feature", "properties": {"d": 10}, "geometry": {"type": "LineString", "coordinates": [[-89.207032, 48.41092], [-89.205966, 48.410995], [-89.205534, 48.411095], [-89.205049, 48.411067], [-89.20451, 48.411113], [-89.204305, 48.41117], [-89.204293, 48.411241], [-89.20451, 48.411362], [-89.206289, 48.41152], [-89.20699, 48.41173], [-89.207475, 48.411777], [-89.207853, 48.411738], [-89.208255, 48.411527], [-89.208294, 48.411277], [-89.208201, 48.411134], [-89.207032, 48.41092]]}}, {"type": "Feature", "properties": {"d": 10}, "geometry": {"type": "LineString", "coordinates": [[-89.21973, 48.411599], [-89.21953, 48.411599], [-89.219408, 48.411635], [-89.219715, 48.411675], [-89.219808, 48.411635], [-89.21973, 48.411599]]}}, {"type": "Feature", "properties": {"d": 10}, "geometry": {"type": "LineString", "coordinates": [[-89.214454, 48.413065], [-89.214, 48.413048], [-89.213925, 48.413136], [-89.214647, 48.413318], [-89.215346, 48.413243], [-89.21524, 48.413087], [-89.215078, 48.413231], [-89.214863, 48.413099], [-89.214593, 48.413155], [-89.214454, 48.413065]]}}, {"type": "Feature", "properties": {"d": 10}, "geometry": {"type": "LineString", "coordinates": [[-89.21431, 48.413315], [-89.214, 48.413296], [-89.213925, 48.413386], [-89.214216, 48.413532], [-89.214339, 48.413458], [-89.21431, 48.413315]]}}, {"type": "Feature", "properties": {"d": 10}, "geometry": {"type": "LineString", "coordinates": [[-89.215159, 48.413422], [-89.215024, 48.413391], [-89.214961, 48.413458], [-89.215062, 48.413672], [-89.214971, 48.41378], [-89.215024, 48.413832], [-89.215178, 48.413815], [-89.21509, 48.413672], [-89.215186, 48.4136], [-89.215402, 48.413617], [-89.215782, 48.413529], [-89.215725, 48.41348], [-89.215564, 48.413507], [-89.215456, 48.413444], [-89.215159, 48.413422]]}}, {"type": "Feature", "properties": {"d": 10}, "geometry": {"type": "LineString", "coordinates": [[-89.214704, 48.413422], [-89.214539, 48.413402], [-89.214438, 48.413494], [-89.214593, 48.413552], [-89.214716, 48.413494], [-89.214704, 48.413422]]}}, {"type": "Feature", "properties": {"d": 10}, "geometry": {"type": "LineString", "coordinates": [[-89.216024, 48.41378], [-89.215887, 48.413749], [-89.215671, 48.413794], [-89.21561, 48.413923], [-89.215995, 48.413964], [-89.216075, 48.413887], [-89.216024, 48.41378]]}}, {"type": "Feature", "properties": {"d": 10}, "geometry": {"type": "LineString", "coordinates": [[-89.216296, 48.413815], [-89.216211, 48.413834], [-89.216199, 48.413923], [-89.216405, 48.413923], [-89.216296, 48.413815]]}}, {"type": "Feature", "properties": {"d": 10}, "geometry": {"type": "LineString", "coordinates": [[-89.212286, 48.414244], [-89.212151, 48.41428], [-89.212066, 48.414602], [-89.212288, 48.414816], [-89.212247, 48.414959], [-89.212376, 48.415067], [-89.212343, 48.415281], [-89.212527, 48.415746], [-89.212476, 48.41596], [-89.212243, 48.416103], [-89.21235, 48.416282], [-89.21273, 48.416461], [-89.212544, 48.416562], [-89.212588, 48.416782], [-89.212921, 48.416884], [-89.213029, 48.416782], [-89.212908, 48.416639], [-89.212963, 48.416532], [-89.212823, 48.416425], [-89.213228, 48.416282], [-89.213277, 48.415853], [-89.213222, 48.415746], [-89.21373, 48.415688], [-89.213776, 48.415639], [-89.213233, 48.415496], [-89.213507, 48.415388], [-89.21329, 48.415281], [-89.213343, 48.415174], [-89.213244, 48.414816], [-89.213413, 48.414709], [-89.213252, 48.414602], [-89.213229, 48.414495], [-89.212929, 48.414423], [-89.212814, 48.41425], [-89.212632, 48.414602], [-89.21249, 48.41466], [-89.212344, 48.414638], [-89.212249, 48.414566], [-89.212344, 48.414316], [-89.212286, 48.414244]]}}, {"type": "Feature", "properties": {"d": 10}, "geometry": {"type": "LineString", "coordinates": [[-89.214355, 48.414888], [-89.214121, 48.414924], [-89.214377, 48.41513], [-89.214593, 48.415054], [-89.214624, 48.414959], [-89.214539, 48.414896], [-89.214355, 48.414888]]}}, {"type": "Feature", "properties": {"d": 10}, "geometry": {"type": "LineString", "coordinates": [[-89.215088, 48.414924], [-89.21497, 48.414903], [-89.214848, 48.414959], [-89.21497, 48.415101], [-89.215078, 48.415083], [-89.215088, 48.414924]]}}, {"type": "Feature", "properties": {"d": 10}, "geometry": {"type": "LineString", "coordinates": [[-89.215404, 48.415603], [-89.21524, 48.415578], [-89.215112, 48.415639], [-89.215294, 48.415689], [-89.215445, 48.415639], [-89.215404, 48.415603]]}}, {"type": "Feature", "properties": {"d": 10}, "geometry": {"type": "LineString", "coordinates": [[-89.214331, 48.415603], [-89.214162, 48.415592], [-89.213945, 48.415674], [-89.214302, 48.415674], [-89.214375, 48.415639], [-89.214331, 48.415603]]}}, {"type": "Feature", "properties": {"d": 10}, "geometry": {"type": "LineString", "coordinates": [[-89.214945, 48.415639], [-89.214809, 48.415604], [-89.214671, 48.415639], [-89.214863, 48.415691], [-89.214945, 48.415639]]}}, {"type": "Feature", "properties": {"d": 10}, "geometry": {"type": "LineString", "coordinates": [[-89.214137, 48.415817], [-89.213487, 48.415817], [-89.213446, 48.415853], [-89.213622, 48.41596], [-89.213508, 48.416068], [-89.213552, 48.416139], [-89.213676, 48.416183], [-89.213838, 48.416082], [-89.214216, 48.416161], [-89.214268, 48.416068], [-89.214161, 48.415925], [-89.214348, 48.415853], [-89.214137, 48.415817]]}}, {"type": "Feature", "properties": {"d": 10}, "geometry": {"type": "LineString", "coordinates": [[-89.213699, 48.416246], [-89.213622, 48.416223], [-89.213362, 48.416318], [-89.213676, 48.41637], [-89.213759, 48.416318], [-89.213699, 48.416246]]}}, {"type": "Feature", "properties": {"d": 10}, "geometry": {"type": "LineString", "coordinates": [[-89.214185, 48.416282], [-89.214054, 48.416294], [-89.213985, 48.416318], [-89.214162, 48.416347], [-89.214238, 48.416318], [-89.214185, 48.416282]]}}, {"type": "Feature", "properties": {"d": 10}, "geometry": {"type": "LineString", "coordinates": [[-89.215243, 48.416496], [-89.214971, 48.416532], [-89.215004, 48.416675], [-89.214863, 48.416731], [-89.214135, 48.416675], [-89.214323, 48.416589], [-89.214701, 48.416589], [-89.214739, 48.416532], [-89.214647, 48.416492], [-89.214054, 48.416474], [-89.213894, 48.416532], [-89.213937, 48.416675], [-89.213771, 48.416782], [-89.213807, 48.417104], [-89.213676, 48.417204], [-89.213461, 48.417169], [-89.213318, 48.417211], [-89.213461, 48.417263], [-89.213676, 48.41722], [-89.213931, 48.417319], [-89.213753, 48.417462], [-89.213836, 48.417605], [-89.213676, 48.417724], [-89.213612, 48.417891], [-89.213667, 48.417962], [-89.214, 48.417908], [-89.214162, 48.41799], [-89.214377, 48.417998], [-89.214774, 48.417926], [-89.215132, 48.417731], [-89.215215, 48.417462], [-89.214951, 48.417319], [-89.215248, 48.417211], [-89.215145, 48.416925], [-89.215315, 48.416782], [-89.215156, 48.416639], [-89.215294, 48.416537], [-89.215243, 48.416496]]}}, {"type": "Feature", "properties": {"d": 10}, "geometry": {"type": "LineString", "coordinates": [[-89.213753, 48.416496], [-89.213461, 48.41647], [-89.213257, 48.416532], [-89.213568, 48.416625], [-89.2138, 48.416568], [-89.213753, 48.416496]]}}, {"type": "Feature", "properties": {"d": 10}, "geometry": {"type": "LineString", "coordinates": [[-89.202459, 48.42], [-89.202736, 48.419571], [-89.20273, 48.419491], [-89.202514, 48.419392], [-89.202827, 48.419177], [-89.202576, 48.418927], [-89.202787, 48.418784], [-89.202817, 48.418605], [-89.202741, 48.418212], [-89.202407, 48.417676], [-89.202299, 48.417637]]}}, {"type": "Feature", "properties": {"d": 12}, "geometry": {"type": "LineString", "coordinates": [[-89.214611, 48.410848], [-89.214431, 48.410854], [-89.214269, 48.411087], [-89.213852, 48.411313], [-89.214, 48.411362], [-89.214216, 48.411337], [-89.214666, 48.41092], [-89.214611, 48.410848]]}}, {"type": "Feature", "properties": {"d": 12}, "geometry": {"type": "LineString", "coordinates": [[-89.207131, 48.411063], [-89.206133, 48.411098], [-89.205851, 48.41117], [-89.206175, 48.411349], [-89.206936, 48.411511], [-89.207314, 48.411529], [-89.207529, 48.411479], [-89.207682, 48.411313], [-89.207654, 48.411206], [-89.207131, 48.411063]]}}, {"type": "Feature", "properties": {"d": 12}, "geometry": {"type": "LineString", "coordinates": [[-89.213515, 48.41117], [-89.212975, 48.411263], [-89.212809, 48.411456], [-89.212915, 48.411563], [-89.213339, 48.411599], [-89.213461, 48.411793], [-89.213598, 48.411742], [-89.213699, 48.41142], [-89.213832, 48.411313], [-89.213515, 48.41117]]}}]}