{"type": "FeatureCollection", "features": [{"type": "Feature", "properties": {"d": 2}, "geometry": {"type": "LineString", "coordinates": [[-89.419796, 48.053048], [-89.419749, 48.053235], [-89.419554, 48.053415], [-89.419257, 48.05347], [-89.419095, 48.053438], [-89.419364, 48.053107], [-89.419796, 48.053048]]}}, {"type": "Feature", "properties": {"d": 2}, "geometry": {"type": "LineString", "coordinates": [[-89.418502, 48.053765], [-89.418497, 48.053847], [-89.418178, 48.053918], [-89.418217, 48.053775], [-89.418502, 48.053765]]}}, {"type": "Feature", "properties": {"d": 2}, "geometry": {"type": "LineString", "coordinates": [[-89.416703, 48.053919], [-89.41683, 48.053857], [-89.4171, 48.053897], [-89.417693, 48.053852], [-89.41781, 48.053919], [-89.417848, 48.054063], [-89.417257, 48.054279], [-89.416992, 48.054486], [-89.416291, 48.054718], [-89.416194, 48.054819], [-89.415531, 48.055071], [-89.41539, 48.055467], [-89.415447, 48.055634]]}}, {"type": "Feature", "properties": {"d": 2}, "geometry": {"type": "LineString", "coordinates": [[-89.414098, 48.054603], [-89.414404, 48.054448], [-89.415266, 48.054323], [-89.416129, 48.053973], [-89.416616, 48.053953]]}}, {"type": "Feature", "properties": {"d": 2}, "geometry": {"type": "LineString", "coordinates": [[-89.413325, 48.054624], [-89.413976, 48.054636]]}}, {"type": "Feature", "properties": {"d": 2}, "geometry": {"type": "LineString", "coordinates": [[-89.414887, 48.055107], [-89.415159, 48.055238], [-89.415216, 48.055035]]}}, {"type": "Feature", "properties": {"d": 2}, "geometry": {"type": "LineString", "coordinates": [[-89.414206, 48.055251], [-89.414215, 48.055323], [-89.41408, 48.055391], [-89.413325, 48.055523]]}}, {"type": "Feature", "properties": {"d": 2}, "geometry": {"type": "LineString", "coordinates": [[-89.415369, 48.055647], [-89.415203, 48.055431], [-89.414733, 48.055143]]}}, {"type": "Feature", "properties": {"d": 2}, "geometry": {"type": "LineString", "coordinates": [[-89.414435, 48.057612], [-89.415967, 48.057295], [-89.416707, 48.057555], [-89.416399, 48.057642], [-89.41621, 48.057771], [-89.415967, 48.057804], [-89.415657, 48.058023], [-89.415439, 48.058052]]}}, {"type": "Feature", "properties": {"d": 2}, "geometry": {"type": "LineString", "coordinates": [[-89.455517, 48.058059], [-89.455707, 48.057827], [-89.45611, 48.057555], [-89.457109, 48.057052], [-89.45827, 48.056691], [-89.458834, 48.056234], [-89.459158, 48.056158], [-89.459697, 48.055842], [-89.460129, 48.055775], [-89.461261, 48.055459], [-89.461746, 48.055441], [-89.462447, 48.055613], [-89.462825, 48.055968], [-89.463256, 48.056557], [-89.463579, 48.056707], [-89.464496, 48.056805], [-89.46505, 48.056691], [-89.466437, 48.056188], [-89.467464, 48.056007], [-89.469673, 48.055873], [-89.470717, 48.055719], [-89.474795, 48.055598], [-89.475673, 48.055467], [-89.47706, 48.055403], [-89.477976, 48.055281], [-89.479486, 48.05486], [-89.48061, 48.054279], [-89.480888, 48.054025], [-89.48103, 48.053631], [-89.481163, 48.052263], [-89.48105, 48.052085], [-89.480726, 48.051843], [-89.480436, 48.051434], [-89.479163, 48.050307], [-89.478192, 48.049959], [-89.477329, 48.049944], [-89.476574, 48.049855], [-89.475819, 48.049866], [-89.474579, 48.049723], [-89.474007, 48.049526], [-89.473339, 48.049202], [-89.472584, 48.049016], [-89.471924, 48.04895], [-89.47123, 48.04877], [-89.469837, 48.048086], [-89.469193, 48.04787]]}}, {"type": "Feature", "properties": {"d": 2}, "geometry": {"type": "LineString", "coordinates": [[-89.415187, 48.058203], [-89.415159, 48.058434], [-89.414963, 48.058333]]}}, {"type": "Feature", "properties": {"d": 2}, "geometry": {"type": "LineString", "coordinates": [[-89.453388, 48.059068], [-89.453335, 48.059231], [-89.453173, 48.059212], [-89.4532, 48.059138], [-89.453388, 48.059068]]}}, {"type": "Feature", "properties": {"d": 2}, "geometry": {"type": "LineString", "coordinates": [[-89.454645, 48.05992], [-89.454689, 48.059534], [-89.454626, 48.059354], [-89.453766, 48.059124], [-89.453598, 48.05903]]}}, {"type": "Feature", "properties": {"d": 2}, "geometry": {"type": "LineString", "coordinates": [[-89.437886, 48.061946], [-89.438075, 48.061868], [-89.438237, 48.061901], [-89.438456, 48.061802], [-89.438741, 48.061802], [-89.43894, 48.062018], [-89.438827, 48.062126], [-89.438799, 48.062306], [-89.438526, 48.062594], [-89.438537, 48.062954], [-89.43867, 48.063098], [-89.439099, 48.063333], [-89.439908, 48.063601], [-89.440663, 48.063734], [-89.441256, 48.063764], [-89.44255, 48.06348], [-89.442874, 48.063379], [-89.443036, 48.06326], [-89.44324, 48.063286]]}}, {"type": "Feature", "properties": {"d": 2}, "geometry": {"type": "LineString", "coordinates": [[-89.436993, 48.062306], [-89.437482, 48.062111]]}}, {"type": "Feature", "properties": {"d": 2}, "geometry": {"type": "LineString", "coordinates": [[-89.444716, 48.062444], [-89.444761, 48.062339], [-89.445732, 48.061851], [-89.447619, 48.061242], [-89.448212, 48.061118], [-89.448697, 48.061168], [-89.449614, 48.061155], [-89.451555, 48.060943], [-89.453442, 48.060601], [-89.454089, 48.060366], [-89.454629, 48.059987]]}}, {"type": "Feature", "properties": {"d": 2}, "geometry": {"type": "LineString", "coordinates": [[-89.463009, 48.062738], [-89.462771, 48.062821], [-89.462034, 48.062726]]}}, {"type": "Feature", "properties": {"d": 2}, "geometry": {"type": "LineString", "coordinates": [[-89.460071, 48.063134], [-89.459535, 48.063325], [-89.458755, 48.063475]]}}, {"type": "Feature", "properties": {"d": 2}, "geometry": {"type": "LineString", "coordinates": [[-89.443369, 48.063242], [-89.443492, 48.063062], [-89.443791, 48.062933]]}}, {"type": "Feature", "properties": {"d": 2}, "geometry": {"type": "LineString", "coordinates": [[-89.434505, 48.063386], [-89.434624, 48.063145], [-89.43484, 48.063115], [-89.435055, 48.063186], [-89.435297, 48.062954], [-89.435606, 48.06291]]}}, {"type": "Feature", "properties": {"d": 2}, "geometry": {"type": "LineString", "coordinates": [[-89.413325, 48.063425], [-89.413757, 48.063419], [-89.414134, 48.063319], [-89.414565, 48.063107], [-89.415266, 48.062973], [-89.415515, 48.06299], [-89.415813, 48.063134], [-89.416352, 48.063782], [-89.417154, 48.06396], [-89.417477, 48.064188], [-89.418987, 48.064723], [-89.420712, 48.065182], [-89.421252, 48.065207], [-89.423355, 48.065051], [-89.424271, 48.064877], [-89.424948, 48.064646], [-89.425727, 48.06461], [-89.425997, 48.064522], [-89.42632, 48.064526], [-89.427183, 48.064361], [-89.427722, 48.064357], [-89.427992, 48.064429], [-89.429016, 48.064287], [-89.430203, 48.064111], [-89.430903, 48.063867], [-89.431874, 48.063831], [-89.432413, 48.063679], [-89.432629, 48.063728], [-89.432791, 48.063504], [-89.433168, 48.063641], [-89.433384, 48.063387], [-89.433856, 48.063431]]}}, {"type": "Feature", "properties": {"d": 2}, "geometry": {"type": "LineString", "coordinates": [[-89.458611, 48.063494], [-89.457648, 48.06362], [-89.456893, 48.063593], [-89.456408, 48.063668], [-89.456163, 48.063602]]}}, {"type": "Feature", "properties": {"d": 2}, "geometry": {"type": "LineString", "coordinates": [[-89.452659, 48.063926], [-89.452526, 48.064023], [-89.452256, 48.064017], [-89.45204, 48.064087], [-89.450531, 48.064116]]}}, {"type": "Feature", "properties": {"d": 2}, "geometry": {"type": "LineString", "coordinates": [[-89.448104, 48.064772], [-89.447198, 48.065006], [-89.446594, 48.065036]]}}, {"type": "Feature", "properties": {"d": 2}, "geometry": {"type": "LineString", "coordinates": [[-89.445214, 48.065164], [-89.444212, 48.065192]]}}, {"type": "Feature", "properties": {"d": 2}, "geometry": {"type": "LineString", "coordinates": [[-89.441708, 48.065222], [-89.440609, 48.065533], [-89.440178, 48.065713], [-89.439151, 48.065942], [-89.438722, 48.066301]]}}, {"type": "Feature", "properties": {"d": 2}, "geometry": {"type": "LineString", "coordinates": [[-89.414619, 48.066709], [-89.413955, 48.065798], [-89.413325, 48.065398]]}}, {"type": "Feature", "properties": {"d": 2}, "geometry": {"type": "LineString", "coordinates": [[-89.438776, 48.06715], [-89.438957, 48.067201], [-89.438992, 48.067665]]}}, {"type": "Feature", "properties": {"d": 2}, "geometry": {"type": "LineString", "coordinates": [[-89.43917, 48.067946], [-89.439369, 48.068141], [-89.439423, 48.068397]]}}, {"type": "Feature", "properties": {"d": 2}, "geometry": {"type": "LineString", "coordinates": [[-89.439423, 48.06864], [-89.439585, 48.068662], [-89.439605, 48.068821], [-89.439531, 48.068884], [-89.439369, 48.068877]]}}, {"type": "Feature", "properties": {"d": 2}, "geometry": {"type": "LineString", "coordinates": [[-89.413325, 48.068958], [-89.413949, 48.068713], [-89.414458, 48.068416], [-89.415109, 48.067705], [-89.415142, 48.067309], [-89.414714, 48.066797]]}}, {"type": "Feature", "properties": {"d": 2}, "geometry": {"type": "LineString", "coordinates": [[-89.431652, 48.069545], [-89.431614, 48.069721], [-89.430634, 48.069971], [-89.430076, 48.070224], [-89.429286, 48.07038], [-89.428747, 48.070552], [-89.427308, 48.071268], [-89.425997, 48.071651], [-89.425726, 48.071772], [-89.425408, 48.072024], [-89.42508, 48.072479], [-89.424496, 48.072708], [-89.423355, 48.07299], [-89.422114, 48.072868], [-89.42136, 48.072442], [-89.420982, 48.072304], [-89.420132, 48.07224], [-89.41958, 48.071965], [-89.419095, 48.071844], [-89.417855, 48.071737], [-89.417499, 48.071772], [-89.417369, 48.071559], [-89.417046, 48.071675], [-89.41683, 48.071671], [-89.416129, 48.071506], [-89.414889, 48.071358], [-89.414679, 48.071272]]}}, {"type": "Feature", "properties": {"d": 2}, "geometry": {"type": "LineString", "coordinates": [[-89.439794, 48.069689], [-89.439585, 48.069566], [-89.439477, 48.069225], [-89.4398, 48.069249], [-89.440186, 48.0695]]}}, {"type": "Feature", "properties": {"d": 2}, "geometry": {"type": "LineString", "coordinates": [[-89.436717, 48.069829], [-89.436732, 48.070368]]}}, {"type": "Feature", "properties": {"d": 2}, "geometry": {"type": "LineString", "coordinates": [[-89.435463, 48.069829], [-89.435163, 48.069993], [-89.434193, 48.069849], [-89.433546, 48.069839], [-89.432845, 48.069621], [-89.43209, 48.069656], [-89.43189, 48.069505]]}}, {"type": "Feature", "properties": {"d": 2}, "geometry": {"type": "LineString", "coordinates": [[-89.437114, 48.07029], [-89.436776, 48.069829]]}}, {"type": "Feature", "properties": {"d": 2}, "geometry": {"type": "LineString", "coordinates": [[-89.436388, 48.070368], [-89.436164, 48.070081], [-89.435702, 48.069951], [-89.435625, 48.069865]]}}, {"type": "Feature", "properties": {"d": 2}, "geometry": {"type": "LineString", "coordinates": [[-89.414528, 48.071268], [-89.413325, 48.071241]]}}, {"type": "Feature", "properties": {"d": 2}, "geometry": {"type": "LineString", "coordinates": [[-89.427021, 48.071587], [-89.427184, 48.071628], [-89.427129, 48.071787], [-89.426838, 48.071808], [-89.426824, 48.071628], [-89.427021, 48.071587]]}}, {"type": "Feature", "properties": {"d": 2}, "geometry": {"type": "LineString", "coordinates": [[-89.447416, 48.073212], [-89.447942, 48.073007], [-89.448355, 48.072924], [-89.448536, 48.072783], [-89.448805, 48.072814], [-89.449075, 48.072716], [-89.449506, 48.072306], [-89.450758, 48.071484], [-89.451275, 48.071052], [-89.452284, 48.070476], [-89.453281, 48.070002], [-89.454143, 48.069661], [-89.456516, 48.068891], [-89.45781, 48.068322], [-89.458925, 48.067957], [-89.461099, 48.067606], [-89.462217, 48.067309], [-89.464033, 48.067021], [-89.465891, 48.066337], [-89.466761, 48.066143], [-89.467839, 48.065997], [-89.468271, 48.065878], [-89.468648, 48.06566], [-89.468811, 48.06551], [-89.468845, 48.065366], [-89.468663, 48.064502], [-89.468271, 48.063766], [-89.467977, 48.063494], [-89.4673, 48.063267], [-89.464658, 48.063092], [-89.463465, 48.06281]]}}, {"type": "Feature", "properties": {"d": 2}, "geometry": {"type": "LineString", "coordinates": [[-89.44106, 48.07609], [-89.44111, 48.076018], [-89.442119, 48.075714], [-89.443157, 48.075263], [-89.44406, 48.074796], [-89.445262, 48.074039], [-89.446751, 48.073355], [-89.446956, 48.07333]]}}, {"type": "Feature", "properties": {"d": 2}, "geometry": {"type": "LineString", "coordinates": [[-89.43662, 48.077782], [-89.438021, 48.077117], [-89.439261, 48.076616], [-89.4398, 48.076423], [-89.440232, 48.076344]]}}, {"type": "Feature", "properties": {"d": 2}, "geometry": {"type": "LineString", "coordinates": [[-89.434401, 48.078357], [-89.43608, 48.077984]]}}, {"type": "Feature", "properties": {"d": 2}, "geometry": {"type": "LineString", "coordinates": [[-89.433781, 48.078609], [-89.433905, 48.078501], [-89.434229, 48.078405]]}}, {"type": "Feature", "properties": {"d": 2}, "geometry": {"type": "LineString", "coordinates": [[-89.431404, 48.079509], [-89.432252, 48.079103], [-89.432791, 48.078952], [-89.433384, 48.078689], [-89.433748, 48.078618]]}}, {"type": "Feature", "properties": {"d": 2}, "geometry": {"type": "LineString", "coordinates": [[-89.430919, 48.079787], [-89.430969, 48.079653], [-89.431317, 48.079557]]}}, {"type": "Feature", "properties": {"d": 2}, "geometry": {"type": "LineString", "coordinates": [[-89.431066, 48.080193], [-89.431013, 48.080301], [-89.43088, 48.080337], [-89.430432, 48.080121], [-89.430442, 48.080013], [-89.430634, 48.079833], [-89.430888, 48.079807]]}}, {"type": "Feature", "properties": {"d": 2}, "geometry": {"type": "LineString", "coordinates": [[-89.422912, 48.08274], [-89.423031, 48.082774], [-89.423206, 48.083035], [-89.423171, 48.083143], [-89.422977, 48.08316]]}}, {"type": "Feature", "properties": {"d": 2}, "geometry": {"type": "LineString", "coordinates": [[-89.422923, 48.083262], [-89.423025, 48.083323], [-89.423015, 48.083431], [-89.422384, 48.084042], [-89.421636, 48.08451], [-89.421212, 48.08487], [-89.420902, 48.085446], [-89.420742, 48.086021], [-89.420923, 48.086345], [-89.420824, 48.086705], [-89.421087, 48.086993], [-89.421215, 48.087281], [-89.42144, 48.087389], [-89.421953, 48.087472], [-89.422276, 48.087659], [-89.422815, 48.087739], [-89.423301, 48.087693], [-89.423462, 48.087517], [-89.423678, 48.087422], [-89.424002, 48.087448], [-89.42432, 48.087569], [-89.424616, 48.087784], [-89.424632, 48.087928], [-89.424429, 48.08818], [-89.424541, 48.088393], [-89.42481, 48.088563], [-89.425242, 48.088628], [-89.425727, 48.088613], [-89.426266, 48.088485], [-89.426859, 48.088662], [-89.427668, 48.088675], [-89.428477, 48.088515], [-89.428908, 48.08837], [-89.429178, 48.088095], [-89.429825, 48.088168], [-89.430256, 48.088113], [-89.431712, 48.088338], [-89.433923, 48.088053], [-89.434516, 48.087882], [-89.435615, 48.087389], [-89.436038, 48.087101], [-89.436457, 48.086507], [-89.436694, 48.085914], [-89.436882, 48.084726], [-89.436692, 48.083647], [-89.436522, 48.083395], [-89.436457, 48.082865], [-89.436283, 48.082675], [-89.436338, 48.082531], [-89.436533, 48.082459], [-89.4366, 48.082172], [-89.436619, 48.081848], [-89.436519, 48.081524], [-89.435702, 48.080737], [-89.43457, 48.080277], [-89.433977, 48.08015], [-89.43333, 48.080097], [-89.43209, 48.080172], [-89.431857, 48.080024]]}}, {"type": "Feature", "properties": {"d": 2}, "geometry": {"type": "LineString", "coordinates": [[-89.413325, 48.084229], [-89.414188, 48.084027], [-89.416305, 48.083251], [-89.417585, 48.082988], [-89.418948, 48.082567], [-89.419418, 48.08252], [-89.41966, 48.082423], [-89.420712, 48.082219], [-89.421467, 48.082174], [-89.421953, 48.082213], [-89.422708, 48.082461], [-89.42286, 48.082567], [-89.422801, 48.082666]]}}, {"type": "Feature", "properties": {"d": 2}, "geometry": {"type": "LineString", "coordinates": [[-89.42508, 48.087562], [-89.42541, 48.087748], [-89.425438, 48.087856], [-89.42481, 48.087905], [-89.424737, 48.087784], [-89.424798, 48.087604], [-89.424864, 48.087552], [-89.42508, 48.087562]]}}, {"type": "Feature", "properties": {"d": 4}, "geometry": {"type": "LineString", "coordinates": [[-89.413325, 48.054565], [-89.414134, 48.054478], [-89.4171, 48.053683], [-89.417369, 48.053709], [-89.417693, 48.053615], [-89.418663, 48.053489], [-89.419311, 48.053065], [-89.419742, 48.05291], [-89.419958, 48.052909], [-89.41991, 48.053271], [-89.419634, 48.053492], [-89.419149, 48.053653], [-89.418221, 48.054099], [-89.417315, 48.054348], [-89.415787, 48.055071], [-89.415545, 48.055107], [-89.415532, 48.055577]]}}, {"type": "Feature", "properties": {"d": 4}, "geometry": {"type": "LineString", "coordinates": [[-89.414444, 48.055215], [-89.414404, 48.05544], [-89.414242, 48.055416], [-89.413487, 48.055612], [-89.413325, 48.055596]]}}, {"type": "Feature", "properties": {"d": 4}, "geometry": {"type": "LineString", "coordinates": [[-89.415281, 48.055673], [-89.415119, 48.055467], [-89.41466, 48.055152]]}}, {"type": "Feature", "properties": {"d": 4}, "geometry": {"type": "LineString", "coordinates": [[-89.414339, 48.057591], [-89.414673, 48.057471], [-89.416075, 48.057227], [-89.416927, 48.057483], [-89.416945, 48.057555], [-89.41683, 48.05763], [-89.416453, 48.057714], [-89.416334, 48.057807], [-89.415536, 48.058095], [-89.415447, 48.058311], [-89.415648, 48.058596]]}}, {"type": "Feature", "properties": {"d": 4}, "geometry": {"type": "LineString", "coordinates": [[-89.455411, 48.058059], [-89.455599, 48.057822], [-89.456031, 48.057516], [-89.457099, 48.056979], [-89.458241, 48.056601], [-89.458765, 48.056187], [-89.4595, 48.055863], [-89.459589, 48.055748], [-89.459913, 48.055753], [-89.461261, 48.055403], [-89.4618, 48.055351], [-89.462492, 48.055467], [-89.462825, 48.055722], [-89.463148, 48.056275], [-89.46331, 48.056417], [-89.464082, 48.056655], [-89.464388, 48.056682], [-89.465197, 48.05652], [-89.466761, 48.056033], [-89.467453, 48.055935], [-89.469565, 48.055815], [-89.470697, 48.05566], [-89.474633, 48.055556], [-89.475098, 48.055467], [-89.47706, 48.055346], [-89.477922, 48.055224], [-89.479324, 48.054862], [-89.479756, 48.054578], [-89.480494, 48.054243], [-89.480834, 48.053834], [-89.481022, 48.052623], [-89.480996, 48.052231], [-89.480567, 48.051867], [-89.48033, 48.05147], [-89.479001, 48.050357], [-89.478084, 48.050043], [-89.476952, 48.049998], [-89.47652, 48.049928], [-89.475819, 48.04994], [-89.474471, 48.049783], [-89.473285, 48.049321], [-89.472584, 48.049153], [-89.471829, 48.049065], [-89.471021, 48.048855], [-89.469403, 48.048162], [-89.468904, 48.04787]]}}, {"type": "Feature", "properties": {"d": 4}, "geometry": {"type": "LineString", "coordinates": [[-89.414668, 48.058311], [-89.414161, 48.058545]]}}, {"type": "Feature", "properties": {"d": 4}, "geometry": {"type": "LineString", "coordinates": [[-89.415354, 48.058671], [-89.414893, 48.058347]]}}, {"type": "Feature", "properties": {"d": 4}, "geometry": {"type": "LineString", "coordinates": [[-89.45352, 48.058959], [-89.453539, 48.058743], [-89.453466, 48.058635], [-89.45372, 48.058737]]}}, {"type": "Feature", "properties": {"d": 4}, "geometry": {"type": "LineString", "coordinates": [[-89.436901, 48.062306], [-89.437913, 48.061856], [-89.438938, 48.061623], [-89.439162, 48.062018], [-89.438781, 48.062666], [-89.438776, 48.062899], [-89.439153, 48.063118], [-89.4398, 48.063282], [-89.440053, 48.063458], [-89.440987, 48.063648], [-89.441526, 48.063621], [-89.4426, 48.06335], [-89.444205, 48.062642]]}}, {"type": "Feature", "properties": {"d": 4}, "geometry": {"type": "LineString", "coordinates": [[-89.444229, 48.06263], [-89.444641, 48.06227], [-89.445678, 48.061759], [-89.446163, 48.061549], [-89.447565, 48.061149], [-89.448751, 48.060919], [-89.449398, 48.061008], [-89.450692, 48.060956], [-89.453173, 48.060551], [-89.453885, 48.060362], [-89.454467, 48.060035], [-89.454588, 48.059498], [-89.454467, 48.059378], [-89.453604, 48.059141], [-89.453388, 48.059297], [-89.453138, 48.059282], [-89.453173, 48.05907], [-89.453448, 48.058998]]}}, {"type": "Feature", "properties": {"d": 4}, "geometry": {"type": "LineString", "coordinates": [[-89.461013, 48.062918], [-89.460937, 48.063002], [-89.459859, 48.063256], [-89.459428, 48.063437], [-89.458187, 48.063664], [-89.457648, 48.063718], [-89.457109, 48.06367], [-89.456354, 48.063763], [-89.45549, 48.063602]]}}, {"type": "Feature", "properties": {"d": 4}, "geometry": {"type": "LineString", "coordinates": [[-89.413325, 48.063056], [-89.414565, 48.062914], [-89.415698, 48.06287], [-89.4171, 48.063721], [-89.417585, 48.063876], [-89.418016, 48.064115], [-89.419284, 48.06461], [-89.420712, 48.064923], [-89.421306, 48.064947], [-89.422114, 48.064929], [-89.423193, 48.064812], [-89.424703, 48.064421], [-89.425404, 48.06432], [-89.425889, 48.064316], [-89.427506, 48.064125], [-89.42907, 48.064092], [-89.431065, 48.063713], [-89.431712, 48.063691], [-89.432252, 48.063603], [-89.432791, 48.063447], [-89.432952, 48.063442], [-89.433114, 48.063517], [-89.43333, 48.063338], [-89.433815, 48.063237], [-89.434031, 48.063236], [-89.434303, 48.063386]]}}, {"type": "Feature", "properties": {"d": 4}, "geometry": {"type": "LineString", "coordinates": [[-89.43441, 48.063386], [-89.434436, 48.063242], [-89.434624, 48.063091], [-89.435957, 48.062748]]}}, {"type": "Feature", "properties": {"d": 4}, "geometry": {"type": "LineString", "coordinates": [[-89.455376, 48.063602], [-89.45481, 48.063697]]}}, {"type": "Feature", "properties": {"d": 4}, "geometry": {"type": "LineString", "coordinates": [[-89.45467, 48.06371], [-89.454521, 48.063776], [-89.453785, 48.063769]]}}, {"type": "Feature", "properties": {"d": 4}, "geometry": {"type": "LineString", "coordinates": [[-89.453646, 48.063774], [-89.453173, 48.063836], [-89.452796, 48.063926], [-89.45258, 48.064053], [-89.452148, 48.064128], [-89.450489, 48.06417]]}}, {"type": "Feature", "properties": {"d": 4}, "geometry": {"type": "LineString", "coordinates": [[-89.450355, 48.064178], [-89.449344, 48.064523]]}}, {"type": "Feature", "properties": {"d": 4}, "geometry": {"type": "LineString", "coordinates": [[-89.449115, 48.064619], [-89.44909, 48.064682], [-89.448913, 48.06473], [-89.448678, 48.064646]]}}, {"type": "Feature", "properties": {"d": 4}, "geometry": {"type": "LineString", "coordinates": [[-89.448482, 48.064657], [-89.44859, 48.064685], [-89.448581, 48.06479], [-89.448253, 48.064798]]}}, {"type": "Feature", "properties": {"d": 4}, "geometry": {"type": "LineString", "coordinates": [[-89.448141, 48.064814], [-89.447304, 48.065042], [-89.446379, 48.065173], [-89.445916, 48.06517]]}}, {"type": "Feature", "properties": {"d": 4}, "geometry": {"type": "LineString", "coordinates": [[-89.445296, 48.065186], [-89.445139, 48.065243], [-89.443413, 48.065302], [-89.442291, 48.065222]]}}, {"type": "Feature", "properties": {"d": 4}, "geometry": {"type": "LineString", "coordinates": [[-89.441952, 48.065222], [-89.440717, 48.065558], [-89.440016, 48.065876], [-89.439568, 48.065978], [-89.439229, 48.066265], [-89.439146, 48.066481], [-89.439207, 48.066625], [-89.438995, 48.066805], [-89.438993, 48.066949], [-89.439261, 48.067822], [-89.439391, 48.067957], [-89.439542, 48.068317], [-89.439521, 48.068461], [-89.439643, 48.068533], [-89.439698, 48.068785], [-89.439585, 48.069023], [-89.439223, 48.06899]]}}, {"type": "Feature", "properties": {"d": 4}, "geometry": {"type": "LineString", "coordinates": [[-89.413325, 48.068889], [-89.414134, 48.06852], [-89.414455, 48.068281], [-89.41497, 48.067705], [-89.415063, 48.067417], [-89.415018, 48.067273], [-89.414428, 48.066625], [-89.413972, 48.065933], [-89.413766, 48.065762], [-89.413325, 48.06557]]}}, {"type": "Feature", "properties": {"d": 4}, "geometry": {"type": "LineString", "coordinates": [[-89.438452, 48.069633], [-89.439423, 48.069635], [-89.439496, 48.069541], [-89.439378, 48.069217], [-89.439477, 48.069136], [-89.4398, 48.069206], [-89.44022, 48.069476]]}}, {"type": "Feature", "properties": {"d": 4}, "geometry": {"type": "LineString", "coordinates": [[-89.436299, 48.070402], [-89.436134, 48.070199], [-89.435864, 48.070061], [-89.435808, 48.070512]]}}, {"type": "Feature", "properties": {"d": 4}, "geometry": {"type": "LineString", "coordinates": [[-89.435541, 48.070512], [-89.435406, 48.070296], [-89.435001, 48.070025], [-89.434193, 48.069891], [-89.433438, 48.069868], [-89.432791, 48.069666], [-89.431658, 48.069773], [-89.430845, 48.070009], [-89.430041, 48.070355], [-89.429226, 48.070584], [-89.427668, 48.071419], [-89.427476, 48.071664], [-89.427291, 48.07171], [-89.427136, 48.071844], [-89.426698, 48.071917], [-89.426374, 48.071893], [-89.425997, 48.071977], [-89.425128, 48.072528], [-89.424379, 48.072822], [-89.423355, 48.073093], [-89.42206, 48.072942], [-89.421445, 48.072564], [-89.420982, 48.072366], [-89.420011, 48.072261], [-89.419472, 48.071983], [-89.419041, 48.071885], [-89.417369, 48.071822], [-89.415698, 48.071505], [-89.413918, 48.071295], [-89.413325, 48.071297]]}}, {"type": "Feature", "properties": {"d": 4}, "geometry": {"type": "LineString", "coordinates": [[-89.413325, 48.084147], [-89.413973, 48.084007], [-89.416142, 48.083215], [-89.417855, 48.082851], [-89.418003, 48.082747], [-89.419199, 48.082423], [-89.420982, 48.082075], [-89.421932, 48.082064], [-89.422869, 48.082376], [-89.423246, 48.082675], [-89.423409, 48.083283], [-89.42383, 48.083791], [-89.424133, 48.084402], [-89.424134, 48.084582], [-89.424318, 48.084834], [-89.424379, 48.08521], [-89.42467, 48.085698], [-89.42481, 48.085864], [-89.425716, 48.086417], [-89.428585, 48.08712], [-89.429502, 48.087272], [-89.431443, 48.087289], [-89.432252, 48.087223], [-89.432727, 48.087101], [-89.433114, 48.086814], [-89.433442, 48.086705], [-89.433859, 48.086417], [-89.43416, 48.086021], [-89.434263, 48.08577], [-89.434247, 48.085523], [-89.435055, 48.084867], [-89.435172, 48.084402], [-89.435156, 48.083755], [-89.434926, 48.082927], [-89.434852, 48.0821], [-89.434647, 48.081488], [-89.434139, 48.081161], [-89.43343, 48.080912], [-89.431551, 48.080452], [-89.431281, 48.080331], [-89.43085, 48.080374], [-89.430526, 48.080302], [-89.430339, 48.080193], [-89.430337, 48.079833], [-89.430074, 48.079185], [-89.430203, 48.078877], [-89.43058, 48.078602], [-89.431011, 48.078573], [-89.431551, 48.07896], [-89.431928, 48.079014], [-89.43302, 48.078717], [-89.434228, 48.078285], [-89.435595, 48.078046], [-89.436727, 48.077651], [-89.438063, 48.077026], [-89.439241, 48.076558], [-89.442186, 48.075623], [-89.443435, 48.075047], [-89.444314, 48.074543], [-89.444762, 48.074183], [-89.446109, 48.073488], [-89.448859, 48.072578], [-89.451185, 48.070944], [-89.452148, 48.070386], [-89.453281, 48.069825], [-89.457314, 48.068173], [-89.459643, 48.067446], [-89.463903, 48.066658], [-89.464926, 48.066337], [-89.466807, 48.06587], [-89.467392, 48.065618], [-89.467583, 48.065474], [-89.467735, 48.065006], [-89.467649, 48.064502], [-89.467318, 48.063926], [-89.466819, 48.06353], [-89.463364, 48.062954], [-89.462285, 48.062899], [-89.461884, 48.062774]]}}, {"type": "Feature", "properties": {"d": 6}, "geometry": {"type": "LineString", "coordinates": [[-89.436337, 48.052371], [-89.436252, 48.051723], [-89.436889, 48.051485], [-89.436918, 48.051615], [-89.436504, 48.051939], [-89.436486, 48.052371]]}}, {"type": "Feature", "properties": {"d": 6}, "geometry": {"type": "LineString", "coordinates": [[-89.413325, 48.054508], [-89.414781, 48.054273], [-89.415051, 48.054144], [-89.416867, 48.053703], [-89.416971, 48.053559], [-89.416992, 48.05324], [-89.417197, 48.053559], [-89.417531, 48.053584], [-89.418394, 48.053432], [-89.418879, 48.053268], [-89.419149, 48.053083], [-89.419796, 48.052822], [-89.420119, 48.052821], [-89.420154, 48.053091], [-89.420014, 48.053307], [-89.419742, 48.053515], [-89.418681, 48.053955], [-89.41834, 48.054175], [-89.418124, 48.054191], [-89.41807, 48.054282], [-89.417855, 48.054268], [-89.417423, 48.054371], [-89.416561, 48.054724], [-89.416195, 48.054891], [-89.416114, 48.054999], [-89.415932, 48.055035], [-89.41586, 48.055146], [-89.41559, 48.055126], [-89.415583, 48.055575]]}}, {"type": "Feature", "properties": {"d": 6}, "geometry": {"type": "LineString", "coordinates": [[-89.415229, 48.055683], [-89.415052, 48.055467], [-89.414619, 48.055203], [-89.414512, 48.055564], [-89.414242, 48.05551], [-89.413703, 48.055564], [-89.413541, 48.0557], [-89.413325, 48.055649]]}}, {"type": "Feature", "properties": {"d": 6}, "geometry": {"type": "LineString", "coordinates": [[-89.414225, 48.057591], [-89.414565, 48.05743], [-89.416129, 48.057167], [-89.416614, 48.057339], [-89.417065, 48.057411], [-89.417064, 48.057555], [-89.416906, 48.057663], [-89.415936, 48.057987], [-89.415806, 48.058126], [-89.41559, 48.058132], [-89.415572, 48.058311], [-89.415756, 48.058563]]}}, {"type": "Feature", "properties": {"d": 6}, "geometry": {"type": "LineString", "coordinates": [[-89.413325, 48.057703], [-89.413865, 48.057687], [-89.414156, 48.057612]]}}, {"type": "Feature", "properties": {"d": 6}, "geometry": {"type": "LineString", "coordinates": [[-89.454634, 48.058383], [-89.455114, 48.058089], [-89.45533, 48.058037], [-89.455869, 48.057549], [-89.45657, 48.057164], [-89.458241, 48.056553], [-89.458942, 48.056008], [-89.459428, 48.055839], [-89.459535, 48.055551], [-89.459805, 48.055689], [-89.459913, 48.055573], [-89.460236, 48.055625], [-89.461261, 48.055337], [-89.4618, 48.05529], [-89.462609, 48.055373], [-89.462793, 48.055467], [-89.463228, 48.056115], [-89.463561, 48.056331], [-89.464173, 48.056511], [-89.464712, 48.056513], [-89.465251, 48.05643], [-89.466677, 48.056007], [-89.467354, 48.055895], [-89.468432, 48.055797], [-89.469511, 48.055776], [-89.470697, 48.055614], [-89.474364, 48.055532], [-89.475927, 48.055354], [-89.477114, 48.055304], [-89.477955, 48.055179], [-89.479203, 48.054855], [-89.479711, 48.054531], [-89.480339, 48.054243], [-89.480573, 48.053991], [-89.480655, 48.053775], [-89.480779, 48.052695], [-89.480716, 48.052227], [-89.480241, 48.051516], [-89.479864, 48.051168], [-89.478705, 48.050354], [-89.477976, 48.050082], [-89.475252, 48.049994], [-89.474418, 48.049841], [-89.472761, 48.049346], [-89.470967, 48.048957], [-89.469457, 48.048359], [-89.469025, 48.048081], [-89.468433, 48.04787]]}}, {"type": "Feature", "properties": {"d": 6}, "geometry": {"type": "LineString", "coordinates": [[-89.453401, 48.05841], [-89.453928, 48.058704]]}}, {"type": "Feature", "properties": {"d": 6}, "geometry": {"type": "LineString", "coordinates": [[-89.41526, 48.058675], [-89.414943, 48.058498], [-89.414619, 48.05841], [-89.41408, 48.058648], [-89.413325, 48.058816]]}}, {"type": "Feature", "properties": {"d": 6}, "geometry": {"type": "LineString", "coordinates": [[-89.436679, 48.062414], [-89.437079, 48.062126], [-89.437859, 48.061827], [-89.438814, 48.06155], [-89.439156, 48.061514], [-89.439349, 48.06191], [-89.438935, 48.06263], [-89.438935, 48.06281], [-89.439085, 48.062954], [-89.439261, 48.063035], [-89.439693, 48.063095], [-89.440396, 48.063422], [-89.440933, 48.063557], [-89.441472, 48.063561], [-89.442227, 48.063399], [-89.444114, 48.062619], [-89.444734, 48.062126], [-89.445663, 48.061694], [-89.446163, 48.061487], [-89.447511, 48.061105], [-89.448444, 48.060938], [-89.448751, 48.060826], [-89.449237, 48.060939], [-89.45059, 48.060902], [-89.453173, 48.060468], [-89.454036, 48.060182], [-89.454419, 48.059966], [-89.454434, 48.059534], [-89.453604, 48.059202], [-89.453388, 48.059332], [-89.453173, 48.059341], [-89.453041, 48.059282], [-89.45315, 48.05903], [-89.453479, 48.058923], [-89.453484, 48.058779], [-89.453316, 48.058467]]}}, {"type": "Feature", "properties": {"d": 6}, "geometry": {"type": "LineString", "coordinates": [[-89.413325, 48.062963], [-89.415374, 48.062797], [-89.415806, 48.062828], [-89.416112, 48.062954], [-89.41661, 48.06335], [-89.417262, 48.063651], [-89.418124, 48.064035], [-89.419783, 48.06461], [-89.421198, 48.064834], [-89.421953, 48.064861], [-89.423355, 48.064658], [-89.424864, 48.064299], [-89.42632, 48.064152], [-89.427021, 48.064044], [-89.42723, 48.063962], [-89.428154, 48.063961], [-89.428477, 48.064041], [-89.429016, 48.064021], [-89.430903, 48.06367], [-89.431604, 48.063474], [-89.432359, 48.063482], [-89.432952, 48.063338], [-89.433114, 48.06338], [-89.433222, 48.063263], [-89.433546, 48.063187], [-89.434462, 48.063146], [-89.434678, 48.063011], [-89.436134, 48.06263], [-89.436349, 48.062486], [-89.436486, 48.062503]]}}, {"type": "Feature", "properties": {"d": 6}, "geometry": {"type": "LineString", "coordinates": [[-89.445755, 48.065222], [-89.445624, 48.065276], [-89.445192, 48.065295], [-89.442011, 48.065324], [-89.440771, 48.065613], [-89.440396, 48.065798], [-89.440258, 48.066121], [-89.440002, 48.066337], [-89.439722, 48.067093], [-89.439558, 48.067993], [-89.439744, 48.068677], [-89.439703, 48.069109], [-89.440248, 48.069458]]}}, {"type": "Feature", "properties": {"d": 6}, "geometry": {"type": "LineString", "coordinates": [[-89.413325, 48.06884], [-89.414064, 48.068497], [-89.414296, 48.068327], [-89.414837, 48.067777], [-89.415005, 48.067417], [-89.41394, 48.065978], [-89.413325, 48.065625]]}}, {"type": "Feature", "properties": {"d": 6}, "geometry": {"type": "LineString", "coordinates": [[-89.438506, 48.069572], [-89.439423, 48.069551], [-89.439315, 48.069166], [-89.439189, 48.069049]]}}, {"type": "Feature", "properties": {"d": 6}, "geometry": {"type": "LineString", "coordinates": [[-89.43549, 48.070512], [-89.435109, 48.070135], [-89.434695, 48.070009], [-89.434139, 48.069927], [-89.433546, 48.069925], [-89.432737, 48.069706], [-89.431666, 48.069829], [-89.429286, 48.070753], [-89.428747, 48.071022], [-89.428512, 48.071232], [-89.427776, 48.071516], [-89.427554, 48.0717], [-89.427183, 48.071867], [-89.426913, 48.071916], [-89.426752, 48.072011], [-89.426428, 48.072004], [-89.426051, 48.072118], [-89.424703, 48.072765], [-89.423409, 48.073156], [-89.42206, 48.073009], [-89.421521, 48.072648], [-89.420982, 48.072406], [-89.419958, 48.072287], [-89.419472, 48.072032], [-89.419041, 48.071929], [-89.417169, 48.071844], [-89.415644, 48.071533], [-89.413865, 48.071334], [-89.413325, 48.071342]]}}, {"type": "Feature", "properties": {"d": 6}, "geometry": {"type": "LineString", "coordinates": [[-89.413325, 48.084085], [-89.414835, 48.083627], [-89.416237, 48.083112], [-89.417801, 48.082765], [-89.419203, 48.082354], [-89.420389, 48.082066], [-89.421845, 48.08195], [-89.422645, 48.082064], [-89.423247, 48.082328], [-89.42357, 48.082771], [-89.424008, 48.082999], [-89.424823, 48.083755], [-89.425953, 48.084582], [-89.426588, 48.084834], [-89.426814, 48.085014], [-89.427183, 48.085092], [-89.427453, 48.085317], [-89.428354, 48.08541], [-89.428801, 48.085066], [-89.429016, 48.085048], [-89.429448, 48.084834], [-89.429879, 48.084802], [-89.43031, 48.084951], [-89.430438, 48.084798], [-89.430267, 48.084618], [-89.43031, 48.084454], [-89.430526, 48.084406], [-89.430796, 48.084446], [-89.431389, 48.08425], [-89.432036, 48.084174], [-89.432791, 48.08362], [-89.432945, 48.083431], [-89.4333, 48.082603], [-89.433166, 48.082064], [-89.432689, 48.081524], [-89.431673, 48.080984], [-89.431252, 48.08066], [-89.431134, 48.080444], [-89.430472, 48.080348], [-89.430119, 48.080193], [-89.430053, 48.079833], [-89.429927, 48.079689], [-89.429663, 48.07957], [-89.429488, 48.079293], [-89.429609, 48.078994], [-89.430154, 48.078393], [-89.430903, 48.078104], [-89.431335, 48.078059], [-89.432252, 48.078417], [-89.433114, 48.078425], [-89.435541, 48.077995], [-89.435832, 48.077854], [-89.436782, 48.077566], [-89.437374, 48.077252], [-89.439207, 48.07652], [-89.441849, 48.075698], [-89.443377, 48.075011], [-89.444126, 48.074543], [-89.444586, 48.074147], [-89.446716, 48.073032], [-89.449155, 48.072168], [-89.449668, 48.07186], [-89.450487, 48.07116], [-89.451355, 48.070584], [-89.452343, 48.070009], [-89.453747, 48.069325], [-89.457055, 48.067919], [-89.458349, 48.06748], [-89.461962, 48.066541], [-89.462393, 48.066335], [-89.46303, 48.066157], [-89.463903, 48.065674], [-89.464182, 48.065402], [-89.464064, 48.065006], [-89.463579, 48.064772], [-89.46331, 48.064779], [-89.46289, 48.064682], [-89.463183, 48.064214], [-89.462944, 48.063998], [-89.46295, 48.063854], [-89.462663, 48.06347], [-89.462285, 48.06327], [-89.461153, 48.06303], [-89.459428, 48.063515], [-89.457648, 48.063794], [-89.457217, 48.06374], [-89.456408, 48.063828], [-89.455384, 48.063701], [-89.454575, 48.063817], [-89.453712, 48.063829], [-89.453173, 48.0639], [-89.452202, 48.06416], [-89.450423, 48.064256], [-89.449776, 48.064396], [-89.449021, 48.064745], [-89.448212, 48.064852], [-89.446997, 48.06515], [-89.446001, 48.065235], [-89.445817, 48.065201]]}}, {"type": "Feature", "properties": {"d": 8}, "geometry": {"type": "LineString", "coordinates": [[-89.443575, 48.049357], [-89.443602, 48.049454], [-89.443335, 48.049706], [-89.442874, 48.049923], [-89.442712, 48.049898], [-89.442771, 48.049742], [-89.443413, 48.04939], [-89.443575, 48.049357]]}}, {"type": "Feature", "properties": {"d": 8}, "geometry": {"type": "LineString", "coordinates": [[-89.419576, 48.052301], [-89.419877, 48.052695], [-89.420236, 48.052731], [-89.420315, 48.053055], [-89.419796, 48.053613], [-89.419552, 48.053595], [-89.418591, 48.054063], [-89.418503, 48.054351], [-89.418562, 48.054598]]}}, {"type": "Feature", "properties": {"d": 8}, "geometry": {"type": "LineString", "coordinates": [[-89.436269, 48.052371], [-89.436252, 48.051939], [-89.436083, 48.051831], [-89.436079, 48.051759], [-89.436835, 48.051361], [-89.437082, 48.05147], [-89.437053, 48.051615], [-89.436803, 48.051867], [-89.436967, 48.052283]]}}, {"type": "Feature", "properties": {"d": 8}, "geometry": {"type": "LineString", "coordinates": [[-89.416943, 48.053091], [-89.417315, 48.053535], [-89.41834, 48.053383], [-89.418879, 48.053204], [-89.41958, 48.052831], [-89.419193, 48.052485]]}}, {"type": "Feature", "properties": {"d": 8}, "geometry": {"type": "LineString", "coordinates": [[-89.413325, 48.054453], [-89.414515, 48.054279], [-89.415051, 48.054078], [-89.415476, 48.054027], [-89.416776, 48.053676], [-89.416916, 48.053523], [-89.416938, 48.053091]]}}, {"type": "Feature", "properties": {"d": 8}, "geometry": {"type": "LineString", "coordinates": [[-89.418441, 48.054639], [-89.418274, 48.054423], [-89.417909, 48.054311], [-89.417423, 48.054415], [-89.416202, 48.054927], [-89.416147, 48.055143], [-89.416319, 48.055412]]}}, {"type": "Feature", "properties": {"d": 8}, "geometry": {"type": "LineString", "coordinates": [[-89.460307, 48.055071], [-89.460506, 48.055307], [-89.460776, 48.055379], [-89.461002, 48.055359], [-89.461153, 48.055213], [-89.461423, 48.055277], [-89.462016, 48.055228], [-89.462825, 48.055348], [-89.463104, 48.055755], [-89.463633, 48.056213], [-89.464269, 48.056403], [-89.46482, 48.056418], [-89.465305, 48.056347], [-89.466545, 48.055989], [-89.468271, 48.055764], [-89.469331, 48.055755], [-89.470697, 48.05558], [-89.472261, 48.055514], [-89.473285, 48.055541], [-89.473643, 48.055467], [-89.474364, 48.055479], [-89.475873, 48.055323], [-89.47706, 48.055278], [-89.477922, 48.055146], [-89.479065, 48.054855], [-89.48018, 48.054243], [-89.480411, 48.053703], [-89.480478, 48.052047], [-89.47999, 48.051362], [-89.478462, 48.050328], [-89.478084, 48.050172], [-89.477707, 48.050099], [-89.474795, 48.050028], [-89.473339, 48.049656], [-89.47253, 48.049524], [-89.47032, 48.048859], [-89.469403, 48.048481], [-89.468792, 48.048122], [-89.468378, 48.048017], [-89.468119, 48.04787]]}}, {"type": "Feature", "properties": {"d": 8}, "geometry": {"type": "LineString", "coordinates": [[-89.41612, 48.055467], [-89.415967, 48.055271], [-89.415644, 48.055174], [-89.415661, 48.055575]]}}, {"type": "Feature", "properties": {"d": 8}, "geometry": {"type": "LineString", "coordinates": [[-89.415171, 48.05571], [-89.415051, 48.055535], [-89.414727, 48.055329], [-89.414683, 48.055611], [-89.41477, 48.055791]]}}, {"type": "Feature", "properties": {"d": 8}, "geometry": {"type": "LineString", "coordinates": [[-89.414632, 48.055854], [-89.414134, 48.055559], [-89.413703, 48.055601], [-89.413595, 48.055761], [-89.413325, 48.055695]]}}, {"type": "Feature", "properties": {"d": 8}, "geometry": {"type": "LineString", "coordinates": [[-89.456043, 48.056862], [-89.456408, 48.057092], [-89.45657, 48.057115], [-89.456947, 48.05693], [-89.458187, 48.056534], [-89.458792, 48.056043], [-89.458812, 48.055899], [-89.458673, 48.055583], [-89.458996, 48.055863], [-89.459212, 48.055879], [-89.459359, 48.055791], [-89.459355, 48.055395]]}}, {"type": "Feature", "properties": {"d": 8}, "geometry": {"type": "LineString", "coordinates": [[-89.413325, 48.057657], [-89.413757, 48.057649], [-89.414134, 48.057558], [-89.41433, 48.057447], [-89.414404, 48.05729], [-89.414781, 48.057361], [-89.414954, 48.057231], [-89.415266, 48.057269], [-89.415806, 48.057148], [-89.416291, 48.057138], [-89.416614, 48.057281], [-89.417266, 48.057303], [-89.417305, 48.057411], [-89.416985, 48.057699], [-89.416561, 48.057797], [-89.416399, 48.057931], [-89.415966, 48.058023], [-89.415923, 48.058203], [-89.416045, 48.058474]]}}, {"type": "Feature", "properties": {"d": 8}, "geometry": {"type": "LineString", "coordinates": [[-89.454566, 48.058383], [-89.45506, 48.058024], [-89.455234, 48.057987], [-89.455195, 48.057879], [-89.455437, 48.057829], [-89.455816, 48.057519], [-89.456158, 48.057339], [-89.456178, 48.057123], [-89.455987, 48.0569]]}}, {"type": "Feature", "properties": {"d": 8}, "geometry": {"type": "LineString", "coordinates": [[-89.453462, 48.05837], [-89.453933, 48.058667]]}}, {"type": "Feature", "properties": {"d": 8}, "geometry": {"type": "LineString", "coordinates": [[-89.4541, 48.058635], [-89.454338, 48.058419], [-89.454498, 48.058397]]}}, {"type": "Feature", "properties": {"d": 8}, "geometry": {"type": "LineString", "coordinates": [[-89.415234, 48.058692], [-89.414601, 48.058455], [-89.413595, 48.058839], [-89.413325, 48.058852]]}}, {"type": "Feature", "properties": {"d": 8}, "geometry": {"type": "LineString", "coordinates": [[-89.413325, 48.062899], [-89.415374, 48.062745], [-89.415806, 48.062782], [-89.416129, 48.062879], [-89.416849, 48.06335], [-89.418312, 48.063998], [-89.420325, 48.06461], [-89.421252, 48.064765], [-89.422007, 48.06481], [-89.42481, 48.064249], [-89.426644, 48.06404], [-89.427129, 48.063925], [-89.428046, 48.063887], [-89.428639, 48.06394], [-89.429502, 48.063837], [-89.431119, 48.063552], [-89.431551, 48.063277], [-89.43209, 48.063388], [-89.433438, 48.063143], [-89.434408, 48.063044], [-89.435605, 48.062738], [-89.436349, 48.062438], [-89.436565, 48.062472], [-89.436997, 48.062091], [-89.437898, 48.061766], [-89.438776, 48.061516], [-89.439423, 48.061408], [-89.439461, 48.061874], [-89.439146, 48.06245], [-89.439299, 48.062774], [-89.439453, 48.062882], [-89.440349, 48.06317], [-89.440865, 48.063422], [-89.441526, 48.063476], [-89.442227, 48.063353], [-89.443144, 48.063006], [-89.443575, 48.062739], [-89.444114, 48.062554], [-89.444613, 48.06209], [-89.445031, 48.061973], [-89.446109, 48.061452], [-89.44681, 48.061256], [-89.447619, 48.06104], [-89.448266, 48.060944], [-89.448697, 48.060784], [-89.449021, 48.060761], [-89.450099, 48.06088], [-89.451825, 48.060661], [-89.452903, 48.060406], [-89.453442, 48.060201], [-89.453766, 48.05999], [-89.453948, 48.059606], [-89.453886, 48.059462], [-89.453712, 48.059356], [-89.453173, 48.059385], [-89.452957, 48.059283], [-89.453119, 48.059013], [-89.45344, 48.058887], [-89.453268, 48.058491]]}}, {"type": "Feature", "properties": {"d": 8}, "geometry": {"type": "LineString", "coordinates": [[-89.413325, 48.068764], [-89.414134, 48.068389], [-89.414816, 48.067705], [-89.414944, 48.067417], [-89.414835, 48.067204], [-89.414242, 48.066552], [-89.413918, 48.066015], [-89.413325, 48.065668]]}}, {"type": "Feature", "properties": {"d": 8}, "geometry": {"type": "LineString", "coordinates": [[-89.438499, 48.069536], [-89.439369, 48.069513], [-89.439261, 48.069182], [-89.439142, 48.06908]]}}, {"type": "Feature", "properties": {"d": 8}, "geometry": {"type": "LineString", "coordinates": [[-89.435453, 48.070512], [-89.435109, 48.070173], [-89.434642, 48.070045], [-89.434139, 48.069973], [-89.433546, 48.06997], [-89.432683, 48.069771], [-89.431945, 48.069865], [-89.431497, 48.070002], [-89.431119, 48.070217], [-89.429933, 48.070693], [-89.42934, 48.070871], [-89.428639, 48.071295], [-89.427776, 48.071619], [-89.427453, 48.071825], [-89.426752, 48.072072], [-89.426051, 48.072234], [-89.42402, 48.073104], [-89.423462, 48.073226], [-89.4226, 48.073108], [-89.422046, 48.073104], [-89.421849, 48.073032], [-89.421521, 48.072686], [-89.420928, 48.072426], [-89.420011, 48.072339], [-89.419472, 48.072079], [-89.419095, 48.071974], [-89.417154, 48.071884], [-89.415644, 48.071568], [-89.413865, 48.071372], [-89.413325, 48.071379]]}}, {"type": "Feature", "properties": {"d": 8}, "geometry": {"type": "LineString", "coordinates": [[-89.413325, 48.084009], [-89.414781, 48.083517], [-89.415213, 48.083268], [-89.418034, 48.082603], [-89.420173, 48.082009], [-89.421467, 48.081847], [-89.422438, 48.081868], [-89.423247, 48.082022], [-89.423678, 48.082225], [-89.424054, 48.082316], [-89.425296, 48.082928], [-89.425565, 48.083301], [-89.425835, 48.083338], [-89.426051, 48.083443], [-89.426374, 48.083377], [-89.426536, 48.083529], [-89.426913, 48.083523], [-89.427183, 48.083696], [-89.42756, 48.083799], [-89.427992, 48.083764], [-89.428207, 48.083662], [-89.428531, 48.083716], [-89.429448, 48.083655], [-89.429771, 48.083527], [-89.430851, 48.083395], [-89.431766, 48.082939], [-89.431841, 48.082783], [-89.431792, 48.082711], [-89.431497, 48.082709], [-89.43137, 48.082244], [-89.430985, 48.081776], [-89.430799, 48.080804], [-89.430945, 48.080516], [-89.429867, 48.080301], [-89.42978, 48.080085], [-89.429805, 48.079869], [-89.429468, 48.079725], [-89.42934, 48.079561], [-89.429016, 48.079423], [-89.428857, 48.079257], [-89.428962, 48.079051], [-89.429178, 48.07908], [-89.42934, 48.07902], [-89.429987, 48.078328], [-89.431389, 48.077843], [-89.431789, 48.077854], [-89.432521, 48.078024], [-89.433276, 48.078121], [-89.434678, 48.078018], [-89.435239, 48.077926], [-89.436638, 48.07753], [-89.437266, 48.077217], [-89.439207, 48.076454], [-89.442227, 48.075485], [-89.443315, 48.074939], [-89.44434, 48.074147], [-89.446433, 48.07296], [-89.447349, 48.072605], [-89.447672, 48.07242], [-89.449124, 48.071952], [-89.45009, 48.07116], [-89.452819, 48.069325], [-89.455168, 48.068126], [-89.456049, 48.067777], [-89.456893, 48.067194], [-89.457204, 48.067093], [-89.457362, 48.066913], [-89.457972, 48.066656], [-89.458813, 48.066121], [-89.459318, 48.065906], [-89.459474, 48.065762], [-89.459382, 48.065546], [-89.459481, 48.065413], [-89.459859, 48.065276], [-89.460075, 48.06527], [-89.460236, 48.065348], [-89.460217, 48.065042], [-89.460396, 48.06479], [-89.460417, 48.064502], [-89.460236, 48.064397], [-89.459913, 48.064511], [-89.459646, 48.064466], [-89.459442, 48.063962], [-89.458996, 48.063774], [-89.458565, 48.063749], [-89.457648, 48.063877], [-89.456462, 48.063914], [-89.455923, 48.063828], [-89.455222, 48.063814], [-89.453203, 48.063962], [-89.45231, 48.064194], [-89.450466, 48.064322], [-89.44983, 48.064454], [-89.449129, 48.064761], [-89.44832, 48.064893], [-89.44708, 48.0652], [-89.445462, 48.065339], [-89.442237, 48.065438], [-89.441065, 48.06569], [-89.440808, 48.065834], [-89.440899, 48.066157], [-89.440394, 48.066554], [-89.439698, 48.068173], [-89.439824, 48.068785], [-89.43975, 48.069073], [-89.440273, 48.069441]]}}, {"type": "Feature", "properties": {"d": 10}, "geometry": {"type": "LineString", "coordinates": [[-89.44433, 48.049046], [-89.44443, 48.049166], [-89.44433, 48.049459], [-89.444114, 48.049532], [-89.443737, 48.04952], [-89.443413, 48.049772], [-89.44302, 48.049922], [-89.44291, 48.05003], [-89.442578, 48.05003], [-89.442543, 48.04985], [-89.442658, 48.049707], [-89.443737, 48.049131], [-89.44433, 48.049046]]}}, {"type": "Feature", "properties": {"d": 10}, "geometry": {"type": "LineString", "coordinates": [[-89.420024, 48.052191], [-89.420175, 48.052587], [-89.420497, 48.052773], [-89.420497, 48.053065], [-89.42004, 48.053487], [-89.420422, 48.053788]]}}, {"type": "Feature", "properties": {"d": 10}, "geometry": {"type": "LineString", "coordinates": [[-89.436218, 48.052371], [-89.43617, 48.051975], [-89.435921, 48.051831], [-89.436026, 48.051684], [-89.436691, 48.051362], [-89.436688, 48.051218], [-89.436457, 48.050905], [-89.436997, 48.051314], [-89.437212, 48.051388], [-89.437185, 48.051578], [-89.43695, 48.051831], [-89.437021, 48.052263]]}}, {"type": "Feature", "properties": {"d": 10}, "geometry": {"type": "LineString", "coordinates": [[-89.43333, 48.052477], [-89.433441, 48.052515], [-89.433384, 48.052665], [-89.433044, 48.052623], [-89.433052, 48.052515], [-89.43333, 48.052477]]}}, {"type": "Feature", "properties": {"d": 10}, "geometry": {"type": "LineString", "coordinates": [[-89.417044, 48.053091], [-89.417369, 48.053475], [-89.417531, 48.053472], [-89.417693, 48.053387], [-89.417909, 48.053414], [-89.41834, 48.053328], [-89.418879, 48.05315], [-89.419109, 48.052983], [-89.419113, 48.052515]]}}, {"type": "Feature", "properties": {"d": 10}, "geometry": {"type": "LineString", "coordinates": [[-89.420138, 48.053919], [-89.419904, 48.053714], [-89.41958, 48.053623], [-89.419472, 48.053721], [-89.418663, 48.054063], [-89.418654, 48.054537]]}}, {"type": "Feature", "properties": {"d": 10}, "geometry": {"type": "LineString", "coordinates": [[-89.413325, 48.054401], [-89.414404, 48.054243], [-89.414565, 48.05414], [-89.415105, 48.053982], [-89.415752, 48.053913], [-89.41619, 48.053775], [-89.416291, 48.053687], [-89.416776, 48.053584], [-89.416867, 48.053487], [-89.416872, 48.053091]]}}, {"type": "Feature", "properties": {"d": 10}, "geometry": {"type": "LineString", "coordinates": [[-89.418305, 48.054675], [-89.41817, 48.054495], [-89.417893, 48.054351], [-89.417747, 48.054443], [-89.417477, 48.054444], [-89.417262, 48.054516], [-89.4171, 48.054628], [-89.416242, 48.054927], [-89.416219, 48.055107], [-89.416375, 48.055375]]}}, {"type": "Feature", "properties": {"d": 10}, "geometry": {"type": "LineString", "coordinates": [[-89.461262, 48.054819], [-89.461638, 48.05516], [-89.462124, 48.055162], [-89.46304, 48.055349], [-89.46322, 48.055647], [-89.463795, 48.056138], [-89.46428, 48.056274], [-89.464874, 48.056322], [-89.465359, 48.05627], [-89.466545, 48.055946], [-89.467785, 48.055758], [-89.469295, 48.055718], [-89.470643, 48.055555], [-89.472045, 48.055515], [-89.472137, 48.055467], [-89.472144, 48.055035]]}}, {"type": "Feature", "properties": {"d": 10}, "geometry": {"type": "LineString", "coordinates": [[-89.473075, 48.055035], [-89.473156, 48.055431], [-89.473231, 48.055489], [-89.473393, 48.055402], [-89.47431, 48.055432], [-89.47706, 48.055242], [-89.478092, 48.055071], [-89.478337, 48.054927], [-89.478569, 48.054932], [-89.479163, 48.054765], [-89.479604, 48.054459], [-89.480006, 48.054279], [-89.480207, 48.053991], [-89.480355, 48.052083], [-89.480001, 48.05147], [-89.479648, 48.051182], [-89.478826, 48.050714], [-89.478462, 48.050408], [-89.47803, 48.050227], [-89.477707, 48.05015], [-89.476574, 48.050081], [-89.474957, 48.050098], [-89.47431, 48.050026], [-89.471883, 48.049566], [-89.469726, 48.04877], [-89.468726, 48.048266], [-89.467755, 48.04787]]}}, {"type": "Feature", "properties": {"d": 10}, "geometry": {"type": "LineString", "coordinates": [[-89.458784, 48.055501], [-89.459158, 48.055801], [-89.459213, 48.055395]]}}, {"type": "Feature", "properties": {"d": 10}, "geometry": {"type": "LineString", "coordinates": [[-89.414586, 48.055885], [-89.414175, 48.055611], [-89.413848, 48.055611], [-89.413761, 48.055683], [-89.413801, 48.056049]]}}, {"type": "Feature", "properties": {"d": 10}, "geometry": {"type": "LineString", "coordinates": [[-89.456198, 48.056759], [-89.456678, 48.057014], [-89.456893, 48.056881], [-89.457217, 48.056851], [-89.458187, 48.056491], [-89.458688, 48.056043], [-89.458564, 48.055611]]}}, {"type": "Feature", "properties": {"d": 10}, "geometry": {"type": "LineString", "coordinates": [[-89.414811, 48.056887], [-89.415213, 48.057173], [-89.41532, 48.057106], [-89.416237, 48.057076], [-89.416695, 48.057231], [-89.416938, 48.05725], [-89.417315, 48.05718], [-89.417531, 48.057284], [-89.417637, 48.057195], [-89.417864, 48.057159], [-89.417855, 48.057264], [-89.417531, 48.057346], [-89.4171, 48.057637], [-89.416992, 48.057796], [-89.41683, 48.057772], [-89.416561, 48.057837], [-89.416453, 48.058008], [-89.416076, 48.058023], [-89.416038, 48.058203], [-89.416119, 48.058455]]}}, {"type": "Feature", "properties": {"d": 10}, "geometry": {"type": "LineString", "coordinates": [[-89.413325, 48.057617], [-89.413757, 48.057609], [-89.414179, 48.057483], [-89.414252, 48.057015]]}}, {"type": "Feature", "properties": {"d": 10}, "geometry": {"type": "LineString", "coordinates": [[-89.453502, 48.058343], [-89.45397, 48.058643]]}}, {"type": "Feature", "properties": {"d": 10}, "geometry": {"type": "LineString", "coordinates": [[-89.454119, 48.058543], [-89.454575, 48.058245], [-89.454916, 48.058131], [-89.454964, 48.057987], [-89.454844, 48.057679], [-89.455123, 48.057771], [-89.455383, 48.057771], [-89.455662, 48.057591], [-89.455756, 48.057375], [-89.455543, 48.057088]]}}, {"type": "Feature", "properties": {"d": 10}, "geometry": {"type": "LineString", "coordinates": [[-89.415208, 48.05871], [-89.414619, 48.058509], [-89.414297, 48.058599], [-89.414242, 48.058843], [-89.414026, 48.058744], [-89.413843, 48.058779], [-89.413757, 48.059018], [-89.413325, 48.058883]]}}, {"type": "Feature", "properties": {"d": 10}, "geometry": {"type": "LineString", "coordinates": [[-89.443427, 48.062297], [-89.443844, 48.062514], [-89.44406, 48.06249], [-89.444481, 48.062162], [-89.444575, 48.06191], [-89.444761, 48.061972], [-89.444977, 48.061948], [-89.446071, 48.061406], [-89.447619, 48.060997], [-89.448212, 48.06092], [-89.448643, 48.060746], [-89.449398, 48.060678], [-89.450207, 48.060758], [-89.451124, 48.060695], [-89.451717, 48.060584], [-89.452472, 48.060282], [-89.453421, 48.060002], [-89.453628, 48.059786], [-89.453654, 48.059498], [-89.453496, 48.059415], [-89.453111, 48.059426], [-89.45288, 48.059282], [-89.453086, 48.058994], [-89.453374, 48.058887], [-89.453236, 48.058491]]}}, {"type": "Feature", "properties": {"d": 10}, "geometry": {"type": "LineString", "coordinates": [[-89.413325, 48.062836], [-89.415105, 48.06274], [-89.415374, 48.062683], [-89.415806, 48.062726], [-89.416129, 48.062817], [-89.417026, 48.063314], [-89.418098, 48.063746], [-89.418717, 48.063886], [-89.419311, 48.064129], [-89.420843, 48.06461], [-89.421953, 48.064767], [-89.424864, 48.06419], [-89.42756, 48.063845], [-89.429232, 48.063788], [-89.430796, 48.063543], [-89.431126, 48.063458], [-89.431551, 48.063208], [-89.43209, 48.063223], [-89.433815, 48.063073], [-89.434516, 48.062943], [-89.435264, 48.062774], [-89.436511, 48.062362], [-89.436997, 48.06203], [-89.438021, 48.061681], [-89.439315, 48.061361], [-89.439423, 48.061138], [-89.439627, 48.061334], [-89.439535, 48.061586], [-89.439624, 48.061802], [-89.439451, 48.062054], [-89.439373, 48.062342], [-89.439424, 48.062486], [-89.4398, 48.06283], [-89.440825, 48.063203], [-89.441565, 48.06335], [-89.442151, 48.063314], [-89.44309, 48.062982], [-89.443346, 48.06281], [-89.443244, 48.062414]]}}, {"type": "Feature", "properties": {"d": 10}, "geometry": {"type": "LineString", "coordinates": [[-89.413325, 48.068705], [-89.41409, 48.068353], [-89.414781, 48.067644], [-89.414876, 48.067417], [-89.414833, 48.067273], [-89.414192, 48.066589], [-89.413918, 48.066076], [-89.413757, 48.065944], [-89.413467, 48.06587], [-89.413325, 48.065737]]}}, {"type": "Feature", "properties": {"d": 10}, "geometry": {"type": "LineString", "coordinates": [[-89.435415, 48.070524], [-89.435271, 48.070325], [-89.435001, 48.070161], [-89.434193, 48.070028], [-89.433546, 48.070018], [-89.432845, 48.069913], [-89.432359, 48.069946], [-89.430463, 48.070692], [-89.429313, 48.071052], [-89.428908, 48.071281], [-89.427867, 48.071664], [-89.427453, 48.0719], [-89.425245, 48.072636], [-89.424306, 48.073176], [-89.424002, 48.073264], [-89.423516, 48.073297], [-89.422546, 48.07315], [-89.422007, 48.073186], [-89.421619, 48.073032], [-89.421635, 48.072816], [-89.42136, 48.072642], [-89.42082, 48.072442], [-89.419958, 48.072432], [-89.419478, 48.072132], [-89.419041, 48.072], [-89.417315, 48.071945], [-89.4171, 48.072287], [-89.417081, 48.071952], [-89.41683, 48.071859], [-89.416507, 48.071884], [-89.416345, 48.071734], [-89.414242, 48.071443], [-89.413325, 48.071412]]}}, {"type": "Feature", "properties": {"d": 10}, "geometry": {"type": "LineString", "coordinates": [[-89.413325, 48.083886], [-89.414134, 48.08362], [-89.414446, 48.083359], [-89.414889, 48.083186], [-89.415115, 48.082963], [-89.415914, 48.082993], [-89.41807, 48.082488], [-89.420065, 48.081922], [-89.421467, 48.081729], [-89.422492, 48.081756], [-89.423786, 48.081984], [-89.42508, 48.0821], [-89.425714, 48.082423], [-89.425877, 48.082567], [-89.42599, 48.082819], [-89.426428, 48.082812], [-89.427345, 48.083241], [-89.428855, 48.083238], [-89.429394, 48.083126], [-89.429663, 48.082929], [-89.429879, 48.082985], [-89.430217, 48.082963], [-89.43031, 48.082732], [-89.430778, 48.082495], [-89.430775, 48.082352], [-89.43011, 48.081884], [-89.430031, 48.08156], [-89.429772, 48.081344], [-89.429709, 48.081092], [-89.429789, 48.080984], [-89.429795, 48.080696], [-89.429754, 48.080588], [-89.429524, 48.080516], [-89.429568, 48.080157], [-89.429478, 48.079941], [-89.42907, 48.079746], [-89.428801, 48.079704], [-89.428546, 48.079509], [-89.428632, 48.079365], [-89.428601, 48.079005], [-89.429177, 48.078789], [-89.429381, 48.078573], [-89.429497, 48.078285], [-89.430634, 48.077861], [-89.431335, 48.077704], [-89.432629, 48.077806], [-89.435109, 48.077596], [-89.436404, 48.07735], [-89.439207, 48.07635], [-89.441694, 48.075587], [-89.442787, 48.075011], [-89.443844, 48.07418], [-89.446086, 48.072816], [-89.446864, 48.072512], [-89.447457, 48.072084], [-89.448309, 48.071844], [-89.448847, 48.071592], [-89.45013, 48.070548], [-89.450719, 48.070152], [-89.450898, 48.069901], [-89.451501, 48.069409], [-89.452172, 48.068641], [-89.452526, 48.068447], [-89.453265, 48.067777], [-89.455168, 48.066792], [-89.4563, 48.066416], [-89.456388, 48.066301], [-89.457217, 48.065881], [-89.45781, 48.065282], [-89.458001, 48.065006], [-89.457988, 48.064898], [-89.457702, 48.064697], [-89.457216, 48.064502], [-89.456785, 48.064547], [-89.45657, 48.064503], [-89.4563, 48.064561], [-89.456084, 48.064518], [-89.455923, 48.064578], [-89.455761, 48.064527], [-89.455276, 48.06452], [-89.45506, 48.064571], [-89.454844, 48.064539], [-89.453874, 48.064613], [-89.453011, 48.064539], [-89.452256, 48.064393], [-89.451124, 48.06471], [-89.450315, 48.064756], [-89.449991, 48.064829], [-89.449452, 48.064757], [-89.447947, 48.065042], [-89.447241, 48.065241], [-89.444617, 48.06551], [-89.443844, 48.065739], [-89.442712, 48.066276], [-89.441688, 48.066571], [-89.441095, 48.066927], [-89.440029, 48.067993], [-89.439851, 48.068317], [-89.439941, 48.068785], [-89.439837, 48.069073], [-89.440312, 48.069415]]}}, {"type": "Feature", "properties": {"d": 12}, "geometry": {"type": "LineString", "coordinates": [[-89.443565, 48.048561], [-89.444019, 48.04895], [-89.444512, 48.04895], [-89.44459, 48.049274], [-89.444531, 48.049454], [-89.444417, 48.049526], [-89.443863, 48.049598], [-89.443148, 48.049958], [-89.443103, 48.050102], [-89.443197, 48.050379], [-89.44282, 48.050158], [-89.442389, 48.050155], [-89.442306, 48.050102], [-89.442523, 48.049706], [-89.443536, 48.049166], [-89.443543, 48.048986], [-89.44334, 48.048711]]}}, {"type": "Feature", "properties": {"d": 12}, "geometry": {"type": "LineString", "coordinates": [[-89.44007, 48.05009], [-89.440336, 48.05021], [-89.440359, 48.050282], [-89.439908, 48.050497], [-89.439746, 48.050437], [-89.439709, 48.050318], [-89.44007, 48.05009]]}}, {"type": "Feature", "properties": {"d": 12}, "geometry": {"type": "LineString", "coordinates": [[-89.442173, 48.050174], [-89.442256, 48.05021], [-89.442227, 48.050479], [-89.441991, 48.050318], [-89.442011, 48.050192], [-89.442173, 48.050174]]}}, {"type": "Feature", "properties": {"d": 12}, "geometry": {"type": "LineString", "coordinates": [[-89.436489, 48.050873], [-89.437009, 48.051254], [-89.437264, 48.051362], [-89.437285, 48.051615], [-89.437026, 48.051831], [-89.437068, 48.052263]]}}, {"type": "Feature", "properties": {"d": 12}, "geometry": {"type": "LineString", "coordinates": [[-89.433204, 48.051939], [-89.433222, 48.05236], [-89.433529, 48.052515], [-89.433654, 48.05309]]}}, {"type": "Feature", "properties": {"d": 12}, "geometry": {"type": "LineString", "coordinates": [[-89.420174, 48.05219], [-89.420443, 48.052526], [-89.420766, 48.052621], [-89.420805, 48.052803], [-89.420695, 48.053055], [-89.421116, 48.053361]]}}, {"type": "Feature", "properties": {"d": 12}, "geometry": {"type": "LineString", "coordinates": [[-89.436164, 48.052371], [-89.436035, 48.052155], [-89.435803, 48.051975], [-89.435791, 48.051831], [-89.435978, 48.051651], [-89.436643, 48.051362], [-89.436637, 48.051218], [-89.436379, 48.050947]]}}, {"type": "Feature", "properties": {"d": 12}, "geometry": {"type": "LineString", "coordinates": [[-89.417095, 48.053057], [-89.417407, 48.053415], [-89.417531, 48.053401], [-89.417693, 48.053274], [-89.417909, 48.053358], [-89.41807, 48.053344], [-89.418881, 48.053091], [-89.418885, 48.052947], [-89.418591, 48.052635]]}}, {"type": "Feature", "properties": {"d": 12}, "geometry": {"type": "LineString", "coordinates": [[-89.433161, 48.053163], [-89.433, 48.052911], [-89.432782, 48.052767], [-89.432704, 48.052515], [-89.432357, 48.052192]]}}, {"type": "Feature", "properties": {"d": 12}, "geometry": {"type": "LineString", "coordinates": [[-89.415326, 48.053487], [-89.41559, 48.053773], [-89.416021, 48.053775], [-89.416078, 48.053595], [-89.415929, 48.053343]]}}, {"type": "Feature", "properties": {"d": 12}, "geometry": {"type": "LineString", "coordinates": [[-89.420037, 48.053974], [-89.419634, 48.053701], [-89.419364, 48.053803], [-89.419149, 48.053995], [-89.418867, 48.053991], [-89.418687, 48.054135], [-89.418717, 48.054531]]}}, {"type": "Feature", "properties": {"d": 12}, "geometry": {"type": "LineString", "coordinates": [[-89.413325, 48.054318], [-89.413487, 48.054345], [-89.41408, 48.054235], [-89.414117, 48.053775]]}}, {"type": "Feature", "properties": {"d": 12}, "geometry": {"type": "LineString", "coordinates": [[-89.461333, 48.054807], [-89.461746, 48.055088], [-89.462178, 48.055095], [-89.463148, 48.05528], [-89.463633, 48.055845], [-89.464119, 48.0561], [-89.465035, 48.056225], [-89.465359, 48.056212], [-89.46606, 48.055997], [-89.467785, 48.055703], [-89.469295, 48.055671], [-89.471144, 48.055503], [-89.471246, 48.055431], [-89.471247, 48.055035]]}}, {"type": "Feature", "properties": {"d": 12}, "geometry": {"type": "LineString", "coordinates": [[-89.417895, 48.054828], [-89.417531, 48.054546], [-89.417315, 48.054531], [-89.417154, 48.05471], [-89.416801, 48.054783], [-89.416722, 48.054916], [-89.416507, 48.054869], [-89.416289, 48.054927], [-89.416272, 48.055107], [-89.416408, 48.055359]]}}, {"type": "Feature", "properties": {"d": 12}, "geometry": {"type": "LineString", "coordinates": [[-89.473144, 48.055035], [-89.473269, 48.055251], [-89.473501, 48.055389], [-89.474256, 48.055399], [-89.474471, 48.055326], [-89.474741, 48.055361], [-89.477114, 48.055196], [-89.477437, 48.055073], [-89.477707, 48.055104], [-89.47806, 48.055035], [-89.478192, 48.054729], [-89.478623, 48.054858], [-89.479163, 48.054725], [-89.479927, 48.054243], [-89.48013, 48.053883], [-89.48023, 48.052119], [-89.4799, 48.05147], [-89.478462, 48.050496], [-89.478005, 48.050282], [-89.477599, 48.050192], [-89.476574, 48.050123], [-89.474903, 48.05014], [-89.471722, 48.049701], [-89.47129, 48.049587], [-89.46936, 48.04877], [-89.468864, 48.048469], [-89.467423, 48.04787]]}}, {"type": "Feature", "properties": {"d": 12}, "geometry": {"type": "LineString", "coordinates": [[-89.414518, 48.05593], [-89.41408, 48.055648], [-89.414004, 48.055683], [-89.414, 48.056043]]}}, {"type": "Feature", "properties": {"d": 12}, "geometry": {"type": "LineString", "coordinates": [[-89.456415, 48.056614], [-89.456785, 48.056841], [-89.457109, 48.056842], [-89.458187, 48.056446], [-89.458603, 48.056043], [-89.458517, 48.055611]]}}, {"type": "Feature", "properties": {"d": 12}, "geometry": {"type": "LineString", "coordinates": [[-89.416457, 48.056655], [-89.416462, 48.057051], [-89.416561, 48.057131], [-89.416938, 48.057168], [-89.417855, 48.057062], [-89.417976, 48.057123], [-89.418001, 48.057231], [-89.417855, 48.057425], [-89.417639, 48.057422], [-89.41741, 48.057519], [-89.417315, 48.057644], [-89.417147, 48.057663], [-89.417154, 48.058004], [-89.416668, 48.057846], [-89.416579, 48.057879], [-89.416507, 48.058078], [-89.416229, 48.058059], [-89.416228, 48.058455]]}}, {"type": "Feature", "properties": {"d": 12}, "geometry": {"type": "LineString", "coordinates": [[-89.415884, 48.056655], [-89.415885, 48.057015], [-89.415967, 48.057065], [-89.416026, 48.056655]]}}, {"type": "Feature", "properties": {"d": 12}, "geometry": {"type": "LineString", "coordinates": [[-89.415212, 48.056727], [-89.415428, 48.056982], [-89.41559, 48.057048], [-89.41565, 48.056655]]}}, {"type": "Feature", "properties": {"d": 12}, "geometry": {"type": "LineString", "coordinates": [[-89.454955, 48.057445], [-89.45533, 48.057573], [-89.455599, 48.057559], [-89.455628, 48.057411], [-89.455419, 48.057135]]}}, {"type": "Feature", "properties": {"d": 12}, "geometry": {"type": "LineString", "coordinates": [[-89.413325, 48.057577], [-89.413703, 48.057569], [-89.413865, 48.057486], [-89.414134, 48.05746], [-89.414166, 48.057015]]}}, {"type": "Feature", "properties": {"d": 12}, "geometry": {"type": "LineString", "coordinates": [[-89.453564, 48.058302], [-89.453928, 48.058531], [-89.454036, 48.058527]]}}, {"type": "Feature", "properties": {"d": 12}, "geometry": {"type": "LineString", "coordinates": [[-89.454101, 48.058498], [-89.454467, 48.058203], [-89.454736, 48.058169], [-89.454849, 48.058095], [-89.454731, 48.057699]]}}, {"type": "Feature", "properties": {"d": 12}, "geometry": {"type": "LineString", "coordinates": [[-89.415177, 48.058731], [-89.414781, 48.058568], [-89.414399, 48.058599], [-89.414353, 48.058743], [-89.414538, 48.05903]]}}, {"type": "Feature", "properties": {"d": 12}, "geometry": {"type": "LineString", "coordinates": [[-89.414441, 48.059077], [-89.413972, 48.058788], [-89.413865, 48.05883], [-89.413839, 48.059102], [-89.413757, 48.059166], [-89.413325, 48.05893]]}}, {"type": "Feature", "properties": {"d": 12}, "geometry": {"type": "LineString", "coordinates": [[-89.444435, 48.061624], [-89.444815, 48.061871], [-89.444977, 48.061883], [-89.445214, 48.061766], [-89.445224, 48.061622], [-89.445092, 48.061442], [-89.445139, 48.061391], [-89.44557, 48.061574], [-89.445893, 48.061461], [-89.446001, 48.061327], [-89.446487, 48.061279], [-89.447457, 48.060993], [-89.448104, 48.060895], [-89.448643, 48.060697], [-89.44929, 48.060587], [-89.450962, 48.0606], [-89.451949, 48.060362], [-89.45293, 48.060002], [-89.453259, 48.059786], [-89.453326, 48.059606], [-89.453268, 48.059534], [-89.452739, 48.059318], [-89.45301, 48.058994], [-89.453265, 48.058887], [-89.453196, 48.058491]]}}, {"type": "Feature", "properties": {"d": 12}, "geometry": {"type": "LineString", "coordinates": [[-89.413325, 48.062749], [-89.41532, 48.062643], [-89.415914, 48.062684], [-89.416507, 48.062944], [-89.417531, 48.063255], [-89.418146, 48.06353], [-89.419472, 48.063881], [-89.421198, 48.064595], [-89.421953, 48.064727], [-89.424433, 48.064208], [-89.426913, 48.063867], [-89.42934, 48.063655], [-89.430957, 48.063385], [-89.431712, 48.063111], [-89.433761, 48.062996], [-89.435137, 48.062738], [-89.436457, 48.062305], [-89.436997, 48.061971], [-89.438398, 48.061497], [-89.439214, 48.061334], [-89.439315, 48.060955], [-89.439574, 48.061118], [-89.43973, 48.061334], [-89.439665, 48.06155], [-89.439771, 48.061766], [-89.43955, 48.062054], [-89.439559, 48.062342], [-89.439722, 48.062558], [-89.440046, 48.062774], [-89.440825, 48.06302], [-89.441526, 48.063081], [-89.442011, 48.063194], [-89.442335, 48.063185], [-89.443172, 48.062882], [-89.44319, 48.062414]]}}, {"type": "Feature", "properties": {"d": 12}, "geometry": {"type": "LineString", "coordinates": [[-89.413325, 48.068645], [-89.413811, 48.068457], [-89.414072, 48.068281], [-89.414732, 48.067561], [-89.414801, 48.067381], [-89.414471, 48.067057], [-89.414354, 48.066805], [-89.414077, 48.066661], [-89.414098, 48.066481], [-89.413865, 48.066337], [-89.413928, 48.066157], [-89.413811, 48.066023], [-89.413541, 48.065978], [-89.413325, 48.066091]]}}, {"type": "Feature", "properties": {"d": 12}, "geometry": {"type": "LineString", "coordinates": [[-89.435357, 48.070563], [-89.435019, 48.070224], [-89.434624, 48.070165], [-89.433384, 48.07013], [-89.432198, 48.070314], [-89.430796, 48.070819], [-89.428446, 48.07152], [-89.427506, 48.071977], [-89.426188, 48.072492], [-89.425242, 48.072773], [-89.424217, 48.073309], [-89.423085, 48.073368], [-89.422978, 48.073283], [-89.422708, 48.073223], [-89.422276, 48.073261], [-89.422147, 48.073499], [-89.422303, 48.07377]]}}, {"type": "Feature", "properties": {"d": 12}, "geometry": {"type": "LineString", "coordinates": [[-89.416924, 48.072348], [-89.416888, 48.071916], [-89.416722, 48.071899], [-89.416399, 48.072085], [-89.416365, 48.071808], [-89.416291, 48.071759], [-89.416131, 48.071772], [-89.415914, 48.071886], [-89.415835, 48.0717], [-89.415644, 48.071632], [-89.41532, 48.071615], [-89.415051, 48.071721], [-89.414943, 48.071576], [-89.414727, 48.071611], [-89.414404, 48.071508], [-89.413757, 48.071443], [-89.413325, 48.071477]]}}, {"type": "Feature", "properties": {"d": 12}, "geometry": {"type": "LineString", "coordinates": [[-89.421144, 48.073267], [-89.421793, 48.073212], [-89.421508, 48.073068], [-89.42156, 48.072816], [-89.42136, 48.072676], [-89.420766, 48.072498], [-89.420551, 48.0726], [-89.420481, 48.072492], [-89.420227, 48.07246], [-89.41985, 48.072603], [-89.419755, 48.072348], [-89.418948, 48.072024], [-89.417585, 48.071972], [-89.417356, 48.072132], [-89.41722, 48.072348]]}}, {"type": "Feature", "properties": {"d": 12}, "geometry": {"type": "LineString", "coordinates": [[-89.42783, 48.078923], [-89.428477, 48.078904], [-89.428673, 48.078789], [-89.42934, 48.078105], [-89.429933, 48.077899], [-89.430634, 48.077535], [-89.431173, 48.077394], [-89.432252, 48.0773], [-89.432629, 48.077223], [-89.432952, 48.077049], [-89.43457, 48.077032], [-89.434904, 48.07699], [-89.435325, 48.076815], [-89.435756, 48.076859], [-89.436403, 48.076795], [-89.436727, 48.076654], [-89.439364, 48.076054], [-89.439585, 48.075923], [-89.439854, 48.075856], [-89.440124, 48.075663], [-89.440394, 48.075676], [-89.441256, 48.07544], [-89.441849, 48.074975], [-89.441957, 48.07478], [-89.442119, 48.074713], [-89.442173, 48.074507], [-89.442724, 48.074363], [-89.443036, 48.074096], [-89.443413, 48.073947], [-89.444438, 48.073344], [-89.445091, 48.072924], [-89.44518, 48.07278], [-89.44603, 48.072168], [-89.446163, 48.072005], [-89.446343, 48.071952], [-89.446403, 48.071772], [-89.446754, 48.071628], [-89.447026, 48.071379], [-89.447188, 48.071405], [-89.44749, 48.071016], [-89.447497, 48.070872], [-89.447806, 48.070656], [-89.448018, 48.069937], [-89.448377, 48.069757], [-89.44844, 48.069505], [-89.448751, 48.069422], [-89.448958, 48.069253], [-89.449253, 48.068821], [-89.44934, 48.068497], [-89.449527, 48.068353], [-89.4497, 48.067993], [-89.449884, 48.06792], [-89.45, 48.067741], [-89.450187, 48.067633], [-89.450369, 48.067308], [-89.4508, 48.067189], [-89.450809, 48.067093], [-89.450496, 48.067021], [-89.450469, 48.066949], [-89.450962, 48.066823], [-89.451345, 48.066301], [-89.451626, 48.066193], [-89.45171, 48.06605], [-89.451393, 48.066054], [-89.451224, 48.065942], [-89.451501, 48.065867], [-89.451539, 48.065798], [-89.451286, 48.06575], [-89.451124, 48.065853], [-89.450962, 48.065685], [-89.450585, 48.065738], [-89.449776, 48.065652], [-89.449651, 48.06569], [-89.449588, 48.065798], [-89.449452, 48.065654], [-89.448751, 48.06562], [-89.448212, 48.065721], [-89.447942, 48.065714], [-89.447727, 48.065844], [-89.447403, 48.06584], [-89.447188, 48.065942], [-89.447008, 48.065942], [-89.446864, 48.06616], [-89.446756, 48.066136], [-89.446648, 48.065982], [-89.446325, 48.066201], [-89.445408, 48.066317], [-89.444977, 48.066504], [-89.443521, 48.066894], [-89.443359, 48.066997], [-89.442227, 48.067194], [-89.441148, 48.067648], [-89.440825, 48.067968], [-89.440609, 48.068012], [-89.440412, 48.068317], [-89.440477, 48.068461], [-89.440112, 48.068533], [-89.440063, 48.069001], [-89.440453, 48.069325]]}}, {"type": "Feature", "properties": {"d": 12}, "geometry": {"type": "LineString", "coordinates": [[-89.427927, 48.07961], [-89.428366, 48.079401], [-89.42783, 48.079377]]}}, {"type": "Feature", "properties": {"d": 12}, "geometry": {"type": "LineString", "coordinates": [[-89.428806, 48.081563], [-89.429277, 48.0812], [-89.429124, 48.081019], [-89.429099, 48.080732], [-89.429288, 48.080552], [-89.429177, 48.080373], [-89.429338, 48.080301], [-89.429365, 48.080049], [-89.429286, 48.080008], [-89.429124, 48.080046], [-89.429016, 48.079921], [-89.428801, 48.079839], [-89.428202, 48.080045]]}}, {"type": "Feature", "properties": {"d": 12}, "geometry": {"type": "LineString", "coordinates": [[-89.413325, 48.083784], [-89.413972, 48.083544], [-89.414565, 48.083121], [-89.41532, 48.082761], [-89.41586, 48.082788], [-89.416722, 48.08266], [-89.41807, 48.082374], [-89.420227, 48.081768], [-89.421575, 48.081611], [-89.422869, 48.08171], [-89.42384, 48.081917], [-89.424271, 48.081927], [-89.424541, 48.081874], [-89.424864, 48.081911], [-89.425188, 48.081793], [-89.425511, 48.082064], [-89.425789, 48.0821], [-89.425859, 48.082244], [-89.426105, 48.082235], [-89.42632, 48.082527], [-89.426913, 48.082884], [-89.427722, 48.082964], [-89.427992, 48.082821], [-89.428207, 48.082936], [-89.429124, 48.082856], [-89.429261, 48.082783], [-89.42934, 48.082374], [-89.429565, 48.082316], [-89.430016, 48.081992], [-89.429879, 48.081877], [-89.429232, 48.081653], [-89.428906, 48.08163]]}}, {"type": "Feature", "properties": {"d": 15}, "geometry": {"type": "LineString", "coordinates": [[-89.44422, 48.04834], [-89.444599, 48.048586], [-89.445031, 48.048643], [-89.445005, 48.048878], [-89.444815, 48.049023], [-89.444781, 48.049202], [-89.445225, 48.049577]]}}, {"type": "Feature", "properties": {"d": 15}, "geometry": {"type": "LineString", "coordinates": [[-89.442844, 48.048934], [-89.443197, 48.049188], [-89.443382, 48.049166], [-89.443414, 48.049022], [-89.443207, 48.048764]]}}, {"type": "Feature", "properties": {"d": 15}, "geometry": {"type": "LineString", "coordinates": [[-89.439866, 48.04977], [-89.440178, 48.050016], [-89.440582, 48.05021], [-89.440442, 48.05057], [-89.440626, 48.050883]]}}, {"type": "Feature", "properties": {"d": 15}, "geometry": {"type": "LineString", "coordinates": [[-89.444437, 48.050066], [-89.444276, 48.049859], [-89.444006, 48.049736], [-89.443898, 48.049737], [-89.443791, 48.049872], [-89.443575, 48.049818], [-89.443507, 48.05003], [-89.443758, 48.050268]]}}, {"type": "Feature", "properties": {"d": 15}, "geometry": {"type": "LineString", "coordinates": [[-89.442242, 48.050668], [-89.441773, 48.050246], [-89.441902, 48.050066], [-89.442446, 48.049634], [-89.442489, 48.049454], [-89.442291, 48.049195]]}}, {"type": "Feature", "properties": {"d": 15}, "geometry": {"type": "LineString", "coordinates": [[-89.439092, 48.050674], [-89.439515, 48.050354], [-89.439505, 48.050174], [-89.439291, 48.049902]]}}, {"type": "Feature", "properties": {"d": 15}, "geometry": {"type": "LineString", "coordinates": [[-89.436551, 48.050832], [-89.43705, 48.051152], [-89.437363, 48.051182], [-89.437364, 48.051506], [-89.437518, 48.051687], [-89.43715, 48.051795], [-89.437143, 48.052263]]}}, {"type": "Feature", "properties": {"d": 15}, "geometry": {"type": "LineString", "coordinates": [[-89.433414, 48.051919], [-89.43362, 48.052155], [-89.433653, 48.052399], [-89.433761, 48.052316], [-89.433815, 48.052346], [-89.433765, 48.053055]]}}, {"type": "Feature", "properties": {"d": 15}, "geometry": {"type": "LineString", "coordinates": [[-89.435852, 48.052479], [-89.435487, 48.052101], [-89.435451, 48.051939], [-89.435552, 48.051759], [-89.43575, 48.051651], [-89.43581, 48.051448], [-89.436026, 48.051532], [-89.436242, 48.051475], [-89.436324, 48.051362], [-89.436565, 48.051356], [-89.43656, 48.051218], [-89.436316, 48.050966]]}}, {"type": "Feature", "properties": {"d": 15}, "geometry": {"type": "LineString", "coordinates": [[-89.43209, 48.052587], [-89.432044, 48.052731], [-89.43209, 48.052884], [-89.432227, 48.052803], [-89.43209, 48.052587]]}}, {"type": "Feature", "properties": {"d": 15}, "geometry": {"type": "LineString", "coordinates": [[-89.41828, 48.052767], [-89.418538, 48.053055], [-89.418717, 48.053086], [-89.41873, 48.052947], [-89.418483, 48.052695]]}}, {"type": "Feature", "properties": {"d": 15}, "geometry": {"type": "LineString", "coordinates": [[-89.432994, 48.053207], [-89.432629, 48.052883], [-89.432359, 48.052844], [-89.432305, 48.053144], [-89.432036, 48.053033], [-89.431889, 48.053127], [-89.432293, 48.053495]]}}, {"type": "Feature", "properties": {"d": 15}, "geometry": {"type": "LineString", "coordinates": [[-89.478001, 48.054603], [-89.478569, 48.054757], [-89.479001, 48.054722], [-89.479676, 48.054243], [-89.479818, 48.054027], [-89.479883, 48.053667], [-89.47999, 48.052263], [-89.479849, 48.051759], [-89.479594, 48.051458], [-89.479283, 48.051182], [-89.478246, 48.050518], [-89.477491, 48.050278], [-89.47652, 48.050197], [-89.475604, 48.050238], [-89.473771, 48.050119], [-89.47307, 48.050129], [-89.472422, 48.050049], [-89.471128, 48.049771], [-89.469888, 48.049138], [-89.469025, 48.048803], [-89.468661, 48.048554], [-89.46695, 48.04787]]}}, {"type": "Feature", "properties": {"d": 15}, "geometry": {"type": "LineString", "coordinates": [[-89.462443, 48.054603], [-89.462508, 48.055071], [-89.46331, 48.055186], [-89.463772, 48.055647], [-89.46417, 48.055827], [-89.465359, 48.056055], [-89.467785, 48.055626], [-89.469457, 48.055577], [-89.470427, 48.055478], [-89.470697, 48.055388], [-89.471035, 48.055035]]}}, {"type": "Feature", "properties": {"d": 15}, "geometry": {"type": "LineString", "coordinates": [[-89.477237, 48.054711], [-89.477558, 48.054999], [-89.477707, 48.055035], [-89.477779, 48.054963], [-89.47778, 48.054603]]}}, {"type": "Feature", "properties": {"d": 15}, "geometry": {"type": "LineString", "coordinates": [[-89.461408, 48.054756], [-89.4618, 48.055018], [-89.461962, 48.055033], [-89.462023, 48.054603]]}}, {"type": "Feature", "properties": {"d": 15}, "geometry": {"type": "LineString", "coordinates": [[-89.417715, 48.054912], [-89.417369, 48.054651], [-89.417556, 48.054963]]}}, {"type": "Feature", "properties": {"d": 15}, "geometry": {"type": "LineString", "coordinates": [[-89.474279, 48.054927], [-89.474741, 48.055286], [-89.475314, 48.055215], [-89.475442, 48.055134], [-89.475927, 48.05521], [-89.476522, 48.055179], [-89.477037, 48.055107], [-89.477076, 48.054711]]}}, {"type": "Feature", "properties": {"d": 15}, "geometry": {"type": "LineString", "coordinates": [[-89.473263, 48.054978], [-89.473501, 48.055287], [-89.473824, 48.055359], [-89.474168, 48.055323], [-89.474217, 48.054927]]}}, {"type": "Feature", "properties": {"d": 15}, "geometry": {"type": "LineString", "coordinates": [[-89.416937, 48.055251], [-89.416776, 48.055039], [-89.416453, 48.054907], [-89.416341, 48.055035], [-89.416455, 48.055359]]}}, {"type": "Feature", "properties": {"d": 15}, "geometry": {"type": "LineString", "coordinates": [[-89.456484, 48.056568], [-89.456839, 48.056792], [-89.457138, 48.056799], [-89.457446, 48.056655], [-89.457517, 48.056475], [-89.45781, 48.056521], [-89.458187, 48.056353], [-89.458258, 48.056259], [-89.457875, 48.055891]]}}, {"type": "Feature", "properties": {"d": 15}, "geometry": {"type": "LineString", "coordinates": [[-89.416643, 48.056655], [-89.416644, 48.057015], [-89.416776, 48.057081], [-89.41695, 48.057051], [-89.417046, 48.056927], [-89.417477, 48.057], [-89.418178, 48.056953], [-89.418249, 48.057087], [-89.418201, 48.057771]]}}, {"type": "Feature", "properties": {"d": 15}, "geometry": {"type": "LineString", "coordinates": [[-89.439454, 48.060846], [-89.439948, 48.061226], [-89.439895, 48.061442], [-89.439983, 48.061694], [-89.439797, 48.062018], [-89.43985, 48.06227], [-89.440005, 48.06245], [-89.440363, 48.06263], [-89.440825, 48.062767], [-89.442658, 48.063006], [-89.443095, 48.062846], [-89.443109, 48.062414]]}}, {"type": "Feature", "properties": {"d": 15}, "geometry": {"type": "LineString", "coordinates": [[-89.446104, 48.06087], [-89.446433, 48.061194], [-89.446559, 48.06101], [-89.446433, 48.060767], [-89.446759, 48.061046], [-89.446918, 48.061072], [-89.447188, 48.060953], [-89.447993, 48.060758], [-89.448266, 48.060594], [-89.44859, 48.060611], [-89.448815, 48.060506], [-89.448859, 48.060387], [-89.449129, 48.060492], [-89.449452, 48.060478], [-89.449668, 48.06038], [-89.450638, 48.060474], [-89.451537, 48.060326], [-89.45258, 48.059956], [-89.452759, 48.059786], [-89.452788, 48.059534], [-89.452449, 48.059354], [-89.452725, 48.059174], [-89.452723, 48.059102], [-89.452256, 48.058829]]}}, {"type": "Feature", "properties": {"d": 15}, "geometry": {"type": "LineString", "coordinates": [[-89.413325, 48.062574], [-89.414565, 48.062496], [-89.416706, 48.062702], [-89.417901, 48.063026], [-89.418994, 48.063458], [-89.41958, 48.063612], [-89.420497, 48.063947], [-89.421791, 48.064538], [-89.422007, 48.06458], [-89.423355, 48.064339], [-89.423516, 48.064176], [-89.423894, 48.064232], [-89.424109, 48.064081], [-89.424271, 48.064144], [-89.424649, 48.064121], [-89.425889, 48.063895], [-89.428855, 48.063551], [-89.429663, 48.063406], [-89.430203, 48.06323], [-89.431928, 48.062941], [-89.432899, 48.062924], [-89.434085, 48.062797], [-89.435163, 48.062571], [-89.436026, 48.062313], [-89.436835, 48.06193], [-89.438237, 48.061427], [-89.438939, 48.061334], [-89.439037, 48.061262], [-89.439039, 48.060902]]}}, {"type": "Feature", "properties": {"d": 15}, "geometry": {"type": "LineString", "coordinates": [[-89.413347, 48.066424], [-89.413694, 48.066086], [-89.413325, 48.066228]]}}, {"type": "Feature", "properties": {"d": 15}, "geometry": {"type": "LineString", "coordinates": [[-89.413325, 48.068546], [-89.413866, 48.068281], [-89.414423, 48.067705], [-89.414619, 48.067345], [-89.414565, 48.067199], [-89.41407, 48.067093], [-89.414289, 48.066913], [-89.414242, 48.066796], [-89.413581, 48.066796]]}}, {"type": "Feature", "properties": {"d": 15}, "geometry": {"type": "LineString", "coordinates": [[-89.434689, 48.070757], [-89.434247, 48.070486], [-89.433815, 48.070499], [-89.4336, 48.070597], [-89.43333, 48.070611], [-89.433222, 48.070699], [-89.432413, 48.070923], [-89.43209, 48.07107], [-89.431497, 48.071184], [-89.429896, 48.071808], [-89.429232, 48.071959], [-89.428747, 48.071974], [-89.427749, 48.072204], [-89.427291, 48.072412], [-89.426967, 48.072675], [-89.425727, 48.072881], [-89.425511, 48.073069], [-89.425242, 48.073013], [-89.424341, 48.073355], [-89.424217, 48.073488], [-89.42357, 48.073467], [-89.42337, 48.073571], [-89.423171, 48.073809]]}}, {"type": "Feature", "properties": {"d": 15}, "geometry": {"type": "LineString", "coordinates": [[-89.414332, 48.071988], [-89.41433, 48.071628], [-89.414242, 48.071566], [-89.41408, 48.071615], [-89.413836, 48.071897]]}}, {"type": "Feature", "properties": {"d": 15}, "geometry": {"type": "LineString", "coordinates": [[-89.415503, 48.072096], [-89.415501, 48.071736], [-89.415428, 48.071684], [-89.415266, 48.071734], [-89.415028, 48.072009]]}}, {"type": "Feature", "properties": {"d": 15}, "geometry": {"type": "LineString", "coordinates": [[-89.418003, 48.072456], [-89.417999, 48.072096], [-89.417909, 48.072052], [-89.417585, 48.072056], [-89.41731, 48.07238]]}}, {"type": "Feature", "properties": {"d": 15}, "geometry": {"type": "LineString", "coordinates": [[-89.418863, 48.072564], [-89.418908, 48.072168], [-89.418771, 48.072091], [-89.418536, 48.072132], [-89.418275, 48.072456]]}}, {"type": "Feature", "properties": {"d": 15}, "geometry": {"type": "LineString", "coordinates": [[-89.420996, 48.073113], [-89.42131, 48.07278], [-89.421252, 48.072727], [-89.421036, 48.072718], [-89.420928, 48.072608], [-89.420766, 48.072642], [-89.420521, 48.07294]]}}, {"type": "Feature", "properties": {"d": 15}, "geometry": {"type": "LineString", "coordinates": [[-89.42783, 48.078401], [-89.428531, 48.078359], [-89.428855, 48.078101], [-89.429012, 48.077818], [-89.429502, 48.077417], [-89.429879, 48.077303], [-89.430203, 48.076982], [-89.430963, 48.076774], [-89.431356, 48.076486], [-89.431474, 48.076342], [-89.431673, 48.075443], [-89.431874, 48.075304], [-89.432252, 48.07523], [-89.432791, 48.075473], [-89.432952, 48.075474], [-89.433137, 48.075371], [-89.433222, 48.075188], [-89.4336, 48.075048], [-89.433869, 48.075023], [-89.434139, 48.074685], [-89.434464, 48.074687], [-89.435864, 48.074161], [-89.43608, 48.074192], [-89.436349, 48.074062], [-89.436781, 48.07404], [-89.436832, 48.073859], [-89.436943, 48.073843], [-89.437104, 48.073937], [-89.437374, 48.073665], [-89.437751, 48.073778], [-89.438183, 48.073613], [-89.438398, 48.07361], [-89.438671, 48.073463], [-89.438776, 48.073311], [-89.438938, 48.073303], [-89.439099, 48.073171], [-89.439321, 48.07314], [-89.439428, 48.07296], [-89.439693, 48.072845], [-89.439771, 48.072672], [-89.439941, 48.0726], [-89.439962, 48.072345], [-89.440232, 48.072288], [-89.440717, 48.072046], [-89.440825, 48.07188], [-89.44105, 48.071808], [-89.441131, 48.071628], [-89.441364, 48.071453], [-89.441742, 48.071468], [-89.442389, 48.071354], [-89.442658, 48.071156], [-89.44309, 48.071095], [-89.443251, 48.070993], [-89.443413, 48.070702], [-89.443575, 48.070669], [-89.443957, 48.070188], [-89.443973, 48.069937], [-89.444499, 48.069469], [-89.444516, 48.069325], [-89.444366, 48.069001], [-89.444599, 48.069003], [-89.444765, 48.068929], [-89.444492, 48.068903], [-89.444461, 48.068605], [-89.444257, 48.068461], [-89.444222, 48.068357], [-89.443952, 48.068256], [-89.443413, 48.068363], [-89.443251, 48.068309], [-89.442936, 48.068353], [-89.442491, 48.068497], [-89.442225, 48.068748]]}}, {"type": "Feature", "properties": {"d": 15}, "geometry": {"type": "LineString", "coordinates": [[-89.427976, 48.080902], [-89.428639, 48.080618], [-89.428477, 48.080554], [-89.42783, 48.080551]]}}, {"type": "Feature", "properties": {"d": 15}, "geometry": {"type": "LineString", "coordinates": [[-89.422681, 48.081092], [-89.422726, 48.081524], [-89.423004, 48.08156], [-89.423355, 48.081426], [-89.423446, 48.081668], [-89.423678, 48.081759], [-89.42384, 48.081743], [-89.424271, 48.081466], [-89.424651, 48.08174], [-89.424864, 48.08178], [-89.425278, 48.08144]]}}, {"type": "Feature", "properties": {"d": 15}, "geometry": {"type": "LineString", "coordinates": [[-89.421346, 48.081092], [-89.421664, 48.081416], [-89.422114, 48.081455], [-89.422447, 48.081308], [-89.422649, 48.081092]]}}, {"type": "Feature", "properties": {"d": 15}, "geometry": {"type": "LineString", "coordinates": [[-89.420286, 48.081233], [-89.420586, 48.081524], [-89.420819, 48.08156], [-89.420895, 48.081488], [-89.420897, 48.081092]]}}, {"type": "Feature", "properties": {"d": 15}, "geometry": {"type": "LineString", "coordinates": [[-89.419448, 48.081344], [-89.419621, 48.08156], [-89.41985, 48.081654], [-89.419922, 48.081596], [-89.419923, 48.081236]]}}, {"type": "Feature", "properties": {"d": 15}, "geometry": {"type": "LineString", "coordinates": [[-89.426428, 48.08192], [-89.426333, 48.082208], [-89.426428, 48.082348], [-89.426914, 48.082064]]}}, {"type": "Feature", "properties": {"d": 15}, "geometry": {"type": "LineString", "coordinates": [[-89.413325, 48.083615], [-89.413807, 48.083395], [-89.414404, 48.082991], [-89.414997, 48.082837], [-89.415105, 48.082664], [-89.415967, 48.082532], [-89.416129, 48.082439], [-89.416884, 48.082428], [-89.417131, 48.08228], [-89.417208, 48.08203], [-89.417404, 48.082244], [-89.417639, 48.082306], [-89.41834, 48.082147], [-89.418448, 48.081735], [-89.418556, 48.08174], [-89.418825, 48.081949], [-89.418812, 48.08156]]}}, {"type": "Feature", "properties": {"d": 20}, "geometry": {"type": "LineString", "coordinates": [[-89.478084, 48.054562], [-89.478731, 48.054635], [-89.478947, 48.054584], [-89.479109, 48.054434], [-89.479132, 48.053991], [-89.478977, 48.053883], [-89.47912, 48.053739], [-89.479102, 48.052983], [-89.479195, 48.052731], [-89.47916, 48.052335], [-89.478906, 48.051651], [-89.477922, 48.050776], [-89.477704, 48.050678], [-89.477329, 48.05065], [-89.476682, 48.050451], [-89.475873, 48.05038], [-89.474903, 48.050423], [-89.474741, 48.050527], [-89.474471, 48.050435], [-89.473231, 48.05052], [-89.47156, 48.050267], [-89.471021, 48.050514], [-89.470913, 48.050135], [-89.469565, 48.049305], [-89.469295, 48.049274], [-89.468791, 48.049442]]}}, {"type": "Feature", "properties": {"d": 20}, "geometry": {"type": "LineString", "coordinates": [[-89.469382, 48.055035], [-89.469664, 48.055359], [-89.469888, 48.055401], [-89.470482, 48.055287], [-89.470499, 48.054927]]}}, {"type": "Feature", "properties": {"d": 20}, "geometry": {"type": "LineString", "coordinates": [[-89.465764, 48.055035], [-89.465766, 48.055431], [-89.465848, 48.055503], [-89.466168, 48.055474], [-89.46639, 48.055575], [-89.466495, 48.055503], [-89.46653, 48.055179]]}}, {"type": "Feature", "properties": {"d": 20}, "geometry": {"type": "LineString", "coordinates": [[-89.451448, 48.059318], [-89.451447, 48.059391], [-89.451593, 48.059534], [-89.451566, 48.059462], [-89.451448, 48.059318]]}}, {"type": "Feature", "properties": {"d": 20}, "geometry": {"type": "LineString", "coordinates": [[-89.450232, 48.059698], [-89.450527, 48.060002], [-89.450746, 48.059968], [-89.450327, 48.059671]]}}, {"type": "Feature", "properties": {"w": 1}, "geometry": {"type": "Polygon", "coordinates": [[[-89.413662, 48.068812], [-89.414282, 48.068542], [-89.414808, 48.068191], [-89.41524, 48.067759], [-89.414916, 48.066949], [-89.413838, 48.065762], [-89.413312, 48.066112], [-89.413339, 48.068002], [-89.413662, 48.068812]]]}}, {"type": "Feature", "properties": {"w": 1}, "geometry": {"type": "Polygon", "coordinates": [[[-89.425498, 48.089718], [-89.426172, 48.08952], [-89.427008, 48.089421], [-89.428005, 48.089421], [-89.428639, 48.08934], [-89.428908, 48.089178], [-89.429839, 48.089053], [-89.431429, 48.088963], [-89.432696, 48.088774], [-89.43364, 48.088486], [-89.434354, 48.088207], [-89.43484, 48.087937], [-89.435622, 48.087649], [-89.4367, 48.087344], [-89.437617, 48.086984], [-89.438372, 48.08657], [-89.439126, 48.086255], [-89.439881, 48.086039], [-89.440865, 48.085563], [-89.442079, 48.084825], [-89.44278, 48.084151], [-89.442968, 48.083539], [-89.443602, 48.083332], [-89.44468, 48.08353], [-89.445449, 48.083908], [-89.445907, 48.084465], [-89.446028, 48.085221], [-89.445813, 48.086174], [-89.445408, 48.086723], [-89.444815, 48.086867], [-89.444505, 48.087164], [-89.444478, 48.087613], [-89.444222, 48.087946], [-89.443737, 48.088162], [-89.443764, 48.088225], [-89.444303, 48.088135], [-89.444667, 48.088018], [-89.444855, 48.087874], [-89.444936, 48.087613], [-89.444909, 48.087236], [-89.445166, 48.087029], [-89.445705, 48.086993], [-89.446096, 48.086381], [-89.446338, 48.085194], [-89.446204, 48.084303], [-89.445691, 48.08371], [-89.44495, 48.083296], [-89.443979, 48.083062], [-89.443197, 48.082729], [-89.442604, 48.082298], [-89.442052, 48.081236], [-89.441539, 48.079545], [-89.44158, 48.0786], [-89.442173, 48.078402], [-89.442443, 48.078241], [-89.442389, 48.078115], [-89.441863, 48.077998], [-89.440865, 48.07789], [-89.439315, 48.078061], [-89.437212, 48.07851], [-89.435864, 48.078915], [-89.435271, 48.079275], [-89.434664, 48.079527], [-89.434044, 48.079671], [-89.433101, 48.079851], [-89.431834, 48.080067], [-89.431092, 48.080166], [-89.430877, 48.080148], [-89.430782, 48.080067], [-89.430809, 48.079923], [-89.431712, 48.079437], [-89.433492, 48.078609], [-89.434759, 48.078151], [-89.435514, 48.078061], [-89.436242, 48.077908], [-89.436943, 48.077692], [-89.437954, 48.07726], [-89.439275, 48.076612], [-89.44096, 48.075937], [-89.443009, 48.075236], [-89.444936, 48.074417], [-89.446743, 48.073481], [-89.44801, 48.073005], [-89.448738, 48.072987], [-89.449654, 48.072501], [-89.45076, 48.071547], [-89.45231, 48.070593], [-89.454305, 48.06964], [-89.455842, 48.069037], [-89.45692, 48.068785], [-89.457716, 48.068542], [-89.458228, 48.068308], [-89.459562, 48.06811], [-89.461719, 48.067948], [-89.463579, 48.06748], [-89.465143, 48.066706], [-89.466437, 48.066283], [-89.467462, 48.066211], [-89.468163, 48.066068], [-89.46854, 48.065852], [-89.468783, 48.065591], [-89.468891, 48.065285], [-89.468756, 48.0647], [-89.468378, 48.063836], [-89.467974, 48.063341], [-89.467543, 48.063215], [-89.466815, 48.063143], [-89.46579, 48.063125], [-89.464523, 48.063008], [-89.463013, 48.062792], [-89.461382, 48.0629], [-89.45963, 48.063332], [-89.456705, 48.063692], [-89.452607, 48.06398], [-89.450045, 48.06434], [-89.449021, 48.064772], [-89.448131, 48.06506], [-89.447376, 48.065204], [-89.445624, 48.065285], [-89.442874, 48.065303], [-89.441027, 48.065447], [-89.440084, 48.065717], [-89.439369, 48.066005], [-89.438884, 48.06631], [-89.43883, 48.067057], [-89.439207, 48.068245], [-89.439153, 48.068992], [-89.438668, 48.069298], [-89.437981, 48.06955], [-89.437091, 48.069748], [-89.436282, 48.069838], [-89.435554, 48.06982], [-89.434638, 48.069703], [-89.433532, 48.069487], [-89.432454, 48.069433], [-89.431402, 48.069541], [-89.429529, 48.070009], [-89.426832, 48.070836], [-89.425377, 48.071349], [-89.425161, 48.071547], [-89.425067, 48.071799], [-89.425094, 48.072105], [-89.424757, 48.072366], [-89.424056, 48.072582], [-89.423409, 48.072681], [-89.422815, 48.072663], [-89.422236, 48.072537], [-89.42167, 48.072303], [-89.421144, 48.072186], [-89.420659, 48.072186], [-89.42016, 48.072033], [-89.419648, 48.071727], [-89.417868, 48.071466], [-89.414822, 48.07125], [-89.413298, 48.074453], [-89.413298, 48.081074], [-89.41377, 48.084267], [-89.414714, 48.084034], [-89.415469, 48.083755], [-89.416035, 48.083431], [-89.417585, 48.08299], [-89.420119, 48.082432], [-89.421804, 48.082271], [-89.42264, 48.082504], [-89.422937, 48.0829], [-89.422694, 48.083458], [-89.422303, 48.083845], [-89.421764, 48.084061], [-89.421036, 48.084249], [-89.420119, 48.084411], [-89.419243, 48.08478], [-89.418407, 48.085356], [-89.418111, 48.085958], [-89.418353, 48.086588], [-89.419081, 48.08738], [-89.420295, 48.088333], [-89.421279, 48.08899], [-89.422034, 48.089349], [-89.423098, 48.089601], [-89.424473, 48.089745], [-89.425498, 48.089718]], [[-89.440798, 48.081335], [-89.440582, 48.081281], [-89.440528, 48.081056], [-89.440636, 48.08066], [-89.440731, 48.080489], [-89.440811, 48.080543], [-89.440865, 48.080768], [-89.440892, 48.081164], [-89.440798, 48.081335]], [[-89.439517, 48.080759], [-89.439329, 48.080633], [-89.439261, 48.080498], [-89.439315, 48.080355], [-89.43945, 48.080391], [-89.439666, 48.080606], [-89.439733, 48.080741], [-89.439652, 48.080795], [-89.439517, 48.080759]], [[-89.440124, 48.080355], [-89.439962, 48.080355], [-89.439908, 48.080301], [-89.439962, 48.080193], [-89.44003, 48.080139], [-89.44011, 48.080139], [-89.440164, 48.080193], [-89.440191, 48.080301], [-89.440124, 48.080355]]]}}, {"type": "Feature", "properties": {"w": 1}, "geometry": {"type": "Polygon", "coordinates": [[[-89.478232, 48.062891], [-89.478367, 48.062657], [-89.478408, 48.062252], [-89.478354, 48.061676], [-89.478542, 48.061208], [-89.478974, 48.060848], [-89.478529, 48.060614], [-89.477208, 48.060506], [-89.476844, 48.060821], [-89.477437, 48.061559], [-89.477747, 48.062162], [-89.477774, 48.06263], [-89.477882, 48.0629], [-89.478071, 48.062972], [-89.478232, 48.062891]]]}}, {"type": "Feature", "properties": {"w": 1}, "geometry": {"type": "Polygon", "coordinates": [[[-89.423948, 48.065537], [-89.425835, 48.065123], [-89.427264, 48.064889], [-89.428234, 48.064835], [-89.42907, 48.064682], [-89.429771, 48.06443], [-89.430755, 48.064205], [-89.432022, 48.064007], [-89.432979, 48.063782], [-89.433626, 48.06353], [-89.434247, 48.063395], [-89.43484, 48.063377], [-89.435285, 48.063233], [-89.435581, 48.062963], [-89.436282, 48.062594], [-89.437387, 48.062126], [-89.438102, 48.061919], [-89.438425, 48.061973], [-89.438587, 48.062063], [-89.438587, 48.062189], [-89.438385, 48.06236], [-89.437981, 48.062576], [-89.437873, 48.062855], [-89.438061, 48.063197], [-89.438452, 48.063422], [-89.439046, 48.06353], [-89.439409, 48.063674], [-89.439544, 48.063854], [-89.440137, 48.063953], [-89.441189, 48.063971], [-89.442146, 48.0638], [-89.443009, 48.06344], [-89.443561, 48.063116], [-89.443804, 48.062828], [-89.444384, 48.062549], [-89.4453, 48.062279], [-89.446109, 48.061973], [-89.44681, 48.061631], [-89.447996, 48.061433], [-89.449668, 48.061379], [-89.451299, 48.06119], [-89.45289, 48.060866], [-89.453874, 48.060542], [-89.454251, 48.060218], [-89.45448, 48.059894], [-89.454561, 48.05957], [-89.454548, 48.059318], [-89.45444, 48.059138], [-89.454143, 48.059102], [-89.453658, 48.05921], [-89.453361, 48.05921], [-89.453254, 48.059102], [-89.453442, 48.058896], [-89.453928, 48.05859], [-89.454952, 48.058131], [-89.456516, 48.057519], [-89.457958, 48.056826], [-89.459279, 48.056052], [-89.460331, 48.055629], [-89.461113, 48.055557], [-89.46176, 48.05562], [-89.462272, 48.055818], [-89.462595, 48.05607], [-89.46273, 48.056376], [-89.462932, 48.056628], [-89.463202, 48.056826], [-89.463431, 48.056925], [-89.46362, 48.056925], [-89.464159, 48.056871], [-89.465049, 48.056763], [-89.465898, 48.056565], [-89.466707, 48.056277], [-89.467988, 48.056034], [-89.46974, 48.055836], [-89.472301, 48.055656], [-89.475671, 48.055494], [-89.478219, 48.055152], [-89.479944, 48.05463], [-89.480915, 48.054153], [-89.481131, 48.053721], [-89.481252, 48.0531], [-89.481279, 48.05229], [-89.481131, 48.051858], [-89.480807, 48.051804], [-89.480268, 48.05138], [-89.479513, 48.050588], [-89.478974, 48.050138], [-89.47865, 48.05003], [-89.477505, 48.049904], [-89.475536, 48.04976], [-89.474175, 48.049499], [-89.47342, 48.049121], [-89.472422, 48.048788], [-89.471182, 48.0485], [-89.470252, 48.04823], [-89.469632, 48.047978], [-89.455316, 48.047852], [-89.427304, 48.047852], [-89.413298, 48.050354], [-89.413298, 48.055359], [-89.413959, 48.057726], [-89.41528, 48.057456], [-89.416089, 48.057384], [-89.416385, 48.05751], [-89.416331, 48.057627], [-89.415927, 48.057735], [-89.415603, 48.057906], [-89.415361, 48.05814], [-89.414754, 48.058383], [-89.413784, 48.058635], [-89.413298, 48.059966], [-89.413298, 48.062378], [-89.413622, 48.063584], [-89.414269, 48.063584], [-89.415293, 48.063845], [-89.416695, 48.064367], [-89.418124, 48.064826], [-89.41958, 48.065222], [-89.420982, 48.065501], [-89.42233, 48.065663], [-89.423948, 48.065537]], [[-89.413797, 48.055377], [-89.413608, 48.055305], [-89.413528, 48.055161], [-89.413554, 48.054945], [-89.414431, 48.054585], [-89.416156, 48.054081], [-89.417073, 48.053928], [-89.417181, 48.054126], [-89.4171, 48.054306], [-89.41683, 48.054468], [-89.415994, 48.054765], [-89.414592, 48.055197], [-89.413797, 48.055377]]]}}]}