{"type": "FeatureCollection", "features": [{"type": "Feature", "properties": {"d": 2}, "geometry": {"type": "LineString", "coordinates": [[-89.036179, 48.489531], [-89.036425, 48.489604], [-89.036463, 48.489747], [-89.035963, 48.490047], [-89.035424, 48.490047], [-89.035208, 48.490136], [-89.034939, 48.490151], [-89.034165, 48.489997], [-89.035208, 48.489535], [-89.036179, 48.489531]]}}, {"type": "Feature", "properties": {"d": 2}, "geometry": {"type": "LineString", "coordinates": [[-89.042164, 48.491632], [-89.04234, 48.49171], [-89.042398, 48.491853], [-89.042325, 48.492389], [-89.042163, 48.492531], [-89.041463, 48.492485], [-89.04119, 48.492567], [-89.040547, 48.492532], [-89.039846, 48.49235], [-89.039576, 48.492402], [-89.039468, 48.492302], [-89.03945, 48.492067], [-89.039576, 48.491989], [-89.040061, 48.491918], [-89.040493, 48.492023], [-89.040978, 48.491998], [-89.041409, 48.492087], [-89.041948, 48.491646], [-89.042164, 48.491632]]}}, {"type": "Feature", "properties": {"d": 2}, "geometry": {"type": "LineString", "coordinates": [[-88.992028, 48.499955], [-88.992287, 48.499764], [-88.992563, 48.49967], [-88.992827, 48.499453], [-88.99315, 48.499434], [-88.993366, 48.49929], [-88.993582, 48.499301], [-88.994121, 48.499574], [-88.99439, 48.499426], [-88.994726, 48.499455], [-88.994714, 48.499535], [-88.99455, 48.499527], [-88.994582, 48.499777], [-88.994472, 48.499919], [-88.994123, 48.500026], [-88.994059, 48.500134], [-88.993635, 48.500392], [-88.993474, 48.500423], [-88.993349, 48.500348]]}}, {"type": "Feature", "properties": {"d": 2}, "geometry": {"type": "LineString", "coordinates": [[-89.032823, 48.500142], [-89.032823, 48.499955], [-89.032998, 48.499884], [-89.034184, 48.499882], [-89.035424, 48.499783], [-89.036125, 48.499659], [-89.036556, 48.499476], [-89.036934, 48.499397], [-89.038605, 48.499248], [-89.040385, 48.499173], [-89.041247, 48.498985], [-89.042973, 48.498801], [-89.044213, 48.498503], [-89.044927, 48.498456], [-89.045669, 48.498038], [-89.046262, 48.497935], [-89.046424, 48.497792], [-89.047071, 48.497591], [-89.047394, 48.49757], [-89.047542, 48.497385], [-89.048095, 48.497086], [-89.048311, 48.497113], [-89.048522, 48.497243], [-89.048689, 48.497244], [-89.04892, 48.497064], [-89.049821, 48.496862], [-89.050354, 48.496565], [-89.051169, 48.496427], [-89.051322, 48.496172], [-89.051807, 48.496065], [-89.052086, 48.495812], [-89.053434, 48.495492], [-89.054973, 48.494958], [-89.055752, 48.494627], [-89.056359, 48.49428], [-89.057036, 48.493709], [-89.057565, 48.492781], [-89.057637, 48.492246], [-89.057478, 48.49192], [-89.056615, 48.491449], [-89.056299, 48.490925], [-89.056321, 48.490425], [-89.056507, 48.490142], [-89.056831, 48.489952], [-89.057791, 48.489569], [-89.058394, 48.489401], [-89.059742, 48.489415], [-89.060497, 48.489506], [-89.061414, 48.489528], [-89.062762, 48.489696]]}}, {"type": "Feature", "properties": {"d": 2}, "geometry": {"type": "LineString", "coordinates": [[-88.993249, 48.500353], [-88.993248, 48.50049], [-88.992327, 48.500776], [-88.991425, 48.501137], [-88.99067, 48.501551], [-88.989537, 48.502047], [-88.988669, 48.502596], [-88.987767, 48.503345], [-88.987327, 48.503566]]}}, {"type": "Feature", "properties": {"d": 2}, "geometry": {"type": "LineString", "coordinates": [[-88.987327, 48.501678], [-88.987704, 48.501301], [-88.989214, 48.500906], [-88.989969, 48.500548], [-88.990688, 48.500312], [-88.991124, 48.500062], [-88.991846, 48.500033]]}}, {"type": "Feature", "properties": {"d": 2}, "geometry": {"type": "LineString", "coordinates": [[-88.987327, 48.508947], [-88.987812, 48.509156], [-88.989537, 48.510256], [-88.991358, 48.511124], [-88.991964, 48.511347], [-88.992879, 48.511588], [-88.994962, 48.512266], [-88.996493, 48.51266], [-88.996871, 48.512666], [-88.997248, 48.512604], [-88.99768, 48.51244], [-88.998219, 48.512422], [-88.998542, 48.51231], [-88.999028, 48.51192], [-88.999675, 48.511793], [-88.99993, 48.511659], [-89.000112, 48.511231], [-89.000591, 48.511227], [-89.001238, 48.511064], [-89.001505, 48.510946], [-89.001993, 48.510485], [-89.003233, 48.509938], [-89.003916, 48.509875], [-89.004797, 48.509569], [-89.005121, 48.509386], [-89.005514, 48.509304], [-89.006199, 48.509045], [-89.007223, 48.508405], [-89.008571, 48.507723], [-89.010243, 48.506699], [-89.011052, 48.506361], [-89.011321, 48.506135], [-89.013532, 48.505461], [-89.014287, 48.505094], [-89.014562, 48.504844], [-89.014988, 48.504614], [-89.015689, 48.504498], [-89.01666, 48.504113], [-89.017576, 48.503877], [-89.0179, 48.503669], [-89.018329, 48.503595], [-89.018601, 48.503472], [-89.018924, 48.503574], [-89.020272, 48.503542], [-89.021027, 48.503345], [-89.021146, 48.503274], [-89.021135, 48.50318], [-89.021027, 48.503082], [-89.020704, 48.503001], [-89.020692, 48.502881], [-89.021772, 48.502489], [-89.022052, 48.502245], [-89.022861, 48.502145], [-89.023238, 48.501977], [-89.023615, 48.50204], [-89.023831, 48.501937], [-89.024262, 48.502019], [-89.024536, 48.501811], [-89.025062, 48.501668], [-89.025256, 48.501383], [-89.025449, 48.501261], [-89.025826, 48.501214], [-89.026311, 48.501272], [-89.027064, 48.501097], [-89.027336, 48.500765], [-89.027875, 48.50049], [-89.028576, 48.500486], [-89.029223, 48.500203], [-89.029601, 48.500324], [-89.029924, 48.500347], [-89.030625, 48.500207], [-89.030789, 48.500098], [-89.031164, 48.500014], [-89.031542, 48.500085], [-89.031903, 48.500287]]}}, {"type": "Feature", "properties": {"d": 4}, "geometry": {"type": "LineString", "coordinates": [[-89.057262, 48.489234], [-89.057387, 48.489355], [-89.057208, 48.48941], [-89.057097, 48.489283], [-89.057154, 48.489224], [-89.057262, 48.489234]]}}, {"type": "Feature", "properties": {"d": 4}, "geometry": {"type": "LineString", "coordinates": [[-89.036449, 48.489418], [-89.036826, 48.489509], [-89.036852, 48.489569], [-89.036598, 48.489819], [-89.036017, 48.490095], [-89.034939, 48.490196], [-89.034238, 48.490095], [-89.033964, 48.489997], [-89.033968, 48.489842], [-89.035208, 48.489436], [-89.036449, 48.489418]]}}, {"type": "Feature", "properties": {"d": 4}, "geometry": {"type": "LineString", "coordinates": [[-89.041948, 48.491493], [-89.042542, 48.491624], [-89.042803, 48.491782], [-89.042791, 48.492067], [-89.042945, 48.492353], [-89.042865, 48.492476], [-89.042272, 48.492642], [-89.041355, 48.492679], [-89.040061, 48.492521], [-89.039899, 48.492542], [-89.039786, 48.492424], [-89.039576, 48.492464], [-89.039466, 48.492424], [-89.039288, 48.49196], [-89.039576, 48.491669], [-89.039899, 48.491634], [-89.040385, 48.491768], [-89.041247, 48.491782], [-89.041726, 48.491532], [-89.041948, 48.491493]]}}, {"type": "Feature", "properties": {"d": 4}, "geometry": {"type": "LineString", "coordinates": [[-88.987327, 48.501196], [-88.988998, 48.500733], [-88.989861, 48.500404], [-88.990464, 48.500062], [-88.991001, 48.499991], [-88.991209, 48.499884], [-88.991586, 48.499821], [-88.991889, 48.499562], [-88.99218, 48.499418], [-88.993204, 48.499131], [-88.993582, 48.499109], [-88.994067, 48.499274], [-88.994294, 48.499134], [-88.994876, 48.498986], [-88.995127, 48.499134], [-88.994986, 48.499634], [-88.994647, 48.499955], [-88.994308, 48.500026], [-88.993962, 48.500312], [-88.993717, 48.500419], [-88.992503, 48.500794], [-88.991425, 48.501211], [-88.990724, 48.501591], [-88.990077, 48.501843], [-88.989052, 48.502483], [-88.987826, 48.503381], [-88.987327, 48.50363]]}}, {"type": "Feature", "properties": {"d": 4}, "geometry": {"type": "LineString", "coordinates": [[-88.987327, 48.508043], [-88.988245, 48.508734], [-88.988836, 48.509054], [-88.98943, 48.5095], [-88.990513, 48.510089], [-88.992018, 48.510659], [-88.99493, 48.511524], [-88.995408, 48.511588], [-88.995792, 48.511793], [-88.996493, 48.511949], [-88.99714, 48.51198], [-88.998273, 48.51185], [-88.999606, 48.51141], [-88.999836, 48.511282], [-88.999998, 48.510971], [-89.000214, 48.510853], [-89.000429, 48.5108], [-89.000753, 48.510846], [-89.001346, 48.510674], [-89.001777, 48.510319], [-89.00264, 48.509966], [-89.003125, 48.509658], [-89.004042, 48.509531], [-89.005013, 48.509138], [-89.005825, 48.508912], [-89.006119, 48.508769], [-89.006523, 48.508435], [-89.008302, 48.507613], [-89.008949, 48.507163], [-89.009377, 48.506985], [-89.00965, 48.506733], [-89.010513, 48.506209], [-89.01089, 48.506121], [-89.011214, 48.505959], [-89.01201, 48.505701], [-89.012413, 48.505629], [-89.012939, 48.505291], [-89.013399, 48.505201], [-89.014611, 48.504448], [-89.015042, 48.504298], [-89.015527, 48.504268], [-89.015905, 48.504155], [-89.018277, 48.50316], [-89.01887, 48.502999], [-89.019463, 48.502921], [-89.019733, 48.502767], [-89.020134, 48.502667], [-89.02065, 48.502362], [-89.021084, 48.502203], [-89.021351, 48.50177], [-89.021944, 48.501703], [-89.022699, 48.501843], [-89.023022, 48.501672], [-89.023454, 48.50156], [-89.023993, 48.501595], [-89.024586, 48.501545], [-89.024886, 48.501311], [-89.025017, 48.501055], [-89.025503, 48.501028], [-89.025826, 48.500943], [-89.026204, 48.500992], [-89.026473, 48.500937], [-89.026585, 48.500883], [-89.026797, 48.500516], [-89.027336, 48.50035], [-89.027552, 48.500387], [-89.028522, 48.500062], [-89.030722, 48.499919], [-89.031341, 48.499812], [-89.031704, 48.49964], [-89.032297, 48.499676], [-89.033213, 48.499549], [-89.035424, 48.499448], [-89.037743, 48.498911], [-89.038174, 48.498917], [-89.040247, 48.49867], [-89.041679, 48.498281], [-89.042757, 48.497632], [-89.042973, 48.497671], [-89.043404, 48.497912], [-89.044483, 48.49795], [-89.045345, 48.497633], [-89.046087, 48.497635], [-89.046316, 48.497524], [-89.046485, 48.497278], [-89.046693, 48.497141], [-89.047071, 48.497182], [-89.047988, 48.496893], [-89.048473, 48.496869], [-89.050252, 48.496351], [-89.05049, 48.496208], [-89.050471, 48.496029], [-89.050576, 48.495943], [-89.051439, 48.495781], [-89.052355, 48.495309], [-89.054135, 48.494599], [-89.054533, 48.494387], [-89.054972, 48.494031], [-89.055752, 48.493066], [-89.056029, 48.492567], [-89.055993, 48.490354], [-89.056321, 48.489961], [-89.057208, 48.489633], [-89.057869, 48.489283], [-89.058125, 48.489227], [-89.061144, 48.488993], [-89.062762, 48.489066]]}}, {"type": "Feature", "properties": {"d": 6}, "geometry": {"type": "LineString", "coordinates": [[-89.03715, 48.48921], [-89.037414, 48.489355], [-89.037289, 48.489569], [-89.036071, 48.490157], [-89.035101, 48.490243], [-89.034346, 48.490169], [-89.03396, 48.490069], [-89.033709, 48.489819], [-89.033752, 48.489732], [-89.034777, 48.489499], [-89.035262, 48.489268], [-89.036233, 48.489225], [-89.036718, 48.48926], [-89.03715, 48.48921]]}}, {"type": "Feature", "properties": {"d": 6}, "geometry": {"type": "LineString", "coordinates": [[-89.040924, 48.491139], [-89.041139, 48.491246], [-89.041247, 48.491483], [-89.041625, 48.491378], [-89.042272, 48.491414], [-89.043341, 48.491746], [-89.043143, 48.491996], [-89.043101, 48.492531], [-89.042345, 48.493031], [-89.042056, 48.49305], [-89.041733, 48.492846], [-89.041301, 48.49283], [-89.040816, 48.492682], [-89.039846, 48.492585], [-89.039403, 48.492424], [-89.039184, 48.491996], [-89.039414, 48.491573], [-89.040277, 48.491251], [-89.0406, 48.491242], [-89.040924, 48.491139]]}}, {"type": "Feature", "properties": {"d": 6}, "geometry": {"type": "LineString", "coordinates": [[-89.041733, 48.494777], [-89.041702, 48.494958], [-89.041409, 48.495077], [-89.040978, 48.495058], [-89.040779, 48.494958], [-89.041086, 48.49481], [-89.041733, 48.494777]]}}, {"type": "Feature", "properties": {"d": 6}, "geometry": {"type": "LineString", "coordinates": [[-89.003018, 48.497593], [-89.002946, 48.497742], [-89.002688, 48.497742], [-89.002802, 48.497599], [-89.003018, 48.497593]]}}, {"type": "Feature", "properties": {"d": 6}, "geometry": {"type": "LineString", "coordinates": [[-88.994444, 48.498411], [-88.994609, 48.498563], [-88.994526, 48.498706], [-88.994121, 48.498699], [-88.994067, 48.498549], [-88.994444, 48.498411]]}}, {"type": "Feature", "properties": {"d": 6}, "geometry": {"type": "LineString", "coordinates": [[-88.987327, 48.500973], [-88.988836, 48.500552], [-88.98943, 48.500301], [-88.989742, 48.500062], [-88.990832, 48.499876], [-88.991155, 48.499611], [-88.99218, 48.499184], [-88.993204, 48.498968], [-88.993959, 48.498946], [-88.994743, 48.498813], [-88.995094, 48.498599], [-88.994846, 48.498456], [-88.994806, 48.498206], [-88.995145, 48.497993], [-88.995423, 48.498028], [-88.995551, 48.498278], [-88.995523, 48.498456], [-88.995754, 48.498563], [-88.99589, 48.498777], [-88.99481, 48.499955], [-88.994397, 48.500062], [-88.994123, 48.500312], [-88.993635, 48.500512], [-88.991425, 48.501269], [-88.990724, 48.501658], [-88.990077, 48.501913], [-88.989537, 48.502262], [-88.988998, 48.502736], [-88.987327, 48.503705]]}}, {"type": "Feature", "properties": {"d": 6}, "geometry": {"type": "LineString", "coordinates": [[-88.987327, 48.506458], [-88.988373, 48.5067], [-88.988612, 48.506807], [-88.989782, 48.507627], [-88.990414, 48.508198], [-88.990993, 48.50856], [-88.991284, 48.508841], [-88.992018, 48.509002], [-88.99218, 48.509258], [-88.992611, 48.509239], [-88.992773, 48.509519], [-88.992979, 48.509626], [-88.993905, 48.509579], [-88.994044, 48.509875], [-88.994229, 48.509956], [-88.994541, 48.509947], [-88.994892, 48.50984], [-88.994876, 48.510139], [-88.995199, 48.510241], [-88.995792, 48.510274], [-88.996925, 48.510069], [-88.997194, 48.510095], [-88.997572, 48.510044], [-88.998488, 48.509792], [-88.999081, 48.509694], [-89.000106, 48.509229], [-89.001939, 48.508911], [-89.003125, 48.508776], [-89.005067, 48.507859], [-89.006361, 48.507575], [-89.007432, 48.506807], [-89.008464, 48.506251], [-89.00938, 48.505843], [-89.009758, 48.505742], [-89.010065, 48.505558], [-89.010567, 48.505426], [-89.011537, 48.50497], [-89.012508, 48.504646], [-89.012943, 48.504237], [-89.013317, 48.50421], [-89.014772, 48.503724], [-89.015204, 48.503673], [-89.016228, 48.503311], [-89.016606, 48.503264], [-89.018331, 48.502767], [-89.019463, 48.502279], [-89.020003, 48.50211], [-89.020812, 48.501567], [-89.0216, 48.501383], [-89.022375, 48.501311], [-89.023184, 48.501159], [-89.023515, 48.501061], [-89.023541, 48.500954], [-89.023777, 48.500787], [-89.024209, 48.50088], [-89.024909, 48.50066], [-89.025888, 48.50049], [-89.026257, 48.500312], [-89.026606, 48.500026], [-89.027444, 48.499875], [-89.02836, 48.499532], [-89.029708, 48.499368], [-89.031488, 48.498958], [-89.033213, 48.498789], [-89.03413, 48.498585], [-89.034291, 48.498492], [-89.03455, 48.498171], [-89.035184, 48.497742], [-89.035428, 48.49735], [-89.037527, 48.496938], [-89.037682, 48.49685], [-89.037743, 48.496692], [-89.037958, 48.496584], [-89.038144, 48.496636], [-89.038152, 48.496921], [-89.03839, 48.497009], [-89.039414, 48.496962], [-89.039864, 48.496707], [-89.039826, 48.4966], [-89.039938, 48.496386], [-89.039899, 48.496339], [-89.039198, 48.496252], [-89.038984, 48.496136], [-89.039024, 48.495922], [-89.039468, 48.495642], [-89.039792, 48.495652], [-89.039981, 48.495744], [-89.040062, 48.495886], [-89.039962, 48.496315], [-89.040169, 48.496294], [-89.040385, 48.496635], [-89.040547, 48.496551], [-89.042649, 48.496322], [-89.043135, 48.496404], [-89.043318, 48.496243], [-89.04389, 48.496111], [-89.044537, 48.496203], [-89.044698, 48.495965], [-89.046046, 48.496301], [-89.046262, 48.496241], [-89.046693, 48.496296], [-89.047556, 48.496292], [-89.048354, 48.496101], [-89.050037, 48.495478], [-89.051115, 48.494931], [-89.0516, 48.494546], [-89.052272, 48.493888], [-89.052679, 48.493197], [-89.053164, 48.492838], [-89.053415, 48.492531], [-89.053674, 48.49196], [-89.054252, 48.491104], [-89.055518, 48.489961], [-89.056723, 48.489426], [-89.056842, 48.489176], [-89.058071, 48.488885], [-89.059365, 48.488663], [-89.061306, 48.488535], [-89.062762, 48.488573]]}}, {"type": "Feature", "properties": {"d": 8}, "geometry": {"type": "LineString", "coordinates": [[-89.036179, 48.489069], [-89.036664, 48.489147], [-89.03715, 48.489112], [-89.037904, 48.489176], [-89.03808, 48.489212], [-89.038158, 48.489319], [-89.036125, 48.490267], [-89.034831, 48.490308], [-89.033968, 48.49011], [-89.033656, 48.48989], [-89.033598, 48.489712], [-89.033699, 48.489605], [-89.034723, 48.489433], [-89.035208, 48.489174], [-89.036179, 48.489069]]}}, {"type": "Feature", "properties": {"d": 8}, "geometry": {"type": "LineString", "coordinates": [[-89.003018, 48.497278], [-89.003214, 48.497421], [-89.003257, 48.497707], [-89.002915, 48.497921], [-89.00264, 48.497935], [-89.00248, 48.497778], [-89.002474, 48.497635], [-89.002802, 48.49728], [-89.003018, 48.497278]]}}, {"type": "Feature", "properties": {"d": 8}, "geometry": {"type": "LineString", "coordinates": [[-88.987327, 48.500699], [-88.988567, 48.500443], [-88.988836, 48.500312], [-88.989038, 48.500062], [-88.989699, 48.499908], [-88.990135, 48.499741], [-88.991101, 48.499256], [-88.992167, 48.498849], [-88.993474, 48.498585], [-88.993851, 48.498339], [-88.994983, 48.497835], [-88.995307, 48.497788], [-88.995626, 48.497849], [-88.996144, 48.498313], [-88.996002, 48.498884], [-88.995368, 48.499634], [-88.994965, 48.499955], [-88.994616, 48.500062], [-88.994121, 48.500409], [-88.991433, 48.501347], [-88.990047, 48.502025], [-88.989376, 48.502703], [-88.988365, 48.503203], [-88.987327, 48.503859]]}}, {"type": "Feature", "properties": {"d": 8}, "geometry": {"type": "LineString", "coordinates": [[-88.987327, 48.50603], [-88.988944, 48.505729], [-88.990185, 48.505892], [-88.992018, 48.506688], [-88.992557, 48.506729], [-88.993366, 48.506664], [-88.993743, 48.506713], [-88.993975, 48.506842], [-88.994149, 48.507128], [-88.99439, 48.507327], [-88.995091, 48.507605], [-88.995954, 48.507805], [-88.998488, 48.507987], [-89.000439, 48.507806], [-89.001292, 48.507372], [-89.002317, 48.507079], [-89.003341, 48.506499], [-89.006792, 48.505789], [-89.008571, 48.505181], [-89.011537, 48.503717], [-89.012346, 48.50341], [-89.013263, 48.502944], [-89.014179, 48.50267], [-89.014849, 48.502346], [-89.01612, 48.501603], [-89.016552, 48.501238], [-89.017037, 48.500998], [-89.017135, 48.501026], [-89.017147, 48.501097], [-89.016875, 48.50149], [-89.016929, 48.501597], [-89.017143, 48.501525], [-89.017499, 48.501026], [-89.018115, 48.500698], [-89.020003, 48.500279], [-89.020353, 48.500062], [-89.021027, 48.499933], [-89.02216, 48.499502], [-89.023238, 48.499173], [-89.0234, 48.499148], [-89.023723, 48.499242], [-89.023939, 48.499125], [-89.024078, 48.499277], [-89.024262, 48.499349], [-89.024424, 48.499318], [-89.024531, 48.499241], [-89.024212, 48.498991], [-89.024332, 48.498849], [-89.024532, 48.498762], [-89.026905, 48.498332], [-89.027066, 48.498339], [-89.027552, 48.498535], [-89.028091, 48.498358], [-89.028199, 48.498133], [-89.029018, 48.497849], [-89.029762, 48.497767], [-89.030194, 48.497632], [-89.031164, 48.497454], [-89.032081, 48.497105], [-89.033806, 48.496807], [-89.035234, 48.496672], [-89.036183, 48.49635], [-89.036584, 48.495958], [-89.03715, 48.495799], [-89.037786, 48.495494], [-89.037743, 48.495408], [-89.037311, 48.495475], [-89.03716, 48.495387], [-89.037099, 48.495208], [-89.037434, 48.494923], [-89.037635, 48.49486], [-89.038012, 48.494926], [-89.038315, 48.494851], [-89.039156, 48.49428], [-89.039993, 48.493602], [-89.040385, 48.493427], [-89.041194, 48.493335], [-89.041523, 48.49321], [-89.041409, 48.493047], [-89.040989, 48.492995], [-89.040708, 48.492836], [-89.039522, 48.492573], [-89.039339, 48.49246], [-89.039132, 48.492103], [-89.039119, 48.491925], [-89.03936, 48.491473], [-89.040493, 48.490974], [-89.040924, 48.490961], [-89.041205, 48.491032], [-89.041463, 48.491179], [-89.042488, 48.491286], [-89.043081, 48.491455], [-89.043512, 48.491511], [-89.043728, 48.491645], [-89.043988, 48.49171], [-89.044198, 48.492032], [-89.043848, 48.492282], [-89.043892, 48.492746], [-89.043698, 48.493424], [-89.043779, 48.493674], [-89.044105, 48.49379], [-89.045238, 48.493769], [-89.045287, 48.493888], [-89.045184, 48.493944], [-89.044283, 48.494066], [-89.044269, 48.494245], [-89.04486, 48.494679], [-89.045184, 48.494732], [-89.045723, 48.494713], [-89.046262, 48.494601], [-89.047519, 48.493923], [-89.047678, 48.493674], [-89.047281, 48.493495], [-89.047287, 48.493433], [-89.047448, 48.49344], [-89.048042, 48.493148], [-89.048635, 48.493007], [-89.051115, 48.491984], [-89.051735, 48.491496], [-89.052434, 48.491211], [-89.053703, 48.490318], [-89.054455, 48.48989], [-89.055494, 48.489462], [-89.05613, 48.489087], [-89.057868, 48.488641], [-89.058987, 48.488453], [-89.060443, 48.488337], [-89.062762, 48.488283]]}}, {"type": "Feature", "properties": {"d": 10}, "geometry": {"type": "LineString", "coordinates": [[-89.036395, 48.488993], [-89.036718, 48.48906], [-89.037311, 48.489029], [-89.038029, 48.489105], [-89.03826, 48.489176], [-89.038304, 48.489355], [-89.03688, 48.490185], [-89.036125, 48.490431], [-89.034939, 48.490456], [-89.034453, 48.490359], [-89.033806, 48.490097], [-89.033507, 48.489783], [-89.03346, 48.489569], [-89.033541, 48.489462], [-89.034615, 48.489358], [-89.03537, 48.489066], [-89.035909, 48.488987], [-89.036395, 48.488993]]}}, {"type": "Feature", "properties": {"d": 10}, "geometry": {"type": "LineString", "coordinates": [[-89.004898, 48.494316], [-89.004919, 48.493816], [-89.005228, 48.493722], [-89.005444, 48.493761], [-89.005613, 48.493888], [-89.005629, 48.494316]]}}, {"type": "Feature", "properties": {"d": 10}, "geometry": {"type": "LineString", "coordinates": [[-89.00291, 48.497097], [-89.003072, 48.497145], [-89.003305, 48.49735], [-89.003398, 48.497707], [-89.003179, 48.497924], [-89.00291, 48.498015], [-89.00264, 48.498031], [-89.002415, 48.497921], [-89.002374, 48.497635], [-89.002675, 48.497171], [-89.00291, 48.497097]]}}, {"type": "Feature", "properties": {"d": 10}, "geometry": {"type": "LineString", "coordinates": [[-88.987327, 48.500434], [-88.988459, 48.500305], [-88.989537, 48.499668], [-88.990885, 48.499063], [-88.991405, 48.498742], [-88.992126, 48.498525], [-88.992465, 48.498313], [-88.99342, 48.498146], [-88.994387, 48.497814], [-88.995199, 48.4977], [-88.995631, 48.497742], [-88.995807, 48.497814], [-88.996401, 48.498313], [-88.996408, 48.498456], [-88.996041, 48.499063], [-88.995523, 48.499659], [-88.995148, 48.499955], [-88.9948, 48.500062], [-88.994585, 48.500276], [-88.994229, 48.500472], [-88.991155, 48.501641], [-88.990402, 48.502061], [-88.989753, 48.50281], [-88.987327, 48.504169]]}}, {"type": "Feature", "properties": {"d": 10}, "geometry": {"type": "LineString", "coordinates": [[-88.987327, 48.50564], [-88.98929, 48.504987], [-88.990832, 48.504624], [-88.99342, 48.504709], [-88.994067, 48.504682], [-88.99466, 48.504577], [-88.995037, 48.504414], [-88.995631, 48.504334], [-88.996385, 48.504401], [-88.997248, 48.504922], [-88.997356, 48.5051], [-88.998057, 48.505293], [-88.998488, 48.50564], [-88.998974, 48.505752], [-88.999351, 48.505772], [-88.999782, 48.505766], [-89.000268, 48.505539], [-89.00113, 48.505616], [-89.005174, 48.505056], [-89.005606, 48.505096], [-89.00605, 48.504987], [-89.007871, 48.504737], [-89.008649, 48.504523], [-89.010081, 48.503974], [-89.011537, 48.503158], [-89.012508, 48.502842], [-89.013155, 48.502436], [-89.014449, 48.501851], [-89.015339, 48.501525], [-89.015757, 48.50124], [-89.01639, 48.500951], [-89.01683, 48.500597], [-89.017404, 48.500312], [-89.017739, 48.500062], [-89.01839, 48.499955], [-89.019733, 48.499521], [-89.021797, 48.499063], [-89.023669, 48.498515], [-89.024274, 48.498278], [-89.028199, 48.497546], [-89.030679, 48.497248], [-89.031973, 48.496741], [-89.033213, 48.496449], [-89.033616, 48.496172], [-89.033744, 48.495815], [-89.033914, 48.495623], [-89.035262, 48.494648], [-89.035909, 48.494298], [-89.037612, 48.493709], [-89.038791, 48.493031], [-89.03913, 48.492674], [-89.039016, 48.491996], [-89.03922, 48.491461], [-89.039684, 48.491141], [-89.040493, 48.490763], [-89.040816, 48.490751], [-89.043296, 48.491111], [-89.044806, 48.491407], [-89.045521, 48.491318], [-89.046747, 48.490974], [-89.046631, 48.491389], [-89.046855, 48.491965], [-89.047017, 48.492129], [-89.047287, 48.492137], [-89.04761, 48.492026], [-89.048042, 48.491627], [-89.04912, 48.491006], [-89.049821, 48.490859], [-89.050422, 48.49064], [-89.050775, 48.490354], [-89.050953, 48.490086], [-89.051419, 48.489747], [-89.051621, 48.489462], [-89.052032, 48.489254], [-89.05338, 48.489078], [-89.053973, 48.489137], [-89.054728, 48.488927], [-89.056345, 48.488841], [-89.058502, 48.488405], [-89.059365, 48.488288], [-89.062762, 48.488004]]}}, {"type": "Feature", "properties": {"d": 12}, "geometry": {"type": "LineString", "coordinates": [[-89.035424, 48.48884], [-89.035694, 48.48895], [-89.036449, 48.488921], [-89.036826, 48.488985], [-89.037689, 48.488923], [-89.03839, 48.489134], [-89.038451, 48.489355], [-89.037743, 48.489859], [-89.037527, 48.490091], [-89.036891, 48.490497], [-89.036017, 48.490733], [-89.035262, 48.49073], [-89.034346, 48.490528], [-89.03386, 48.490241], [-89.033639, 48.490069], [-89.033262, 48.489569], [-89.033163, 48.489248], [-89.033267, 48.489167], [-89.034184, 48.489273], [-89.034566, 48.489248], [-89.03529, 48.488998], [-89.03537, 48.488831], [-89.035424, 48.48884]]}}, {"type": "Feature", "properties": {"d": 12}, "geometry": {"type": "LineString", "coordinates": [[-89.013746, 48.49171], [-89.013774, 48.491211], [-89.013821, 48.491139], [-89.014017, 48.491092], [-89.014233, 48.491106], [-89.014352, 48.491175], [-89.014356, 48.49171]]}}, {"type": "Feature", "properties": {"d": 12}, "geometry": {"type": "LineString", "coordinates": [[-89.004042, 48.493709], [-89.004689, 48.493703], [-89.005067, 48.493552], [-89.005498, 48.493599], [-89.005831, 48.493816], [-89.005857, 48.494316]]}}, {"type": "Feature", "properties": {"d": 12}, "geometry": {"type": "LineString", "coordinates": [[-89.007682, 48.493905], [-89.008248, 48.493537], [-89.008895, 48.493617]]}}, {"type": "Feature", "properties": {"d": 12}, "geometry": {"type": "LineString", "coordinates": [[-89.004774, 48.494316], [-89.004743, 48.493841], [-89.004042, 48.49381]]}}, {"type": "Feature", "properties": {"d": 12}, "geometry": {"type": "LineString", "coordinates": [[-89.002964, 48.496993], [-89.003257, 48.497136], [-89.003435, 48.497314], [-89.00352, 48.497671], [-89.003395, 48.497885], [-89.003233, 48.497992], [-89.00291, 48.498088], [-89.002586, 48.498109], [-89.002376, 48.498028], [-89.002286, 48.497921], [-89.002275, 48.497528], [-89.002586, 48.497051], [-89.002802, 48.496972], [-89.002964, 48.496993]]}}, {"type": "Feature", "properties": {"d": 12}, "geometry": {"type": "LineString", "coordinates": [[-88.997194, 48.497954], [-88.997322, 48.497992], [-88.997347, 48.498064], [-88.99714, 48.498315], [-88.997027, 48.498135], [-88.997081, 48.497992], [-88.997194, 48.497954]]}}, {"type": "Feature", "properties": {"d": 12}, "geometry": {"type": "LineString", "coordinates": [[-88.987327, 48.500102], [-88.988136, 48.500165], [-88.988896, 48.499955], [-88.989376, 48.499438], [-88.990166, 48.499027], [-88.990486, 48.49867], [-88.990939, 48.498419], [-88.991586, 48.498208], [-88.992341, 48.49781], [-88.992557, 48.497769], [-88.993096, 48.497829], [-88.994768, 48.497599], [-88.995631, 48.497635], [-88.99584, 48.497707], [-88.996224, 48.49801], [-88.996542, 48.498171], [-88.996641, 48.498313], [-88.996385, 48.498887], [-88.995684, 48.499697], [-88.995398, 48.499955], [-88.994992, 48.500098], [-88.994444, 48.500507], [-88.991973, 48.501739], [-88.990993, 48.502485], [-88.990724, 48.502773], [-88.989815, 48.503417], [-88.989572, 48.503738], [-88.989591, 48.503816], [-88.990131, 48.503913], [-88.990939, 48.503927], [-88.99218, 48.503824], [-88.993366, 48.503522], [-88.993959, 48.50349], [-88.994822, 48.503562], [-88.996439, 48.503459], [-88.996991, 48.503345], [-88.997841, 48.502961], [-88.998881, 48.502703], [-88.999028, 48.502616], [-88.999836, 48.502677], [-89.00113, 48.502574], [-89.0014, 48.502625], [-89.001993, 48.502526], [-89.002802, 48.502647], [-89.003018, 48.502751], [-89.003503, 48.502852], [-89.003988, 48.502869], [-89.004474, 48.502702], [-89.005067, 48.502689], [-89.005228, 48.502941], [-89.00539, 48.503039], [-89.005929, 48.50315], [-89.006253, 48.503296], [-89.007008, 48.503432], [-89.007439, 48.503471], [-89.007871, 48.503369], [-89.00814, 48.503531], [-89.009165, 48.50342], [-89.010405, 48.503097], [-89.012238, 48.502112], [-89.01337, 48.501781], [-89.014826, 48.501003], [-89.016228, 48.500619], [-89.017242, 48.500062], [-89.017768, 48.499955], [-89.019571, 48.499214], [-89.020057, 48.499126], [-89.021351, 48.4987], [-89.023238, 48.498217], [-89.024251, 48.497814], [-89.026581, 48.497377], [-89.027875, 48.497056], [-89.030704, 48.496743], [-89.032189, 48.496169], [-89.032285, 48.496065], [-89.032285, 48.495851], [-89.031933, 48.495494], [-89.03189, 48.49528], [-89.032135, 48.495038], [-89.033645, 48.494112], [-89.035424, 48.493354], [-89.036725, 48.492995], [-89.037096, 48.492737], [-89.038194, 48.49221], [-89.038551, 48.491897], [-89.038875, 48.491389], [-89.039174, 48.491104], [-89.039468, 48.490914], [-89.040493, 48.49048], [-89.041194, 48.490392], [-89.043512, 48.490359], [-89.045399, 48.490221], [-89.046399, 48.490033], [-89.047071, 48.489715], [-89.047664, 48.489656], [-89.048419, 48.489395], [-89.048904, 48.489132], [-89.049854, 48.488891], [-89.0516, 48.488728], [-89.052948, 48.488787], [-89.054296, 48.488676], [-89.055968, 48.488718], [-89.056476, 48.488676], [-89.057237, 48.488569], [-89.059257, 48.488126], [-89.061826, 48.487784], [-89.062762, 48.487472]]}}, {"type": "Feature", "properties": {"d": 15}, "geometry": {"type": "LineString", "coordinates": [[-89.037465, 48.488462], [-89.03785, 48.488632], [-89.038498, 48.488671], [-89.038749, 48.488605]]}}, {"type": "Feature", "properties": {"d": 15}, "geometry": {"type": "LineString", "coordinates": [[-89.033654, 48.488569], [-89.033807, 48.488712], [-89.033831, 48.488962], [-89.034076, 48.489053], [-89.034777, 48.489004], [-89.034828, 48.488748], [-89.035089, 48.488569]]}}, {"type": "Feature", "properties": {"d": 15}, "geometry": {"type": "LineString", "coordinates": [[-89.039032, 48.488676], [-89.038876, 48.488926], [-89.038851, 48.489355], [-89.038536, 48.490104], [-89.03812, 48.490497], [-89.038062, 48.490604], [-89.03812, 48.490665], [-89.039037, 48.490332], [-89.041086, 48.489831], [-89.044051, 48.48952], [-89.044537, 48.489429], [-89.045022, 48.489229], [-89.046801, 48.489107], [-89.047502, 48.488975], [-89.048635, 48.488564], [-89.04912, 48.488479], [-89.051007, 48.488384], [-89.051978, 48.488414], [-89.052301, 48.488363], [-89.052571, 48.488466], [-89.053434, 48.488489], [-89.054836, 48.488431], [-89.055159, 48.488473], [-89.055375, 48.488406], [-89.055698, 48.488496], [-89.056885, 48.488407], [-89.057164, 48.488248], [-89.057585, 48.488239], [-89.057909, 48.488083], [-89.058286, 48.488014], [-89.058394, 48.487758], [-89.058772, 48.487884], [-89.059041, 48.487762], [-89.059527, 48.487678], [-89.060497, 48.487138], [-89.061007, 48.486428], [-89.060742, 48.485999], [-89.060918, 48.485464], [-89.061606, 48.484857], [-89.062115, 48.484808], [-89.062384, 48.484855], [-89.06256, 48.48475], [-89.062654, 48.48451], [-89.062762, 48.484467]]}}, {"type": "Feature", "properties": {"d": 15}, "geometry": {"type": "LineString", "coordinates": [[-89.032189, 48.489453], [-89.032793, 48.489248], [-89.032827, 48.488569]]}}, {"type": "Feature", "properties": {"d": 15}, "geometry": {"type": "LineString", "coordinates": [[-89.017655, 48.49089], [-89.017361, 48.490619], [-89.017091, 48.490502], [-89.016929, 48.490521], [-89.016735, 48.490675], [-89.016767, 48.491009], [-89.016444, 48.490878], [-89.016336, 48.490919], [-89.016282, 48.491059], [-89.016042, 48.491068], [-89.016051, 48.491175], [-89.016309, 48.491425]]}}, {"type": "Feature", "properties": {"d": 15}, "geometry": {"type": "LineString", "coordinates": [[-89.012855, 48.491333], [-89.013317, 48.490988], [-89.013802, 48.490873], [-89.014449, 48.49083], [-89.015581, 48.490912], [-89.01666, 48.490642], [-89.016929, 48.490349], [-89.017468, 48.490193], [-89.018385, 48.490188]]}}, {"type": "Feature", "properties": {"d": 15}, "geometry": {"type": "LineString", "coordinates": [[-89.004385, 48.493018], [-89.004797, 48.493345], [-89.00539, 48.493297], [-89.005929, 48.493477], [-89.006082, 48.493852], [-89.006487, 48.494126]]}}, {"type": "Feature", "properties": {"d": 15}, "geometry": {"type": "LineString", "coordinates": [[-89.007337, 48.493852], [-89.007366, 48.49321], [-89.007601, 48.493016], [-89.007924, 48.492898], [-89.008518, 48.492792], [-89.009513, 48.492908]]}}, {"type": "Feature", "properties": {"d": 15}, "geometry": {"type": "LineString", "coordinates": [[-89.002856, 48.496737], [-89.003562, 48.497029], [-89.003817, 48.497457], [-89.003725, 48.497778], [-89.003341, 48.498113], [-89.003287, 48.498256], [-89.002317, 48.498213], [-89.001914, 48.497849], [-89.001895, 48.497493], [-89.002101, 48.497079], [-89.002443, 48.496814], [-89.002856, 48.496737]]}}, {"type": "Feature", "properties": {"d": 15}, "geometry": {"type": "LineString", "coordinates": [[-88.99587, 48.496886], [-88.995902, 48.497314], [-88.997518, 48.497598], [-88.997751, 48.497707], [-88.998026, 48.497956], [-88.998066, 48.498099], [-88.99799, 48.498278], [-88.997655, 48.498563], [-88.99751, 48.498849], [-88.997713, 48.499241], [-88.997939, 48.499455], [-88.997997, 48.499848], [-88.998165, 48.500164], [-88.998488, 48.500283], [-88.998824, 48.500241], [-88.998866, 48.500392], [-88.999782, 48.500381], [-88.999922, 48.500312], [-89.000113, 48.500062], [-89.000268, 48.500002], [-89.000591, 48.499957], [-89.001454, 48.500006], [-89.001616, 48.499921], [-89.001831, 48.499993], [-89.002155, 48.499883], [-89.002317, 48.499975], [-89.002532, 48.499948], [-89.003174, 48.500062], [-89.003395, 48.500238], [-89.00388, 48.50024], [-89.004042, 48.500316], [-89.004258, 48.500225], [-89.004851, 48.500358], [-89.005067, 48.500509], [-89.00539, 48.500474], [-89.005714, 48.500529], [-89.006037, 48.500348], [-89.007223, 48.500355], [-89.007601, 48.500128], [-89.007709, 48.500193], [-89.008077, 48.500205], [-89.008302, 48.500295], [-89.008441, 48.500062], [-89.009704, 48.499952], [-89.00992, 48.49986], [-89.010189, 48.500004], [-89.010567, 48.500004], [-89.010782, 48.500108], [-89.010902, 48.500062], [-89.011082, 48.500169], [-89.011235, 48.500169], [-89.011321, 48.500046], [-89.011591, 48.500002], [-89.011753, 48.500147], [-89.011969, 48.500119], [-89.0124, 48.500199], [-89.012616, 48.500048], [-89.013101, 48.500008], [-89.013424, 48.499858], [-89.013964, 48.499896], [-89.014179, 48.499722], [-89.014395, 48.499716], [-89.014665, 48.499819], [-89.014988, 48.499488], [-89.01515, 48.499628], [-89.015527, 48.499724], [-89.015905, 48.499718], [-89.016228, 48.49955], [-89.01639, 48.499619], [-89.016552, 48.499535], [-89.016714, 48.499603], [-89.016875, 48.499549], [-89.017091, 48.4996], [-89.017253, 48.499484], [-89.01753, 48.499455], [-89.017696, 48.499348], [-89.017954, 48.499329], [-89.018277, 48.499218], [-89.018901, 48.498884], [-89.019895, 48.498611], [-89.020812, 48.498187], [-89.022429, 48.497773], [-89.023803, 48.497243], [-89.02437, 48.496732], [-89.02464, 48.496677], [-89.024963, 48.496518], [-89.025071, 48.496343], [-89.025287, 48.496215], [-89.02561, 48.496229], [-89.025826, 48.495977], [-89.026096, 48.495824], [-89.027552, 48.495298], [-89.027709, 48.49503], [-89.028177, 48.494816], [-89.02836, 48.494643], [-89.028954, 48.494686], [-89.029921, 48.494602], [-89.031218, 48.493921], [-89.032081, 48.493364], [-89.033003, 48.492995], [-89.033333, 48.492531], [-89.033375, 48.492027], [-89.033772, 48.491603], [-89.033813, 48.491318], [-89.033473, 48.490247], [-89.033267, 48.48985], [-89.033023, 48.48964], [-89.032325, 48.489623]]}}, {"type": "Feature", "properties": {"d": 15}, "geometry": {"type": "LineString", "coordinates": [[-88.987327, 48.499622], [-88.987758, 48.499489], [-88.988189, 48.499657], [-88.988351, 48.499642], [-88.988729, 48.499144], [-88.989537, 48.498512], [-88.990109, 48.498206], [-88.991425, 48.4977], [-88.992503, 48.497475], [-88.995091, 48.497281], [-88.995631, 48.497322], [-88.995694, 48.497278], [-88.9957, 48.496886]]}}, {"type": "Feature", "properties": {"d": 15}, "geometry": {"type": "LineString", "coordinates": [[-89.011613, 48.500205], [-89.011464, 48.500241], [-89.011472, 48.500312], [-89.011753, 48.500393], [-89.011613, 48.500205]]}}, {"type": "Feature", "properties": {"d": 15}, "geometry": {"type": "LineString", "coordinates": [[-88.998289, 48.500383], [-88.998165, 48.500366], [-88.996918, 48.500669], [-88.996684, 48.500776], [-88.996505, 48.500954], [-88.996602, 48.501061], [-88.996556, 48.501418], [-88.996772, 48.501632], [-88.996727, 48.501775], [-88.996979, 48.501853], [-88.997231, 48.501811], [-88.997455, 48.502096], [-88.997626, 48.502157], [-88.99838, 48.501958], [-88.998721, 48.501668], [-88.998734, 48.501525], [-88.998444, 48.500847], [-88.99844, 48.500597], [-88.998534, 48.500419], [-88.998289, 48.500383]]}}, {"type": "Feature", "properties": {"d": 20}, "geometry": {"type": "LineString", "coordinates": [[-89.050329, 48.487784], [-89.050349, 48.48807], [-89.05063, 48.48826], [-89.051007, 48.488079], [-89.051194, 48.487872]]}}, {"type": "Feature", "properties": {"d": 20}, "geometry": {"type": "LineString", "coordinates": [[-89.037556, 48.488443], [-89.037958, 48.488586], [-89.038659, 48.488559]]}}, {"type": "Feature", "properties": {"d": 20}, "geometry": {"type": "LineString", "coordinates": [[-89.033776, 48.488554], [-89.03413, 48.488663], [-89.034561, 48.488673], [-89.035019, 48.488551]]}}, {"type": "Feature", "properties": {"d": 20}, "geometry": {"type": "LineString", "coordinates": [[-89.015424, 48.489786], [-89.01608, 48.489712], [-89.016498, 48.489538]]}}, {"type": "Feature", "properties": {"d": 25}, "geometry": {"type": "LineString", "coordinates": [[-89.037581, 48.488399], [-89.037958, 48.488536], [-89.038659, 48.488509]]}}, {"type": "Feature", "properties": {"d": 25}, "geometry": {"type": "LineString", "coordinates": [[-89.033806, 48.488514], [-89.03413, 48.488609], [-89.034507, 48.488622], [-89.034993, 48.488512]]}}]}