{"type": "FeatureCollection", "features": [{"type": "Feature", "properties": {"d": 2}, "geometry": {"type": "LineString", "coordinates": [[-89.174883, 48.445506], [-89.174957, 48.445593], [-89.174752, 48.445629], [-89.174751, 48.445593], [-89.174883, 48.445506]]}}, {"type": "Feature", "properties": {"d": 2}, "geometry": {"type": "LineString", "coordinates": [[-89.17429, 48.445847], [-89.17429, 48.445979], [-89.174009, 48.445986], [-89.17402, 48.445942], [-89.17429, 48.445847]]}}, {"type": "Feature", "properties": {"d": 2}, "geometry": {"type": "LineString", "coordinates": [[-89.185314, 48.446006], [-89.185343, 48.445929], [-89.185559, 48.445914], [-89.185775, 48.445821]]}}, {"type": "Feature", "properties": {"d": 2}, "geometry": {"type": "LineString", "coordinates": [[-89.184618, 48.446307], [-89.184804, 48.446132], [-89.18502, 48.446037], [-89.185126, 48.446059]]}}, {"type": "Feature", "properties": {"d": 2}, "geometry": {"type": "LineString", "coordinates": [[-89.171162, 48.447652], [-89.171185, 48.447701], [-89.170993, 48.447808], [-89.170947, 48.448], [-89.170084, 48.448522], [-89.169113, 48.449391], [-89.168875, 48.449451], [-89.168817, 48.449594], [-89.168438, 48.449951], [-89.168035, 48.450202], [-89.167819, 48.450254], [-89.167771, 48.450166], [-89.167984, 48.449916], [-89.168166, 48.449773], [-89.16844, 48.449701], [-89.168736, 48.449327], [-89.169491, 48.448775], [-89.170084, 48.448201], [-89.170569, 48.447945], [-89.170785, 48.447748], [-89.171162, 48.447652]]}}, {"type": "Feature", "properties": {"d": 2}, "geometry": {"type": "LineString", "coordinates": [[-89.167819, 48.450277], [-89.167868, 48.450344], [-89.167748, 48.450487], [-89.1672, 48.450844], [-89.166725, 48.451344], [-89.166529, 48.451416], [-89.165554, 48.452397], [-89.165123, 48.45268], [-89.164961, 48.452684], [-89.164905, 48.452523], [-89.165102, 48.452309], [-89.165704, 48.451952], [-89.165959, 48.45163], [-89.166418, 48.451309], [-89.167324, 48.450451], [-89.16755, 48.45042], [-89.167819, 48.450277]]}}, {"type": "Feature", "properties": {"d": 2}, "geometry": {"type": "LineString", "coordinates": [[-89.181726, 48.451666], [-89.181776, 48.451487], [-89.181515, 48.451219], [-89.181499, 48.451059], [-89.181569, 48.450925], [-89.181892, 48.450755], [-89.182304, 48.451059], [-89.182378, 48.451354], [-89.182516, 48.451523], [-89.182378, 48.451682], [-89.182639, 48.451916]]}}, {"type": "Feature", "properties": {"d": 2}, "geometry": {"type": "LineString", "coordinates": [[-89.183025, 48.451826], [-89.182719, 48.451452], [-89.182809, 48.450996], [-89.182953, 48.450844], [-89.183294, 48.450788], [-89.18351, 48.450681], [-89.183792, 48.450166], [-89.184002, 48.450166], [-89.18475, 48.450544], [-89.184912, 48.450554], [-89.185236, 48.450461], [-89.185319, 48.450523]]}}, {"type": "Feature", "properties": {"d": 2}, "geometry": {"type": "LineString", "coordinates": [[-89.180351, 48.453059], [-89.180355, 48.452773], [-89.180437, 48.452673]]}}, {"type": "Feature", "properties": {"d": 2}, "geometry": {"type": "LineString", "coordinates": [[-89.155732, 48.472018], [-89.155579, 48.472027], [-89.155456, 48.471952], [-89.155282, 48.471559], [-89.155142, 48.471452], [-89.15518, 48.471381], [-89.155579, 48.471184], [-89.155957, 48.471092], [-89.156442, 48.471193], [-89.156819, 48.471119], [-89.158006, 48.470564], [-89.15898, 48.469881], [-89.160049, 48.468988], [-89.162104, 48.46703], [-89.1638, 48.465131], [-89.164638, 48.46388], [-89.165661, 48.46206], [-89.166616, 48.459667], [-89.166822, 48.458524], [-89.166756, 48.457595], [-89.166595, 48.457167], [-89.166274, 48.45681], [-89.165696, 48.456524], [-89.165069, 48.456311], [-89.164918, 48.456131], [-89.164909, 48.455952], [-89.165156, 48.455845], [-89.165201, 48.455702], [-89.165028, 48.455059], [-89.165032, 48.454667], [-89.164876, 48.454381], [-89.164943, 48.453952], [-89.164746, 48.453711], [-89.164774, 48.453309], [-89.164746, 48.453184], [-89.164584, 48.453042], [-89.164584, 48.452765], [-89.164854, 48.45272], [-89.164907, 48.452766], [-89.164925, 48.452916], [-89.164804, 48.453059], [-89.164961, 48.453106], [-89.165033, 48.453202], [-89.165069, 48.453658], [-89.165256, 48.454131], [-89.165177, 48.45434], [-89.165355, 48.454452], [-89.165662, 48.455548], [-89.16577, 48.455772], [-89.165878, 48.455833], [-89.166238, 48.455774], [-89.166255, 48.455448], [-89.166533, 48.455274], [-89.166772, 48.454559], [-89.167496, 48.454063], [-89.167873, 48.45398], [-89.168358, 48.454034], [-89.16879, 48.453846], [-89.169275, 48.453881], [-89.16962, 48.453702], [-89.170461, 48.453527], [-89.170677, 48.453525], [-89.171216, 48.453652], [-89.171594, 48.453868], [-89.17251, 48.453854], [-89.173103, 48.453922], [-89.173334, 48.454059], [-89.173858, 48.454674], [-89.174513, 48.454774], [-89.17445, 48.455059], [-89.174613, 48.455136], [-89.176069, 48.454918], [-89.176285, 48.454716], [-89.176824, 48.454615], [-89.177094, 48.454469], [-89.177525, 48.454438]]}}, {"type": "Feature", "properties": {"d": 2}, "geometry": {"type": "LineString", "coordinates": [[-89.156442, 48.473066], [-89.156215, 48.473059], [-89.156172, 48.472916], [-89.156266, 48.472835]]}}, {"type": "Feature", "properties": {"d": 2}, "geometry": {"type": "LineString", "coordinates": [[-89.11034, 48.486385], [-89.111903, 48.486304], [-89.114923, 48.485918], [-89.119506, 48.485167], [-89.123281, 48.484446], [-89.125398, 48.483913], [-89.127109, 48.483344], [-89.129428, 48.482412], [-89.129589, 48.482439], [-89.129722, 48.48227], [-89.130398, 48.481912], [-89.134744, 48.481307], [-89.137211, 48.4807], [-89.138748, 48.480164], [-89.140158, 48.479522], [-89.140859, 48.479103], [-89.141626, 48.478807], [-89.143562, 48.478343], [-89.144957, 48.477886], [-89.146844, 48.477117], [-89.148076, 48.476522], [-89.148671, 48.476165], [-89.14935, 48.475558], [-89.149702, 48.475394], [-89.150025, 48.475102], [-89.150564, 48.475032], [-89.151319, 48.474434], [-89.151966, 48.474109], [-89.152198, 48.473916], [-89.153032, 48.473559], [-89.154501, 48.47238], [-89.154619, 48.472202], [-89.15477, 48.472165], [-89.154859, 48.472202], [-89.154996, 48.472523]]}}, {"type": "Feature", "properties": {"d": 4}, "geometry": {"type": "LineString", "coordinates": [[-89.179108, 48.443056], [-89.178388, 48.443521], [-89.177961, 48.443664], [-89.177902, 48.443807], [-89.177579, 48.443956], [-89.177444, 48.443949], [-89.177459, 48.443806], [-89.178118, 48.443477], [-89.178252, 48.443306], [-89.178549, 48.443157], [-89.178621, 48.443056]]}}, {"type": "Feature", "properties": {"d": 4}, "geometry": {"type": "LineString", "coordinates": [[-89.175961, 48.444788], [-89.175984, 48.44495], [-89.175745, 48.444981], [-89.175772, 48.444807], [-89.175961, 48.444788]]}}, {"type": "Feature", "properties": {"d": 4}, "geometry": {"type": "LineString", "coordinates": [[-89.175476, 48.444962], [-89.175578, 48.445021], [-89.175582, 48.445128], [-89.175206, 48.445378], [-89.174991, 48.445672], [-89.174559, 48.445849], [-89.17429, 48.446069], [-89.173912, 48.446066], [-89.173886, 48.445914], [-89.174721, 48.44548], [-89.174829, 48.445355], [-89.175152, 48.445192], [-89.175329, 48.444985], [-89.175476, 48.444962]]}}, {"type": "Feature", "properties": {"d": 4}, "geometry": {"type": "LineString", "coordinates": [[-89.173589, 48.446189], [-89.173676, 48.446272], [-89.173626, 48.44645], [-89.173157, 48.446522], [-89.173095, 48.44645], [-89.173138, 48.446343], [-89.173589, 48.446189]]}}, {"type": "Feature", "properties": {"d": 4}, "geometry": {"type": "LineString", "coordinates": [[-89.184453, 48.446362], [-89.184642, 48.446129], [-89.184864, 48.446022], [-89.185176, 48.44595], [-89.185343, 48.445814], [-89.185775, 48.445738]]}}, {"type": "Feature", "properties": {"d": 4}, "geometry": {"type": "LineString", "coordinates": [[-89.173103, 48.446663], [-89.173049, 48.44679], [-89.172725, 48.446986], [-89.172472, 48.447058], [-89.172248, 48.447308], [-89.171809, 48.447559], [-89.17154, 48.447575], [-89.171652, 48.447308], [-89.171917, 48.447189], [-89.172179, 48.447165], [-89.172068, 48.447022], [-89.1721, 48.446915], [-89.172295, 48.446899], [-89.172456, 48.446958], [-89.17264, 48.446843], [-89.172726, 48.446639], [-89.173103, 48.446663]]}}, {"type": "Feature", "properties": {"d": 4}, "geometry": {"type": "LineString", "coordinates": [[-89.182539, 48.447379], [-89.182593, 48.447271], [-89.183294, 48.4471], [-89.183726, 48.447278], [-89.184235, 48.447792]]}}, {"type": "Feature", "properties": {"d": 4}, "geometry": {"type": "LineString", "coordinates": [[-89.178711, 48.448092], [-89.179089, 48.448386], [-89.179164, 48.448522], [-89.178983, 48.44888], [-89.179107, 48.44913], [-89.17884, 48.449273], [-89.17881, 48.449808], [-89.178291, 48.450737], [-89.17801, 48.451452], [-89.177794, 48.451565], [-89.177309, 48.451368], [-89.176824, 48.451472], [-89.176488, 48.451202], [-89.176474, 48.450809], [-89.176558, 48.45063], [-89.176344, 48.450344], [-89.176464, 48.449808], [-89.176423, 48.449344], [-89.176608, 48.449235], [-89.177363, 48.449275], [-89.177562, 48.449058], [-89.177554, 48.448772], [-89.177792, 48.448415], [-89.178388, 48.448338], [-89.178711, 48.448092]]}}, {"type": "Feature", "properties": {"d": 4}, "geometry": {"type": "LineString", "coordinates": [[-89.178355, 48.449273], [-89.17828, 48.449248], [-89.178172, 48.44933], [-89.178172, 48.449487], [-89.178388, 48.44946], [-89.178355, 48.449273]]}}, {"type": "Feature", "properties": {"d": 4}, "geometry": {"type": "LineString", "coordinates": [[-89.180177, 48.451559], [-89.180275, 48.451418], [-89.180445, 48.451523], [-89.180515, 48.451773], [-89.180329, 48.451915]]}}, {"type": "Feature", "properties": {"d": 4}, "geometry": {"type": "LineString", "coordinates": [[-89.181482, 48.451573], [-89.181356, 48.450952], [-89.18165, 48.45063], [-89.181814, 48.450308], [-89.181986, 48.449773], [-89.182054, 48.448866], [-89.18227, 48.448897], [-89.182397, 48.449058], [-89.182737, 48.449201], [-89.182863, 48.449396], [-89.18351, 48.449695], [-89.18475, 48.45044], [-89.184966, 48.450461], [-89.185236, 48.450356]]}}, {"type": "Feature", "properties": {"d": 4}, "geometry": {"type": "LineString", "coordinates": [[-89.180814, 48.451932], [-89.180749, 48.451845], [-89.180868, 48.451598], [-89.181245, 48.451423], [-89.181362, 48.451559]]}}, {"type": "Feature", "properties": {"d": 4}, "geometry": {"type": "LineString", "coordinates": [[-89.180275, 48.452062], [-89.180322, 48.45238], [-89.180221, 48.452478], [-89.180113, 48.452485]]}}, {"type": "Feature", "properties": {"d": 4}, "geometry": {"type": "LineString", "coordinates": [[-89.175368, 48.452375], [-89.175684, 48.452452], [-89.175678, 48.452559], [-89.175422, 48.452638], [-89.175168, 48.452559], [-89.175179, 48.452416], [-89.175368, 48.452375]]}}, {"type": "Feature", "properties": {"d": 4}, "geometry": {"type": "LineString", "coordinates": [[-89.180089, 48.452575], [-89.180145, 48.45288], [-89.179843, 48.453202]]}}, {"type": "Feature", "properties": {"d": 4}, "geometry": {"type": "LineString", "coordinates": [[-89.179964, 48.453658], [-89.179973, 48.453381], [-89.180258, 48.453023], [-89.180292, 48.452666], [-89.180437, 48.452605]]}}, {"type": "Feature", "properties": {"d": 4}, "geometry": {"type": "LineString", "coordinates": [[-89.155966, 48.472422], [-89.155641, 48.47238], [-89.155603, 48.472238], [-89.155318, 48.471916], [-89.15491, 48.471095], [-89.154986, 48.470789], [-89.155148, 48.470684], [-89.156137, 48.470452], [-89.157143, 48.469941], [-89.159192, 48.468391], [-89.160039, 48.467595], [-89.161079, 48.466503], [-89.162118, 48.465167], [-89.162904, 48.463881], [-89.163505, 48.462438], [-89.163991, 48.461577], [-89.165194, 48.458274], [-89.165087, 48.457417], [-89.164789, 48.456381], [-89.164657, 48.456202], [-89.164757, 48.456095], [-89.164512, 48.455774], [-89.164165, 48.454702], [-89.164291, 48.453988], [-89.164531, 48.453595], [-89.164472, 48.452738], [-89.164963, 48.452273], [-89.16559, 48.45188], [-89.166569, 48.451059], [-89.167033, 48.450559], [-89.167452, 48.450308], [-89.16786, 48.44988], [-89.168449, 48.449523], [-89.168941, 48.449022], [-89.169485, 48.448665], [-89.16976, 48.448338], [-89.170122, 48.448058], [-89.170896, 48.447629], [-89.171162, 48.447578], [-89.171369, 48.447629], [-89.171293, 48.447879], [-89.170793, 48.448272], [-89.170084, 48.448642], [-89.169359, 48.449415], [-89.168736, 48.449782], [-89.167577, 48.450773], [-89.167172, 48.451035], [-89.166471, 48.451664], [-89.166102, 48.45213], [-89.167388, 48.452159], [-89.167711, 48.452238], [-89.168197, 48.452263], [-89.168358, 48.452388], [-89.168843, 48.452488], [-89.169046, 48.452738], [-89.169599, 48.452653], [-89.169593, 48.452845], [-89.169706, 48.452897], [-89.170246, 48.452794], [-89.17067, 48.45288], [-89.171486, 48.452918], [-89.172618, 48.452842], [-89.173589, 48.452937], [-89.174559, 48.453238], [-89.174991, 48.453189], [-89.175458, 48.45288], [-89.176123, 48.452804], [-89.176608, 48.452595], [-89.176708, 48.452666], [-89.176606, 48.452773], [-89.176645, 48.453023], [-89.176468, 48.453345], [-89.176607, 48.453702], [-89.17652, 48.453916], [-89.176608, 48.45397], [-89.176932, 48.453943], [-89.177201, 48.454259], [-89.177556, 48.45436]]}}, {"type": "Feature", "properties": {"d": 4}, "geometry": {"type": "LineString", "coordinates": [[-89.156476, 48.473117], [-89.156226, 48.473147], [-89.15613, 48.473095], [-89.156094, 48.472916], [-89.156226, 48.472797]]}}, {"type": "Feature", "properties": {"d": 4}, "geometry": {"type": "LineString", "coordinates": [[-89.11034, 48.485859], [-89.111688, 48.485736], [-89.11282, 48.48574], [-89.115462, 48.485241], [-89.117619, 48.484999], [-89.118428, 48.484825], [-89.11956, 48.484677], [-89.121771, 48.484184], [-89.123207, 48.483984], [-89.127079, 48.482735], [-89.128738, 48.481913], [-89.129484, 48.481664], [-89.131702, 48.481128], [-89.134803, 48.480735], [-89.136383, 48.480301], [-89.138648, 48.479398], [-89.139079, 48.479327], [-89.139295, 48.479074], [-89.139868, 48.478843], [-89.141021, 48.47853], [-89.144633, 48.477203], [-89.145115, 48.477094], [-89.14555, 48.47685], [-89.145927, 48.476725], [-89.14706, 48.476008], [-89.147491, 48.475796], [-89.147847, 48.475701], [-89.148192, 48.475499], [-89.1486, 48.475094], [-89.14889, 48.474987], [-89.148976, 48.47488], [-89.14945, 48.474773], [-89.149729, 48.474416], [-89.150295, 48.473952], [-89.151427, 48.473504], [-89.152356, 48.472988], [-89.153368, 48.472318], [-89.15398, 48.471809], [-89.154393, 48.471755], [-89.154662, 48.471827], [-89.154878, 48.472045], [-89.155225, 48.472646]]}}, {"type": "Feature", "properties": {"d": 6}, "geometry": {"type": "LineString", "coordinates": [[-89.179729, 48.443056], [-89.17952, 48.443191], [-89.178998, 48.443306], [-89.178549, 48.443645], [-89.178334, 48.443692], [-89.177902, 48.443965], [-89.177633, 48.444062], [-89.177417, 48.444045], [-89.177271, 48.443914], [-89.177284, 48.443771], [-89.177956, 48.443412], [-89.178413, 48.443056]]}}, {"type": "Feature", "properties": {"d": 6}, "geometry": {"type": "LineString", "coordinates": [[-89.184219, 48.446588], [-89.18396, 48.446522], [-89.183955, 48.446343], [-89.184292, 48.446129], [-89.18502, 48.44583], [-89.185188, 48.445664], [-89.185775, 48.445352]]}}, {"type": "Feature", "properties": {"d": 6}, "geometry": {"type": "LineString", "coordinates": [[-89.182131, 48.447614], [-89.182013, 48.447486], [-89.18218, 48.447272], [-89.182971, 48.446864], [-89.183187, 48.446844], [-89.183348, 48.446881], [-89.183893, 48.447236], [-89.184195, 48.447522], [-89.184337, 48.447808]]}}, {"type": "Feature", "properties": {"d": 6}, "geometry": {"type": "LineString", "coordinates": [[-89.168263, 48.450559], [-89.168152, 48.450594], [-89.168035, 48.45078], [-89.168398, 48.450737], [-89.168412, 48.450666], [-89.168263, 48.450559]]}}, {"type": "Feature", "properties": {"d": 6}, "geometry": {"type": "LineString", "coordinates": [[-89.155643, 48.472887], [-89.155714, 48.472559], [-89.155397, 48.472309], [-89.155148, 48.471971], [-89.1551, 48.472273], [-89.155148, 48.472402], [-89.155356, 48.472559], [-89.155299, 48.472695]]}}, {"type": "Feature", "properties": {"d": 6}, "geometry": {"type": "LineString", "coordinates": [[-89.11034, 48.48459], [-89.111472, 48.484633], [-89.114168, 48.484439], [-89.118859, 48.483832], [-89.120669, 48.483413], [-89.121447, 48.483146], [-89.121602, 48.482984], [-89.121578, 48.482699], [-89.121763, 48.48252], [-89.121946, 48.482449], [-89.122364, 48.482377], [-89.123281, 48.482589], [-89.123745, 48.482556], [-89.125923, 48.482003], [-89.126274, 48.481842], [-89.128727, 48.481089], [-89.131261, 48.480478], [-89.132555, 48.48027], [-89.134604, 48.479705], [-89.135359, 48.479484], [-89.136707, 48.478933], [-89.137408, 48.478537], [-89.137752, 48.478093], [-89.13802, 48.477951], [-89.140566, 48.477094], [-89.142045, 48.47653], [-89.14431, 48.475533], [-89.14555, 48.475316], [-89.146251, 48.474906], [-89.14668, 48.474523], [-89.146308, 48.474309], [-89.146413, 48.473978], [-89.146664, 48.473952], [-89.146844, 48.474119], [-89.14698, 48.473916], [-89.147599, 48.473963], [-89.148408, 48.474315], [-89.148677, 48.474323], [-89.148569, 48.474129], [-89.148138, 48.473864], [-89.148007, 48.473666], [-89.148246, 48.473373], [-89.148462, 48.473288], [-89.149055, 48.473274], [-89.150025, 48.472934], [-89.151104, 48.472339], [-89.151697, 48.471657], [-89.152452, 48.471337], [-89.153099, 48.470932], [-89.153476, 48.470874], [-89.153746, 48.47091], [-89.154069, 48.471176], [-89.154986, 48.471715], [-89.154932, 48.471441], [-89.1547, 48.471095], [-89.154769, 48.470059], [-89.155094, 48.46981], [-89.155633, 48.469546], [-89.15628, 48.469349], [-89.157143, 48.468887], [-89.158312, 48.468095], [-89.159011, 48.467488], [-89.160055, 48.466386], [-89.160895, 48.464881], [-89.16178, 48.461877], [-89.161996, 48.460674], [-89.162837, 48.458417], [-89.162989, 48.45756], [-89.16299, 48.456381], [-89.163056, 48.456202], [-89.162868, 48.455988], [-89.16302, 48.455886], [-89.163321, 48.45581], [-89.16314, 48.455452], [-89.163089, 48.454559], [-89.163001, 48.454095], [-89.16291, 48.453988], [-89.163074, 48.453559], [-89.163344, 48.453186], [-89.16453, 48.452047], [-89.165231, 48.451691], [-89.165716, 48.451535], [-89.166104, 48.451309], [-89.166525, 48.450958], [-89.166795, 48.450542], [-89.167603, 48.449964], [-89.168035, 48.449494], [-89.168358, 48.449451], [-89.168705, 48.448915], [-89.168898, 48.448781], [-89.169437, 48.448573], [-89.169706, 48.448204], [-89.170246, 48.447839], [-89.171162, 48.447438], [-89.17182, 48.447058], [-89.172079, 48.446682], [-89.172834, 48.44643], [-89.173481, 48.44605], [-89.173643, 48.446013], [-89.173858, 48.445802], [-89.175006, 48.445164], [-89.175206, 48.444899], [-89.175422, 48.444776], [-89.175799, 48.444694], [-89.176015, 48.444751], [-89.176087, 48.444878], [-89.176059, 48.444985], [-89.175566, 48.445486], [-89.174991, 48.445865], [-89.173944, 48.446379], [-89.172305, 48.447451], [-89.171617, 48.447772], [-89.1712, 48.448201], [-89.170695, 48.448415], [-89.170407, 48.448666], [-89.170192, 48.448754], [-89.169922, 48.448978], [-89.169527, 48.449523], [-89.168898, 48.449869], [-89.168311, 48.450416], [-89.168682, 48.45057], [-89.169059, 48.450538], [-89.169491, 48.450224], [-89.169606, 48.450058], [-89.169519, 48.449951], [-89.169599, 48.449855], [-89.169814, 48.449958], [-89.170057, 48.449773], [-89.170461, 48.449722], [-89.170731, 48.449622], [-89.171486, 48.449616], [-89.171672, 48.449523], [-89.171863, 48.449258], [-89.172834, 48.449064], [-89.173105, 48.448844], [-89.173481, 48.448262], [-89.173926, 48.447879], [-89.173921, 48.447772], [-89.173661, 48.447593], [-89.173666, 48.447486], [-89.17375, 48.447443], [-89.174143, 48.447451], [-89.174199, 48.447093], [-89.174358, 48.446986], [-89.174373, 48.4467], [-89.174582, 48.446557], [-89.174793, 48.446272], [-89.175206, 48.446133], [-89.175368, 48.445915], [-89.17553, 48.445876], [-89.176315, 48.446164], [-89.176554, 48.446421], [-89.176878, 48.446513], [-89.177794, 48.447141], [-89.178388, 48.447454], [-89.178825, 48.447522], [-89.179362, 48.447844], [-89.17966, 48.448237], [-89.180005, 48.448304], [-89.180329, 48.448522], [-89.180598, 48.448552], [-89.180822, 48.448772], [-89.180875, 48.449165], [-89.180717, 48.449594], [-89.180425, 48.449808], [-89.180275, 48.450186], [-89.179897, 48.450611], [-89.17952, 48.450726], [-89.179358, 48.45089], [-89.179152, 48.450952], [-89.178865, 48.451309], [-89.178575, 48.451452], [-89.17801, 48.452013], [-89.177689, 48.452166], [-89.177429, 48.45263], [-89.177426, 48.45288], [-89.177296, 48.452988], [-89.177363, 48.453198], [-89.177794, 48.453213], [-89.178118, 48.452587], [-89.179035, 48.452112], [-89.180167, 48.451111], [-89.180383, 48.451059], [-89.180652, 48.451117], [-89.180868, 48.451324], [-89.181084, 48.451221], [-89.181173, 48.451059], [-89.18108, 48.450701], [-89.181643, 48.449415], [-89.181495, 48.448808], [-89.181892, 48.44851], [-89.182108, 48.448542], [-89.182863, 48.449068], [-89.183233, 48.449415], [-89.184831, 48.45038], [-89.185012, 48.45038], [-89.185122, 48.450269]]}}, {"type": "Feature", "properties": {"d": 8}, "geometry": {"type": "LineString", "coordinates": [[-89.180367, 48.443056], [-89.180364, 48.443163], [-89.180085, 48.443235], [-89.179897, 48.443454], [-89.179466, 48.443532], [-89.179011, 48.443771], [-89.178495, 48.444202], [-89.178334, 48.444235], [-89.177417, 48.444159], [-89.177066, 48.443914], [-89.177272, 48.443521], [-89.177556, 48.443449], [-89.177902, 48.443196], [-89.17797, 48.443056]]}}, {"type": "Feature", "properties": {"d": 8}, "geometry": {"type": "LineString", "coordinates": [[-89.184903, 48.447266], [-89.184696, 48.447258], [-89.184238, 48.447022], [-89.183756, 48.446522], [-89.183726, 48.446237], [-89.184211, 48.445937], [-89.184656, 48.445771], [-89.184858, 48.445563], [-89.185775, 48.44514]]}}, {"type": "Feature", "properties": {"d": 8}, "geometry": {"type": "LineString", "coordinates": [[-89.182108, 48.447698], [-89.181821, 48.447558], [-89.181795, 48.447308], [-89.181909, 48.447165], [-89.182324, 48.446887], [-89.182647, 48.446823], [-89.182971, 48.446652], [-89.183187, 48.446641], [-89.183888, 48.446811], [-89.184319, 48.447324], [-89.184589, 48.447459], [-89.185336, 48.448129], [-89.185775, 48.448391]]}}, {"type": "Feature", "properties": {"d": 8}, "geometry": {"type": "LineString", "coordinates": [[-89.185717, 48.447879], [-89.185613, 48.447978], [-89.185505, 48.447954], [-89.185286, 48.447772], [-89.185327, 48.447618]]}}, {"type": "Feature", "properties": {"d": 8}, "geometry": {"type": "LineString", "coordinates": [[-89.11034, 48.482692], [-89.111094, 48.482788], [-89.112604, 48.482696], [-89.114006, 48.482681], [-89.114869, 48.482587], [-89.115408, 48.482432], [-89.116756, 48.482341], [-89.117403, 48.482194], [-89.11832, 48.482184], [-89.11956, 48.482043], [-89.12258, 48.481485], [-89.124736, 48.480956], [-89.127055, 48.480018], [-89.129104, 48.47936], [-89.130829, 48.478968], [-89.132199, 48.478522], [-89.132986, 48.478369], [-89.134365, 48.477951], [-89.137246, 48.477221], [-89.139133, 48.476612], [-89.140722, 48.475951], [-89.141488, 48.475558], [-89.142183, 48.475094], [-89.143157, 48.47463], [-89.14404, 48.474319], [-89.145118, 48.473811], [-89.146027, 48.473559], [-89.146089, 48.473327], [-89.14679, 48.473482], [-89.147266, 48.473737], [-89.147437, 48.473739], [-89.146948, 48.47338], [-89.146858, 48.473237], [-89.146923, 48.473166], [-89.149274, 48.471809], [-89.15078, 48.471168], [-89.152182, 48.470344], [-89.152883, 48.47006], [-89.153261, 48.469946], [-89.15353, 48.469946], [-89.153638, 48.470221], [-89.153908, 48.470521], [-89.15404, 48.470559], [-89.154051, 48.470309], [-89.153718, 48.470059], [-89.153859, 48.469738], [-89.154555, 48.46943], [-89.154868, 48.469131], [-89.155741, 48.468768], [-89.156765, 48.468121], [-89.158035, 48.467024], [-89.15863, 48.466238], [-89.15903, 48.465186], [-89.159268, 48.463774], [-89.159617, 48.462953], [-89.160339, 48.459667], [-89.160412, 48.458131], [-89.160756, 48.456548], [-89.160956, 48.456202], [-89.160837, 48.456095], [-89.160739, 48.455702], [-89.161015, 48.455559], [-89.161612, 48.454559], [-89.163182, 48.452801], [-89.16453, 48.451615], [-89.166044, 48.450701], [-89.167081, 48.449916], [-89.167488, 48.449701], [-89.168628, 48.448684], [-89.169305, 48.448379], [-89.169593, 48.448058], [-89.169899, 48.447915], [-89.170084, 48.447736], [-89.170623, 48.447551], [-89.171216, 48.447202], [-89.171435, 48.44695], [-89.172025, 48.446507], [-89.173049, 48.446135], [-89.173367, 48.445843], [-89.173481, 48.445538], [-89.17375, 48.445493], [-89.173966, 48.445287], [-89.174451, 48.44502], [-89.174937, 48.444886], [-89.175584, 48.444563], [-89.175961, 48.444633], [-89.176162, 48.444807], [-89.176608, 48.445513], [-89.177113, 48.4457], [-89.177305, 48.44595], [-89.178172, 48.446646], [-89.178765, 48.446929], [-89.178873, 48.447074], [-89.179089, 48.447152], [-89.179173, 48.447308], [-89.179929, 48.447665], [-89.180368, 48.447986], [-89.180544, 48.448243], [-89.180853, 48.448237], [-89.181138, 48.44812], [-89.182108, 48.448356], [-89.182701, 48.448657], [-89.183399, 48.44938], [-89.183834, 48.449636], [-89.184049, 48.449674], [-89.184116, 48.449558], [-89.183941, 48.449313], [-89.18378, 48.449235], [-89.183726, 48.449049]]}}, {"type": "Feature", "properties": {"d": 10}, "geometry": {"type": "LineString", "coordinates": [[-89.181278, 48.443699], [-89.181245, 48.443668], [-89.181084, 48.443812], [-89.181245, 48.443774], [-89.181278, 48.443699]]}}, {"type": "Feature", "properties": {"d": 10}, "geometry": {"type": "LineString", "coordinates": [[-89.185775, 48.444323], [-89.185343, 48.444123], [-89.184696, 48.444171], [-89.184373, 48.444274], [-89.183726, 48.444161], [-89.183456, 48.444236], [-89.183294, 48.444017], [-89.183252, 48.444128], [-89.183133, 48.444178], [-89.182647, 48.444174], [-89.181946, 48.444297], [-89.181653, 48.44445], [-89.181664, 48.4447], [-89.181245, 48.444944], [-89.180329, 48.444964], [-89.180157, 48.445021], [-89.180274, 48.445128], [-89.180221, 48.445201], [-89.179897, 48.445047], [-89.179736, 48.445146], [-89.179628, 48.445074], [-89.179358, 48.445044], [-89.179223, 48.445128], [-89.179274, 48.445271], [-89.179206, 48.445378], [-89.17925, 48.44542], [-89.179412, 48.445399], [-89.179466, 48.445249], [-89.179543, 48.445236], [-89.179559, 48.445486], [-89.179709, 48.4457], [-89.179875, 48.445736], [-89.180119, 48.445664], [-89.180383, 48.445942], [-89.180598, 48.445944], [-89.180976, 48.446065], [-89.182108, 48.445781], [-89.182701, 48.445789], [-89.182927, 48.44545], [-89.183294, 48.445293], [-89.183402, 48.445382], [-89.183564, 48.445387], [-89.183941, 48.445084], [-89.184373, 48.445023], [-89.185128, 48.444694], [-89.185775, 48.444756]]}}, {"type": "Feature", "properties": {"d": 10}, "geometry": {"type": "LineString", "coordinates": [[-89.18073, 48.446843], [-89.180491, 48.446854], [-89.180461, 48.447058], [-89.180598, 48.447095], [-89.18076, 48.447255], [-89.181245, 48.447389], [-89.181245, 48.447286], [-89.18103, 48.447284], [-89.181027, 48.447093], [-89.180928, 48.44695], [-89.180706, 48.446989], [-89.18073, 48.446843]]}}, {"type": "Feature", "properties": {"d": 10}, "geometry": {"type": "LineString", "coordinates": [[-89.181418, 48.447558], [-89.181451, 48.447665], [-89.18179, 48.447844], [-89.181785, 48.447771], [-89.181418, 48.447558]]}}, {"type": "Feature", "properties": {"d": 10}, "geometry": {"type": "LineString", "coordinates": [[-89.11034, 48.48199], [-89.110771, 48.481946], [-89.111795, 48.482112], [-89.11282, 48.482104], [-89.113898, 48.482001], [-89.114977, 48.481767], [-89.11654, 48.48171], [-89.119506, 48.481396], [-89.120854, 48.481025], [-89.122148, 48.480868], [-89.122727, 48.480735], [-89.123496, 48.480469], [-89.126354, 48.479181], [-89.12781, 48.479031], [-89.128673, 48.478751], [-89.130021, 48.478583], [-89.131153, 48.478357], [-89.133472, 48.477776], [-89.134334, 48.477391], [-89.136815, 48.476522], [-89.139133, 48.47543], [-89.139673, 48.47504], [-89.139996, 48.474902], [-89.140913, 48.47462], [-89.142153, 48.474344], [-89.144509, 48.473452], [-89.145526, 48.47313], [-89.145927, 48.473091], [-89.146182, 48.47313], [-89.146303, 48.472809], [-89.14678, 48.472452], [-89.147167, 48.472314], [-89.148408, 48.471636], [-89.15078, 48.470549], [-89.152157, 48.469809], [-89.152809, 48.469524], [-89.153368, 48.469383], [-89.154455, 48.468631], [-89.154986, 48.468141], [-89.155098, 48.46781], [-89.155471, 48.467682], [-89.156624, 48.466096], [-89.156996, 48.46506], [-89.157132, 48.464881], [-89.157221, 48.464274], [-89.157514, 48.46331], [-89.157619, 48.461917], [-89.157971, 48.460524], [-89.158161, 48.458917], [-89.158765, 48.458096], [-89.159117, 48.457845], [-89.159283, 48.457595], [-89.159833, 48.456274], [-89.159947, 48.455685], [-89.160216, 48.455427], [-89.160315, 48.455059], [-89.16178, 48.453855], [-89.163344, 48.452166], [-89.164469, 48.45113], [-89.165692, 48.450166], [-89.167005, 48.448915], [-89.168859, 48.446736], [-89.170677, 48.445931], [-89.171104, 48.445664], [-89.172402, 48.445214], [-89.172672, 48.445011], [-89.173643, 48.444675], [-89.173872, 48.444521], [-89.17429, 48.444435], [-89.174721, 48.444385], [-89.175961, 48.444434], [-89.176123, 48.444564], [-89.176285, 48.444542], [-89.176446, 48.444674], [-89.177309, 48.444842], [-89.177794, 48.445171], [-89.177956, 48.445092], [-89.178175, 48.445093], [-89.178118, 48.445305], [-89.17829, 48.445414], [-89.178388, 48.445391], [-89.178278, 48.445271], [-89.178388, 48.445096], [-89.178177, 48.444914], [-89.178334, 48.444799], [-89.178495, 48.445004], [-89.178838, 48.445021], [-89.178826, 48.444878], [-89.178603, 48.444813], [-89.178572, 48.444735], [-89.178823, 48.444628], [-89.178827, 48.444557], [-89.17801, 48.444492], [-89.177363, 48.444369], [-89.176909, 48.444128], [-89.176769, 48.443985], [-89.176685, 48.443556], [-89.176761, 48.443413], [-89.176934, 48.443271], [-89.177485, 48.443056]]}}, {"type": "Feature", "properties": {"d": 12}, "geometry": {"type": "LineString", "coordinates": [[-89.163613, 48.449307], [-89.163654, 48.449451], [-89.163469, 48.449487], [-89.163507, 48.449344], [-89.163613, 48.449307]]}}, {"type": "Feature", "properties": {"d": 12}, "geometry": {"type": "LineString", "coordinates": [[-89.129643, 48.454164], [-89.129835, 48.454309], [-89.129805, 48.454409], [-89.129697, 48.454372], [-89.129577, 48.454166], [-89.129643, 48.454164]]}}, {"type": "Feature", "properties": {"d": 12}, "geometry": {"type": "LineString", "coordinates": [[-89.128565, 48.454652], [-89.128957, 48.454809], [-89.128781, 48.45496], [-89.128328, 48.454774], [-89.128349, 48.45467], [-89.128565, 48.454652]]}}, {"type": "Feature", "properties": {"d": 12}, "geometry": {"type": "LineString", "coordinates": [[-89.11034, 48.480341], [-89.110555, 48.480339], [-89.111094, 48.480158], [-89.111256, 48.480039], [-89.11158, 48.480058], [-89.112124, 48.480485], [-89.112389, 48.480578], [-89.112658, 48.480593], [-89.114653, 48.480315], [-89.115516, 48.480042], [-89.115947, 48.480025], [-89.116217, 48.479926], [-89.116487, 48.479967], [-89.116756, 48.479884], [-89.117457, 48.48001], [-89.118859, 48.479924], [-89.119344, 48.480016], [-89.119668, 48.480154], [-89.120207, 48.480173], [-89.12107, 48.479897], [-89.121717, 48.479811], [-89.122148, 48.479663], [-89.12257, 48.479379], [-89.123308, 48.479057], [-89.124736, 48.478798], [-89.126031, 48.478715], [-89.12754, 48.478487], [-89.128403, 48.478233], [-89.129697, 48.478052], [-89.130344, 48.477886], [-89.131584, 48.477514], [-89.132339, 48.477219], [-89.133849, 48.476387], [-89.134766, 48.476086], [-89.136057, 48.475416], [-89.137084, 48.475001], [-89.137624, 48.47483], [-89.13854, 48.47468], [-89.139403, 48.474413], [-89.140158, 48.47431], [-89.140984, 48.474094], [-89.142908, 48.473409], [-89.144306, 48.472845], [-89.144525, 48.472633], [-89.144849, 48.472616], [-89.145316, 48.47238], [-89.145588, 48.472166], [-89.145927, 48.472052], [-89.146574, 48.471687], [-89.147114, 48.471476], [-89.149324, 48.470364], [-89.150564, 48.469886], [-89.151632, 48.469345], [-89.152104, 48.468738], [-89.152428, 48.468524], [-89.15304, 48.46731], [-89.153368, 48.466962], [-89.153665, 48.466346], [-89.153833, 48.466167], [-89.154058, 48.46606], [-89.154371, 48.465703], [-89.154824, 48.464894], [-89.155212, 48.464417], [-89.155467, 48.463631], [-89.155533, 48.46281], [-89.156132, 48.460846], [-89.155726, 48.459774], [-89.155634, 48.459167], [-89.155903, 48.458751], [-89.156226, 48.458666], [-89.156754, 48.458346], [-89.157251, 48.458183], [-89.157952, 48.457597], [-89.158475, 48.456667], [-89.158529, 48.456274], [-89.158373, 48.455952], [-89.158059, 48.455738], [-89.158001, 48.455524], [-89.15775, 48.455417], [-89.157898, 48.455351], [-89.158275, 48.455408], [-89.158437, 48.455368], [-89.159532, 48.454845], [-89.159731, 48.454601], [-89.160001, 48.454506], [-89.160456, 48.454202], [-89.161079, 48.453637], [-89.162319, 48.452112], [-89.163248, 48.451237], [-89.163965, 48.450416], [-89.164153, 48.45008], [-89.164262, 48.449523], [-89.164056, 48.449094], [-89.163846, 48.448987], [-89.163613, 48.448968], [-89.162858, 48.449162], [-89.161567, 48.448951], [-89.161234, 48.448665], [-89.161537, 48.448058], [-89.161996, 48.447818], [-89.162325, 48.447522], [-89.163829, 48.447157], [-89.164584, 48.447145], [-89.164958, 48.446808], [-89.165554, 48.446691], [-89.1663, 48.446343], [-89.168192, 48.445771], [-89.169059, 48.445451], [-89.170021, 48.4452], [-89.170569, 48.444939], [-89.171216, 48.444735], [-89.171529, 48.444592], [-89.17166, 48.44445], [-89.171504, 48.444235], [-89.171594, 48.444095], [-89.171863, 48.444072], [-89.172133, 48.443935], [-89.172348, 48.443972], [-89.172699, 48.443914], [-89.172714, 48.443735], [-89.17243, 48.443664], [-89.172456, 48.443583], [-89.17278, 48.443689], [-89.173373, 48.443646], [-89.173697, 48.443746], [-89.17402, 48.443501], [-89.174236, 48.443467], [-89.174344, 48.443522], [-89.174613, 48.443499], [-89.174801, 48.443664], [-89.175, 48.443664], [-89.175016, 48.443521], [-89.174781, 48.443413], [-89.174606, 48.443199], [-89.174625, 48.443056]]}}, {"type": "Feature", "properties": {"d": 15}, "geometry": {"type": "LineString", "coordinates": [[-89.155886, 48.450308], [-89.155633, 48.450368], [-89.155687, 48.450531], [-89.155946, 48.450416], [-89.155886, 48.450308]]}}, {"type": "Feature", "properties": {"d": 15}, "geometry": {"type": "LineString", "coordinates": [[-89.131638, 48.453949], [-89.131717, 48.453988], [-89.131762, 48.454238], [-89.131692, 48.454292], [-89.131386, 48.454059], [-89.131638, 48.453949]]}}, {"type": "Feature", "properties": {"d": 15}, "geometry": {"type": "LineString", "coordinates": [[-89.129366, 48.453921], [-89.129948, 48.454274], [-89.129834, 48.454559], [-89.129915, 48.454917], [-89.129859, 48.45499], [-89.128996, 48.455297], [-89.128565, 48.454982], [-89.128104, 48.454809], [-89.128059, 48.454702], [-89.128727, 48.454366], [-89.129129, 48.453988]]}}, {"type": "Feature", "properties": {"d": 15}, "geometry": {"type": "LineString", "coordinates": [[-89.131004, 48.454801], [-89.130668, 48.454642], [-89.130506, 48.454345], [-89.130587, 48.454202], [-89.130937, 48.454085], [-89.131092, 48.454095], [-89.131194, 48.454202], [-89.131124, 48.454774]]}}, {"type": "Feature", "properties": {"d": 15}, "geometry": {"type": "LineString", "coordinates": [[-89.149594, 48.46228], [-89.150241, 48.462129], [-89.150402, 48.46256], [-89.150133, 48.462753], [-89.149582, 48.462318]]}}, {"type": "Feature", "properties": {"d": 15}, "geometry": {"type": "LineString", "coordinates": [[-89.116217, 48.4759], [-89.116256, 48.476023], [-89.116217, 48.476075], [-89.116131, 48.475951], [-89.116217, 48.4759]]}}, {"type": "Feature", "properties": {"d": 15}, "geometry": {"type": "LineString", "coordinates": [[-89.11034, 48.476169], [-89.111418, 48.476304], [-89.11158, 48.476238], [-89.111795, 48.476354], [-89.111957, 48.476274], [-89.112281, 48.476316], [-89.112658, 48.476218], [-89.11282, 48.476302], [-89.112982, 48.476255], [-89.113683, 48.476266], [-89.114006, 48.476355], [-89.114869, 48.476251], [-89.115354, 48.47607], [-89.115893, 48.476003], [-89.116034, 48.476237], [-89.116036, 48.476487], [-89.115893, 48.476696], [-89.115706, 48.476772], [-89.115672, 48.476951], [-89.115516, 48.477037], [-89.115453, 48.477451], [-89.11557, 48.477514], [-89.115732, 48.477348], [-89.115893, 48.477643], [-89.116433, 48.477653], [-89.116702, 48.477752], [-89.116972, 48.477684], [-89.117403, 48.477869], [-89.117781, 48.477822], [-89.118104, 48.477829], [-89.11832, 48.477897], [-89.119129, 48.47786], [-89.11929, 48.477931], [-89.119722, 48.477898], [-89.11983, 48.477964], [-89.119991, 48.477913], [-89.120207, 48.477998], [-89.120369, 48.477924], [-89.1208, 48.478101], [-89.121178, 48.478169], [-89.121555, 48.478081], [-89.121717, 48.478207], [-89.121879, 48.478051], [-89.121986, 48.478192], [-89.122256, 48.478218], [-89.122741, 48.478129], [-89.124521, 48.478036], [-89.125437, 48.477801], [-89.125923, 48.47778], [-89.126354, 48.47757], [-89.126516, 48.477617], [-89.127379, 48.477418], [-89.12808, 48.477211], [-89.128509, 48.476987], [-89.129967, 48.476585], [-89.131315, 48.47606], [-89.131369, 48.475898], [-89.131746, 48.475808], [-89.132447, 48.475455], [-89.132857, 48.475344], [-89.133148, 48.475138], [-89.133957, 48.474821], [-89.134604, 48.474702], [-89.134927, 48.474561], [-89.13703, 48.473997], [-89.139081, 48.473523], [-89.140456, 48.473095], [-89.14156, 48.472526], [-89.142123, 48.472309], [-89.142586, 48.472023], [-89.143316, 48.471773], [-89.143663, 48.471537], [-89.144795, 48.471086], [-89.145712, 48.47063], [-89.146148, 48.470488], [-89.146952, 48.470069], [-89.147636, 48.469345], [-89.147863, 48.468917], [-89.148369, 48.468274], [-89.148426, 48.467988], [-89.148626, 48.46781], [-89.14861, 48.467595], [-89.14879, 48.467345], [-89.148813, 48.46656], [-89.149001, 48.466375], [-89.149201, 48.466346], [-89.149486, 48.465725], [-89.149702, 48.465579], [-89.150025, 48.465573], [-89.150133, 48.465517], [-89.15055, 48.465131], [-89.150672, 48.46466], [-89.151158, 48.464364], [-89.151859, 48.464182], [-89.152135, 48.463846], [-89.152506, 48.462827], [-89.1531, 48.462131], [-89.153552, 48.461024], [-89.153514, 48.460453], [-89.153111, 48.459631], [-89.1531, 48.459274], [-89.153207, 48.45908], [-89.153854, 48.458726], [-89.154318, 48.45831], [-89.155256, 48.457805], [-89.155771, 48.457381], [-89.155793, 48.456881], [-89.15592, 48.456524], [-89.156095, 48.45631], [-89.156081, 48.456202], [-89.155787, 48.455917], [-89.154932, 48.455681], [-89.154768, 48.455524], [-89.15475, 48.455345], [-89.156272, 48.454845], [-89.157539, 48.453988], [-89.1577, 48.453809], [-89.157788, 48.453559], [-89.157732, 48.453452], [-89.157844, 48.453238], [-89.157736, 48.453017], [-89.157628, 48.453006], [-89.157412, 48.453143], [-89.157305, 48.453136], [-89.157143, 48.452867], [-89.156819, 48.45285], [-89.156273, 48.452702], [-89.155903, 48.452415], [-89.155595, 48.45238], [-89.155471, 48.452277], [-89.155213, 48.451845], [-89.155633, 48.451536], [-89.155849, 48.451485], [-89.156064, 48.451519], [-89.156108, 48.451416], [-89.155874, 48.451202], [-89.155771, 48.450844], [-89.155525, 48.450698], [-89.155363, 48.450365], [-89.155107, 48.450094], [-89.155471, 48.449892], [-89.157024, 48.449487], [-89.157183, 48.448951], [-89.157466, 48.448813], [-89.157692, 48.448594], [-89.15801, 48.448487], [-89.158868, 48.448031], [-89.1593, 48.447888], [-89.159939, 48.447558], [-89.160432, 48.447213], [-89.161456, 48.44691], [-89.162805, 48.446758], [-89.164045, 48.446261], [-89.164692, 48.446225], [-89.165608, 48.445626], [-89.166714, 48.445164], [-89.167226, 48.444754], [-89.167301, 48.444414], [-89.16747, 48.444199], [-89.167496, 48.443664], [-89.167765, 48.443457], [-89.167911, 48.443056]]}}, {"type": "Feature", "properties": {"d": 15}, "geometry": {"type": "LineString", "coordinates": [[-89.115947, 48.476857], [-89.115982, 48.476915], [-89.115893, 48.476993], [-89.115753, 48.476951], [-89.11578, 48.476879], [-89.115947, 48.476857]]}}, {"type": "Feature", "properties": {"d": 20}, "geometry": {"type": "LineString", "coordinates": [[-89.152344, 48.448682], [-89.152775, 48.448709], [-89.153261, 48.448528], [-89.154393, 48.448394], [-89.15509, 48.447879], [-89.155286, 48.447808], [-89.155417, 48.447571], [-89.155525, 48.447577], [-89.156172, 48.447304], [-89.156694, 48.446915], [-89.157305, 48.446668], [-89.157844, 48.446302], [-89.159354, 48.44589], [-89.161079, 48.445317], [-89.161963, 48.444628], [-89.162129, 48.444021], [-89.162464, 48.443413], [-89.162846, 48.443199], [-89.162917, 48.443056]]}}, {"type": "Feature", "properties": {"d": 20}, "geometry": {"type": "LineString", "coordinates": [[-89.151026, 48.450666], [-89.151045, 48.449951], [-89.151535, 48.449829], [-89.151546, 48.449094]]}}, {"type": "Feature", "properties": {"d": 20}, "geometry": {"type": "LineString", "coordinates": [[-89.149069, 48.451764], [-89.149502, 48.452523]]}}, {"type": "Feature", "properties": {"d": 20}, "geometry": {"type": "LineString", "coordinates": [[-89.149764, 48.452488], [-89.149764, 48.451702]]}}, {"type": "Feature", "properties": {"d": 20}, "geometry": {"type": "LineString", "coordinates": [[-89.148778, 48.45263], [-89.148779, 48.451773]]}}, {"type": "Feature", "properties": {"d": 20}, "geometry": {"type": "LineString", "coordinates": [[-89.132209, 48.452809], [-89.132532, 48.453452], [-89.132463, 48.453631], [-89.132717, 48.453806], [-89.133202, 48.453818], [-89.133709, 48.453466]]}}, {"type": "Feature", "properties": {"d": 20}, "geometry": {"type": "LineString", "coordinates": [[-89.126589, 48.45301], [-89.127113, 48.453235]]}}, {"type": "Feature", "properties": {"d": 20}, "geometry": {"type": "LineString", "coordinates": [[-89.134851, 48.453738], [-89.134851, 48.454559]]}}, {"type": "Feature", "properties": {"d": 20}, "geometry": {"type": "LineString", "coordinates": [[-89.125983, 48.453849], [-89.126267, 48.453702], [-89.126282, 48.453023]]}}, {"type": "Feature", "properties": {"d": 20}, "geometry": {"type": "LineString", "coordinates": [[-89.149394, 48.453941], [-89.149104, 48.453309]]}}, {"type": "Feature", "properties": {"d": 20}, "geometry": {"type": "LineString", "coordinates": [[-89.1304, 48.454452], [-89.130075, 48.454439], [-89.12996, 48.454488], [-89.12993, 48.454702], [-89.130021, 48.454817], [-89.130527, 48.454738], [-89.1304, 48.454452]]}}, {"type": "Feature", "properties": {"d": 20}, "geometry": {"type": "LineString", "coordinates": [[-89.123298, 48.454702], [-89.123712, 48.454154], [-89.124044, 48.454095], [-89.124629, 48.453838]]}}, {"type": "Feature", "properties": {"d": 20}, "geometry": {"type": "LineString", "coordinates": [[-89.130908, 48.455079], [-89.130075, 48.455084], [-89.129589, 48.455255], [-89.128996, 48.455366], [-89.128824, 48.455309], [-89.128511, 48.455039], [-89.128241, 48.454943], [-89.128026, 48.455145], [-89.127486, 48.455171], [-89.127163, 48.455305], [-89.126785, 48.455274], [-89.126138, 48.455463], [-89.125706, 48.455346]]}}, {"type": "Feature", "properties": {"d": 20}, "geometry": {"type": "LineString", "coordinates": [[-89.125334, 48.45542], [-89.12479, 48.455513], [-89.124683, 48.455022], [-89.123978, 48.455235]]}}, {"type": "Feature", "properties": {"d": 20}, "geometry": {"type": "LineString", "coordinates": [[-89.12107, 48.455478], [-89.122364, 48.455477]]}}, {"type": "Feature", "properties": {"d": 20}, "geometry": {"type": "LineString", "coordinates": [[-89.150457, 48.455883], [-89.14927, 48.455882]]}}, {"type": "Feature", "properties": {"d": 20}, "geometry": {"type": "LineString", "coordinates": [[-89.149614, 48.459395], [-89.149614, 48.458939]]}}, {"type": "Feature", "properties": {"d": 20}, "geometry": {"type": "LineString", "coordinates": [[-89.149917, 48.461054], [-89.149917, 48.460673]]}}, {"type": "Feature", "properties": {"d": 20}, "geometry": {"type": "LineString", "coordinates": [[-89.148284, 48.462014], [-89.148084, 48.461287], [-89.148839, 48.461096], [-89.149378, 48.461257], [-89.149711, 48.461232]]}}, {"type": "Feature", "properties": {"d": 20}, "geometry": {"type": "LineString", "coordinates": [[-89.147989, 48.462695], [-89.148048, 48.462322]]}}, {"type": "Feature", "properties": {"d": 20}, "geometry": {"type": "LineString", "coordinates": [[-89.148194, 48.464096], [-89.148138, 48.464182], [-89.148354, 48.464247], [-89.148246, 48.464131], [-89.148194, 48.464096]]}}, {"type": "Feature", "properties": {"d": 20}, "geometry": {"type": "LineString", "coordinates": [[-89.144004, 48.465512], [-89.143879, 48.465274], [-89.143916, 48.465203], [-89.144565, 48.464774], [-89.144625, 48.464596], [-89.145324, 48.464346], [-89.145396, 48.46406], [-89.145691, 48.463868]]}}, {"type": "Feature", "properties": {"d": 20}, "geometry": {"type": "LineString", "coordinates": [[-89.142908, 48.465743], [-89.143936, 48.465598]]}}, {"type": "Feature", "properties": {"d": 20}, "geometry": {"type": "LineString", "coordinates": [[-89.142716, 48.466222], [-89.142673, 48.465953], [-89.142746, 48.465782]]}}, {"type": "Feature", "properties": {"d": 20}, "geometry": {"type": "LineString", "coordinates": [[-89.140789, 48.46862], [-89.141236, 48.468357], [-89.141775, 48.468345], [-89.142099, 48.468203]]}}, {"type": "Feature", "properties": {"d": 20}, "geometry": {"type": "LineString", "coordinates": [[-89.139805, 48.469469], [-89.140158, 48.469594], [-89.140427, 48.469476], [-89.140791, 48.469426]]}}, {"type": "Feature", "properties": {"d": 20}, "geometry": {"type": "LineString", "coordinates": [[-89.130182, 48.469689], [-89.130212, 48.469881], [-89.130182, 48.470056], [-89.12983, 48.469809], [-89.130182, 48.469689]]}}, {"type": "Feature", "properties": {"d": 20}, "geometry": {"type": "LineString", "coordinates": [[-89.137692, 48.47039], [-89.138036, 48.469904]]}}, {"type": "Feature", "properties": {"d": 20}, "geometry": {"type": "LineString", "coordinates": [[-89.134119, 48.470921], [-89.134622, 48.471238], [-89.134947, 48.471297]]}}, {"type": "Feature", "properties": {"d": 20}, "geometry": {"type": "LineString", "coordinates": [[-89.126712, 48.471845], [-89.126893, 48.471716], [-89.127522, 48.471559], [-89.127785, 48.471166], [-89.128156, 48.471003]]}}, {"type": "Feature", "properties": {"d": 20}, "geometry": {"type": "LineString", "coordinates": [[-89.119344, 48.472568], [-89.11971, 48.472202]]}}, {"type": "Feature", "properties": {"d": 20}, "geometry": {"type": "LineString", "coordinates": [[-89.11348, 48.47321], [-89.114209, 48.47321]]}}, {"type": "Feature", "properties": {"d": 20}, "geometry": {"type": "LineString", "coordinates": [[-89.110987, 48.473221], [-89.112173, 48.473221]]}}, {"type": "Feature", "properties": {"d": 25}, "geometry": {"type": "LineString", "coordinates": [[-89.140177, 48.443176], [-89.139938, 48.443702]]}}, {"type": "Feature", "properties": {"d": 25}, "geometry": {"type": "LineString", "coordinates": [[-89.138163, 48.443416], [-89.136986, 48.443706]]}}, {"type": "Feature", "properties": {"d": 25}, "geometry": {"type": "LineString", "coordinates": [[-89.132244, 48.444584], [-89.132247, 48.444128], [-89.132933, 48.443878]]}}, {"type": "Feature", "properties": {"d": 25}, "geometry": {"type": "LineString", "coordinates": [[-89.14403, 48.444706], [-89.143173, 48.444625]]}}, {"type": "Feature", "properties": {"d": 25}, "geometry": {"type": "LineString", "coordinates": [[-89.136557, 48.444906], [-89.136555, 48.445385]]}}, {"type": "Feature", "properties": {"d": 25}, "geometry": {"type": "LineString", "coordinates": [[-89.126411, 48.445021], [-89.126411, 48.445736]]}}, {"type": "Feature", "properties": {"d": 25}, "geometry": {"type": "LineString", "coordinates": [[-89.126726, 48.445839], [-89.127197, 48.445629], [-89.127216, 48.444985]]}}, {"type": "Feature", "properties": {"d": 25}, "geometry": {"type": "LineString", "coordinates": [[-89.120698, 48.445875], [-89.121393, 48.445757], [-89.121864, 48.445924]]}}, {"type": "Feature", "properties": {"d": 25}, "geometry": {"type": "LineString", "coordinates": [[-89.11832, 48.446311], [-89.119352, 48.446767]]}}, {"type": "Feature", "properties": {"d": 25}, "geometry": {"type": "LineString", "coordinates": [[-89.147011, 48.44649], [-89.147011, 48.446054]]}}, {"type": "Feature", "properties": {"d": 25}, "geometry": {"type": "LineString", "coordinates": [[-89.116702, 48.446837], [-89.11552, 48.447096]]}}, {"type": "Feature", "properties": {"d": 25}, "geometry": {"type": "LineString", "coordinates": [[-89.132296, 48.447194], [-89.132296, 48.447636]]}}, {"type": "Feature", "properties": {"d": 25}, "geometry": {"type": "LineString", "coordinates": [[-89.113707, 48.447395], [-89.113652, 48.447058], [-89.113777, 48.446745]]}}, {"type": "Feature", "properties": {"d": 25}, "geometry": {"type": "LineString", "coordinates": [[-89.128876, 48.448165], [-89.128876, 48.448951]]}}, {"type": "Feature", "properties": {"d": 25}, "geometry": {"type": "LineString", "coordinates": [[-89.110717, 48.448165], [-89.111052, 48.447673]]}}, {"type": "Feature", "properties": {"d": 25}, "geometry": {"type": "LineString", "coordinates": [[-89.130031, 48.450266], [-89.130031, 48.450708]]}}, {"type": "Feature", "properties": {"d": 25}, "geometry": {"type": "LineString", "coordinates": [[-89.12204, 48.450247], [-89.121016, 48.450082], [-89.1207, 48.450349]]}}, {"type": "Feature", "properties": {"d": 25}, "geometry": {"type": "LineString", "coordinates": [[-89.141506, 48.450415], [-89.1428, 48.450379]]}}, {"type": "Feature", "properties": {"d": 25}, "geometry": {"type": "LineString", "coordinates": [[-89.120271, 48.450695], [-89.119389, 48.450695]]}}, {"type": "Feature", "properties": {"d": 25}, "geometry": {"type": "LineString", "coordinates": [[-89.119237, 48.451372], [-89.120423, 48.451372]]}}, {"type": "Feature", "properties": {"d": 25}, "geometry": {"type": "LineString", "coordinates": [[-89.124479, 48.451452], [-89.124898, 48.451945], [-89.12506, 48.451985], [-89.125491, 48.451876], [-89.125886, 48.452334]]}}, {"type": "Feature", "properties": {"d": 25}, "geometry": {"type": "LineString", "coordinates": [[-89.11641, 48.451472], [-89.115933, 48.45163], [-89.116277, 48.452309]]}}, {"type": "Feature", "properties": {"d": 25}, "geometry": {"type": "LineString", "coordinates": [[-89.120423, 48.451703], [-89.120153, 48.451744], [-89.119183, 48.451534]]}}, {"type": "Feature", "properties": {"d": 25}, "geometry": {"type": "LineString", "coordinates": [[-89.12647, 48.4521], [-89.12647, 48.451661]]}}, {"type": "Feature", "properties": {"d": 25}, "geometry": {"type": "LineString", "coordinates": [[-89.11929, 48.452616], [-89.120261, 48.452615], [-89.120945, 48.452477]]}}, {"type": "Feature", "properties": {"d": 25}, "geometry": {"type": "LineString", "coordinates": [[-89.114316, 48.453559], [-89.11471, 48.452775]]}}, {"type": "Feature", "properties": {"d": 25}, "geometry": {"type": "LineString", "coordinates": [[-89.11915, 48.453724], [-89.119147, 48.453179]]}}, {"type": "Feature", "properties": {"d": 25}, "geometry": {"type": "LineString", "coordinates": [[-89.119875, 48.455345], [-89.119452, 48.45532], [-89.119452, 48.455477], [-89.11983, 48.455638], [-89.119875, 48.455345]]}}, {"type": "Feature", "properties": {"d": 25}, "geometry": {"type": "LineString", "coordinates": [[-89.12107, 48.455349], [-89.122364, 48.455349]]}}, {"type": "Feature", "properties": {"d": 25}, "geometry": {"type": "LineString", "coordinates": [[-89.110663, 48.456559], [-89.111186, 48.456335]]}}, {"type": "Feature", "properties": {"d": 25}, "geometry": {"type": "LineString", "coordinates": [[-89.135206, 48.457232], [-89.134134, 48.457391]]}}, {"type": "Feature", "properties": {"d": 25}, "geometry": {"type": "LineString", "coordinates": [[-89.124449, 48.458048], [-89.123982, 48.45881]]}}, {"type": "Feature", "properties": {"d": 25}, "geometry": {"type": "LineString", "coordinates": [[-89.123632, 48.458774], [-89.123404, 48.458085]]}}, {"type": "Feature", "properties": {"d": 25}, "geometry": {"type": "LineString", "coordinates": [[-89.120131, 48.458896], [-89.119398, 48.458893], [-89.119225, 48.458945]]}}, {"type": "Feature", "properties": {"d": 25}, "geometry": {"type": "LineString", "coordinates": [[-89.127529, 48.459032], [-89.126732, 48.458495], [-89.126155, 48.458928]]}}, {"type": "Feature", "properties": {"d": 25}, "geometry": {"type": "LineString", "coordinates": [[-89.138648, 48.463144], [-89.137666, 48.46366]]}}, {"type": "Feature", "properties": {"d": 25}, "geometry": {"type": "LineString", "coordinates": [[-89.13609, 48.466203], [-89.135761, 48.465596], [-89.136486, 48.465346]]}}, {"type": "Feature", "properties": {"d": 25}, "geometry": {"type": "LineString", "coordinates": [[-89.133741, 48.46709], [-89.134388, 48.466851], [-89.135089, 48.466986]]}}, {"type": "Feature", "properties": {"d": 25}, "geometry": {"type": "LineString", "coordinates": [[-89.131752, 48.469877], [-89.131751, 48.470313]]}}, {"type": "Feature", "properties": {"d": 25}, "geometry": {"type": "LineString", "coordinates": [[-89.132947, 48.470229], [-89.132909, 48.470024], [-89.132825, 48.46997], [-89.131865, 48.469802]]}}, {"type": "Feature", "properties": {"d": 25}, "geometry": {"type": "LineString", "coordinates": [[-89.11554, 48.470397], [-89.116379, 48.470104], [-89.11695, 48.470417]]}}, {"type": "Feature", "properties": {"d": 25}, "geometry": {"type": "LineString", "coordinates": [[-89.113144, 48.471095], [-89.113422, 48.470345]]}}, {"type": "Feature", "properties": {"d": 25}, "geometry": {"type": "LineString", "coordinates": [[-89.110917, 48.471977], [-89.111418, 48.471764], [-89.112173, 48.471755]]}}, {"type": "Feature", "properties": {"w": 1}, "geometry": {"type": "Polygon", "coordinates": [[[-89.162926, 48.470033], [-89.163869, 48.469372], [-89.164287, 48.46897], [-89.164179, 48.468827], [-89.1636, 48.469104], [-89.162548, 48.469801], [-89.162131, 48.470202], [-89.162346, 48.470309], [-89.162926, 48.470033]]]}}, {"type": "Feature", "properties": {"w": 1}, "geometry": {"type": "Polygon", "coordinates": [[[-89.170704, 48.461917], [-89.17092, 48.46131], [-89.170987, 48.460917], [-89.170906, 48.460739], [-89.170677, 48.460774], [-89.170299, 48.461024], [-89.170111, 48.461355], [-89.170111, 48.461765], [-89.170232, 48.462033], [-89.170475, 48.462158], [-89.170704, 48.461917]]]}}, {"type": "Feature", "properties": {"w": 1}, "geometry": {"type": "Polygon", "coordinates": [[[-89.185613, 48.453809], [-89.185451, 48.453559], [-89.185209, 48.453372], [-89.184885, 48.453247], [-89.18471, 48.452988], [-89.184683, 48.452595], [-89.184467, 48.452452], [-89.184063, 48.452559], [-89.184211, 48.452934], [-89.184912, 48.453577], [-89.18537, 48.453907], [-89.185586, 48.453925], [-89.185613, 48.453809]]]}}, {"type": "Feature", "properties": {"w": 1}, "geometry": {"type": "Polygon", "coordinates": [[[-89.111701, 48.487759], [-89.114262, 48.487563], [-89.117147, 48.48717], [-89.120355, 48.486581], [-89.122094, 48.486322], [-89.122364, 48.486394], [-89.123213, 48.486304], [-89.124642, 48.486055], [-89.126651, 48.485546], [-89.129239, 48.484778], [-89.130654, 48.484296], [-89.130897, 48.4841], [-89.130924, 48.483832], [-89.130735, 48.483493], [-89.130668, 48.483154], [-89.130722, 48.482815], [-89.13087, 48.482672], [-89.131113, 48.482726], [-89.131746, 48.48261], [-89.132771, 48.482324], [-89.133741, 48.48219], [-89.134658, 48.482208], [-89.135494, 48.482146], [-89.136249, 48.482003], [-89.137219, 48.481913], [-89.138405, 48.481878], [-89.139457, 48.481753], [-89.140373, 48.481539], [-89.141155, 48.481271], [-89.141802, 48.48095], [-89.142085, 48.480557], [-89.142005, 48.480093], [-89.142045, 48.479771], [-89.142207, 48.479593], [-89.142854, 48.479388], [-89.143986, 48.479156], [-89.145968, 48.478584], [-89.148799, 48.477674], [-89.150389, 48.477058], [-89.15074, 48.476737], [-89.150982, 48.476362], [-89.151117, 48.475933], [-89.151535, 48.475487], [-89.152236, 48.475023], [-89.152883, 48.474764], [-89.153476, 48.47471], [-89.153908, 48.474603], [-89.154177, 48.474443], [-89.154433, 48.474175], [-89.154676, 48.4738], [-89.154716, 48.473407], [-89.154555, 48.472996], [-89.154568, 48.472666], [-89.154757, 48.472416], [-89.154919, 48.472354], [-89.155053, 48.472479], [-89.155188, 48.472523], [-89.155323, 48.472488], [-89.155606, 48.472782], [-89.156037, 48.473407], [-89.156401, 48.473693], [-89.156698, 48.473639], [-89.156536, 48.473175], [-89.155916, 48.4723], [-89.155593, 48.471702], [-89.155566, 48.471381], [-89.155714, 48.471175], [-89.156037, 48.471086], [-89.156347, 48.471256], [-89.156644, 48.471684], [-89.156968, 48.471916], [-89.157318, 48.471952], [-89.157372, 48.472032], [-89.157129, 48.472157], [-89.157143, 48.472407], [-89.157412, 48.472782], [-89.157709, 48.473005], [-89.158033, 48.473077], [-89.158437, 48.473005], [-89.158922, 48.472791], [-89.159205, 48.472613], [-89.159286, 48.47247], [-89.159165, 48.472488], [-89.158841, 48.472666], [-89.158518, 48.472764], [-89.158194, 48.472782], [-89.157898, 48.472622], [-89.157628, 48.472282], [-89.158356, 48.471773], [-89.160082, 48.471095], [-89.161942, 48.469943], [-89.163937, 48.468319], [-89.165083, 48.467551], [-89.165379, 48.46764], [-89.165622, 48.467658], [-89.165811, 48.467604], [-89.166458, 48.466899], [-89.167563, 48.465542], [-89.168318, 48.464381], [-89.168722, 48.463417], [-89.169032, 48.462497], [-89.169248, 48.461622], [-89.169288, 48.461096], [-89.169154, 48.460917], [-89.169032, 48.460274], [-89.168925, 48.459167], [-89.168426, 48.45814], [-89.167536, 48.457194], [-89.166687, 48.456586], [-89.165878, 48.456319], [-89.165447, 48.456131], [-89.165393, 48.456024], [-89.165945, 48.456006], [-89.167105, 48.456077], [-89.167806, 48.456033], [-89.168048, 48.455872], [-89.168156, 48.455667], [-89.168129, 48.455417], [-89.168291, 48.455443], [-89.168641, 48.455747], [-89.169019, 48.455908], [-89.169423, 48.455926], [-89.169679, 48.455872], [-89.169787, 48.455747], [-89.169693, 48.455711], [-89.169396, 48.455765], [-89.169181, 48.455783], [-89.169046, 48.455765], [-89.169208, 48.455702], [-89.169666, 48.455595], [-89.169989, 48.455586], [-89.170178, 48.455676], [-89.170259, 48.455506], [-89.170232, 48.455077], [-89.170259, 48.455104], [-89.17034, 48.455586], [-89.170879, 48.455783], [-89.171877, 48.455693], [-89.172416, 48.455595], [-89.172497, 48.455488], [-89.172214, 48.45547], [-89.171567, 48.455542], [-89.171162, 48.455568], [-89.171, 48.455551], [-89.171337, 48.455479], [-89.172173, 48.455354], [-89.172591, 48.455167], [-89.172591, 48.454917], [-89.172537, 48.4548], [-89.172429, 48.454818], [-89.172295, 48.454818], [-89.172133, 48.4548], [-89.172187, 48.454765], [-89.172456, 48.454711], [-89.172551, 48.454568], [-89.17247, 48.454336], [-89.172537, 48.454166], [-89.172753, 48.454059], [-89.172942, 48.454024], [-89.173103, 48.454059], [-89.173386, 48.454345], [-89.173791, 48.454881], [-89.174168, 48.455184], [-89.174519, 48.455256], [-89.175098, 48.455247], [-89.175907, 48.455158], [-89.176325, 48.455033], [-89.176352, 48.454872], [-89.176487, 48.4548], [-89.17673, 48.454818], [-89.177026, 48.454729], [-89.177377, 48.454533], [-89.177754, 48.453943], [-89.178158, 48.452961], [-89.178725, 48.4523], [-89.179453, 48.451961], [-89.179897, 48.451639], [-89.180059, 48.451336], [-89.180221, 48.451184], [-89.180383, 48.451184], [-89.180477, 48.451237], [-89.180504, 48.451344], [-89.180315, 48.451907], [-89.179911, 48.452925], [-89.17979, 48.453461], [-89.179951, 48.453515], [-89.180288, 48.452988], [-89.180801, 48.45188], [-89.181191, 48.451362], [-89.181461, 48.451434], [-89.182445, 48.451291], [-89.184144, 48.450934], [-89.185087, 48.450675], [-89.185276, 48.450514], [-89.184508, 48.44971], [-89.182782, 48.448263], [-89.182095, 48.447468], [-89.182445, 48.447326], [-89.182796, 48.447388], [-89.183146, 48.447656], [-89.183604, 48.447745], [-89.184171, 48.447656], [-89.184791, 48.447906], [-89.185465, 48.448496], [-89.185802, 48.448576], [-89.185802, 48.448147], [-89.185343, 48.447585], [-89.184427, 48.446888], [-89.184278, 48.44637], [-89.184899, 48.44603], [-89.185357, 48.445941], [-89.185653, 48.446102], [-89.185734, 48.446066], [-89.1856, 48.445834], [-89.1856, 48.445664], [-89.185734, 48.445557], [-89.185802, 48.444887], [-89.185802, 48.443655], [-89.166929, 48.443038], [-89.129185, 48.443038], [-89.11034, 48.454247], [-89.110394, 48.476656], [-89.111701, 48.487759]], [[-89.169895, 48.455381], [-89.169787, 48.455274], [-89.169639, 48.455229], [-89.16945, 48.455247], [-89.169396, 48.455211], [-89.169477, 48.455122], [-89.169464, 48.455042], [-89.169356, 48.45497], [-89.169437, 48.454908], [-89.169706, 48.454854], [-89.169868, 48.454979], [-89.169922, 48.455283], [-89.169895, 48.455381]]]}}]}