{"type": "FeatureCollection", "features": [{"type": "Feature", "properties": {"d": 2}, "geometry": {"type": "LineString", "coordinates": [[-89.192244, 48.309001], [-89.191746, 48.309682], [-89.191373, 48.309983], [-89.191157, 48.310047], [-89.191001, 48.310004], [-89.190959, 48.309933], [-89.190999, 48.309718], [-89.190834, 48.30961], [-89.190941, 48.309496], [-89.190402, 48.30948], [-89.190294, 48.30942], [-89.190253, 48.309216], [-89.190671, 48.309001]]}}, {"type": "Feature", "properties": {"d": 2}, "geometry": {"type": "LineString", "coordinates": [[-89.191157, 48.311288], [-89.191038, 48.311473], [-89.190702, 48.311652], [-89.190464, 48.311903], [-89.190294, 48.311968], [-89.190133, 48.311957], [-89.189971, 48.311566], [-89.190402, 48.311502], [-89.190834, 48.311296], [-89.191157, 48.311288]]}}, {"type": "Feature", "properties": {"d": 2}, "geometry": {"type": "LineString", "coordinates": [[-89.204523, 48.335427], [-89.204395, 48.335503], [-89.204206, 48.335803], [-89.203451, 48.335824], [-89.203235, 48.335955], [-89.202223, 48.335574], [-89.202804, 48.335217], [-89.203289, 48.335205], [-89.203368, 48.334858], [-89.203451, 48.334795], [-89.204152, 48.334628], [-89.204637, 48.334701], [-89.204987, 48.334572], [-89.205011, 48.3345], [-89.204745, 48.334467], [-89.204564, 48.334357], [-89.204148, 48.333426], [-89.203613, 48.332736], [-89.203074, 48.332416], [-89.202516, 48.33228], [-89.202211, 48.332115], [-89.201447, 48.33203], [-89.201339, 48.331887], [-89.201132, 48.331841], [-89.200755, 48.331515], [-89.2, 48.331389], [-89.199712, 48.33117], [-89.199829, 48.330956], [-89.199838, 48.330506], [-89.199245, 48.330393], [-89.199186, 48.330311], [-89.199245, 48.330152], [-89.199838, 48.329756], [-89.2, 48.329463], [-89.200359, 48.329308], [-89.201345, 48.328592], [-89.201583, 48.32827], [-89.201788, 48.327518], [-89.202013, 48.327088], [-89.202106, 48.325155], [-89.201999, 48.324044], [-89.202045, 48.321788], [-89.202122, 48.320785], [-89.202263, 48.320141], [-89.202302, 48.319138], [-89.202003, 48.31749], [-89.201607, 48.316165], [-89.200485, 48.315381], [-89.199946, 48.314632], [-89.199872, 48.31398], [-89.19973, 48.313894], [-89.199353, 48.313319], [-89.199083, 48.313177], [-89.198922, 48.313169], [-89.198328, 48.313371], [-89.198149, 48.31355], [-89.198005, 48.313589], [-89.197921, 48.31355], [-89.198055, 48.313264], [-89.19849, 48.313026], [-89.198652, 48.312798], [-89.197681, 48.312203], [-89.197304, 48.311871], [-89.197131, 48.311473], [-89.197044, 48.310649], [-89.197093, 48.310506], [-89.197466, 48.31011], [-89.197983, 48.309001]]}}, {"type": "Feature", "properties": {"d": 2}, "geometry": {"type": "LineString", "coordinates": [[-89.206428, 48.337193], [-89.20701, 48.33667]]}}, {"type": "Feature", "properties": {"d": 2}, "geometry": {"type": "LineString", "coordinates": [[-89.203179, 48.337221], [-89.202964, 48.336792], [-89.202959, 48.336398]]}}, {"type": "Feature", "properties": {"d": 2}, "geometry": {"type": "LineString", "coordinates": [[-89.203415, 48.337961], [-89.203997, 48.338183]]}}, {"type": "Feature", "properties": {"d": 2}, "geometry": {"type": "LineString", "coordinates": [[-89.205108, 48.338116], [-89.205115, 48.337472], [-89.205421, 48.33724]]}}, {"type": "Feature", "properties": {"d": 2}, "geometry": {"type": "LineString", "coordinates": [[-89.20424, 48.339142], [-89.203613, 48.339386], [-89.203289, 48.339348], [-89.203208, 48.339047], [-89.203397, 48.338949], [-89.203505, 48.338636], [-89.20302, 48.338609], [-89.202898, 48.338367], [-89.203007, 48.338116], [-89.203331, 48.337965]]}}, {"type": "Feature", "properties": {"d": 2}, "geometry": {"type": "LineString", "coordinates": [[-89.203936, 48.33943], [-89.203973, 48.339548], [-89.203877, 48.339763], [-89.204128, 48.340014], [-89.203721, 48.340177], [-89.203343, 48.340127], [-89.203659, 48.339763], [-89.20358, 48.339656], [-89.203622, 48.339477], [-89.203721, 48.339418], [-89.203936, 48.33943]]}}, {"type": "Feature", "properties": {"d": 2}, "geometry": {"type": "LineString", "coordinates": [[-89.20852, 48.340515], [-89.20798, 48.340264], [-89.207819, 48.340246], [-89.207603, 48.340034], [-89.207837, 48.339548], [-89.207484, 48.339226]]}}, {"type": "Feature", "properties": {"d": 2}, "geometry": {"type": "LineString", "coordinates": [[-89.204475, 48.340846], [-89.203721, 48.340738], [-89.203802, 48.340622], [-89.203721, 48.340332], [-89.203774, 48.3403], [-89.203965, 48.340408], [-89.204206, 48.340701], [-89.20452, 48.340808]]}}, {"type": "Feature", "properties": {"d": 2}, "geometry": {"type": "LineString", "coordinates": [[-89.204314, 48.341256], [-89.204529, 48.341688], [-89.203688, 48.341696], [-89.203828, 48.3414], [-89.204314, 48.341256]]}}, {"type": "Feature", "properties": {"d": 2}, "geometry": {"type": "LineString", "coordinates": [[-89.207004, 48.34137], [-89.206471, 48.341641], [-89.20595, 48.341589], [-89.205921, 48.341517], [-89.206206, 48.341124], [-89.205678, 48.341088], [-89.2055, 48.340909], [-89.205503, 48.340837], [-89.205977, 48.340622], [-89.205428, 48.340085], [-89.205429, 48.340014], [-89.206039, 48.339911], [-89.206524, 48.340007], [-89.206653, 48.340157], [-89.206572, 48.340511]]}}, {"type": "Feature", "properties": {"d": 2}, "geometry": {"type": "LineString", "coordinates": [[-89.204863, 48.341882], [-89.204745, 48.342364], [-89.204054, 48.342341], [-89.204044, 48.342147], [-89.20426, 48.341896], [-89.204583, 48.341769], [-89.204853, 48.341856]]}}, {"type": "Feature", "properties": {"d": 2}, "geometry": {"type": "LineString", "coordinates": [[-89.20922, 48.342052], [-89.209031, 48.341947], [-89.208701, 48.341482]]}}, {"type": "Feature", "properties": {"d": 2}, "geometry": {"type": "LineString", "coordinates": [[-89.208372, 48.342341], [-89.209206, 48.342243]]}}, {"type": "Feature", "properties": {"d": 2}, "geometry": {"type": "LineString", "coordinates": [[-89.204637, 48.34258], [-89.204745, 48.342853], [-89.205176, 48.342916], [-89.205495, 48.343236], [-89.204628, 48.343236], [-89.204583, 48.343057], [-89.204256, 48.342914], [-89.204162, 48.342699], [-89.204637, 48.34258]]}}, {"type": "Feature", "properties": {"d": 2}, "geometry": {"type": "LineString", "coordinates": [[-89.20701, 48.343437], [-89.208304, 48.343425]]}}, {"type": "Feature", "properties": {"d": 2}, "geometry": {"type": "LineString", "coordinates": [[-89.205538, 48.343533], [-89.205554, 48.343242], [-89.206201, 48.342965], [-89.206471, 48.343006], [-89.20683, 48.343391]]}}, {"type": "Feature", "properties": {"d": 2}, "geometry": {"type": "LineString", "coordinates": [[-89.206728, 48.343586], [-89.205915, 48.343748]]}}, {"type": "Feature", "properties": {"d": 2}, "geometry": {"type": "LineString", "coordinates": [[-89.20426, 48.343944], [-89.204348, 48.343988], [-89.204359, 48.344238], [-89.204174, 48.344525], [-89.204196, 48.344775], [-89.203802, 48.34499], [-89.203861, 48.345312], [-89.203505, 48.345417], [-89.203368, 48.34524], [-89.203679, 48.344954], [-89.203661, 48.344739], [-89.203789, 48.344417], [-89.203954, 48.344274], [-89.203999, 48.344023], [-89.20426, 48.343944]]}}, {"type": "Feature", "properties": {"d": 2}, "geometry": {"type": "LineString", "coordinates": [[-89.202966, 48.347341], [-89.202506, 48.34771], [-89.20237, 48.348068], [-89.202412, 48.348176], [-89.202232, 48.348319], [-89.202103, 48.34867], [-89.201995, 48.348679], [-89.201672, 48.348517], [-89.201632, 48.348391], [-89.201672, 48.348304], [-89.201853, 48.348247], [-89.201887, 48.348096], [-89.202233, 48.348068], [-89.201963, 48.347746], [-89.202315, 48.347675], [-89.202123, 48.347424], [-89.202503, 48.347317], [-89.202411, 48.347173], [-89.202534, 48.346834], [-89.202696, 48.346834], [-89.202858, 48.346937], [-89.20302, 48.347173]]}}, {"type": "Feature", "properties": {"d": 2}, "geometry": {"type": "LineString", "coordinates": [[-89.203192, 48.350288], [-89.203074, 48.350686], [-89.202966, 48.350565], [-89.202588, 48.350615], [-89.202426, 48.350542], [-89.202049, 48.35053], [-89.201672, 48.350424], [-89.201564, 48.35012], [-89.201132, 48.350287], [-89.201074, 48.350144], [-89.201334, 48.349858], [-89.200993, 48.349679], [-89.200946, 48.349572], [-89.201456, 48.34952], [-89.201618, 48.349584]]}}, {"type": "Feature", "properties": {"d": 2}, "geometry": {"type": "LineString", "coordinates": [[-89.204136, 48.350492], [-89.20399, 48.35069], [-89.203721, 48.350836], [-89.203671, 48.350395]]}}, {"type": "Feature", "properties": {"d": 2}, "geometry": {"type": "LineString", "coordinates": [[-89.206572, 48.351071], [-89.206471, 48.351486], [-89.206363, 48.351526], [-89.206201, 48.351428], [-89.205513, 48.35129], [-89.205481, 48.35086]]}}, {"type": "Feature", "properties": {"d": 2}, "geometry": {"type": "LineString", "coordinates": [[-89.207517, 48.351269], [-89.207225, 48.351577], [-89.207235, 48.351218]]}}, {"type": "Feature", "properties": {"d": 2}, "geometry": {"type": "LineString", "coordinates": [[-89.221324, 48.351846], [-89.221361, 48.352113], [-89.221299, 48.352174], [-89.220921, 48.352188], [-89.220752, 48.352118]]}}, {"type": "Feature", "properties": {"d": 2}, "geometry": {"type": "LineString", "coordinates": [[-89.223247, 48.351862], [-89.222809, 48.351889], [-89.222701, 48.351719]]}}, {"type": "Feature", "properties": {"d": 2}, "geometry": {"type": "LineString", "coordinates": [[-89.209871, 48.351898], [-89.209706, 48.352087], [-89.209436, 48.352163], [-89.209274, 48.35199], [-89.209005, 48.352043], [-89.208897, 48.35187], [-89.20852, 48.35199], [-89.208471, 48.35154]]}}, {"type": "Feature", "properties": {"d": 2}, "geometry": {"type": "LineString", "coordinates": [[-89.211108, 48.352113], [-89.210939, 48.352328], [-89.210569, 48.35247], [-89.210483, 48.352399], [-89.210476, 48.352006]]}}, {"type": "Feature", "properties": {"d": 2}, "geometry": {"type": "LineString", "coordinates": [[-89.22022, 48.3526], [-89.220274, 48.352721], [-89.22022, 48.352806], [-89.220155, 48.352721], [-89.22022, 48.3526]]}}, {"type": "Feature", "properties": {"d": 2}, "geometry": {"type": "LineString", "coordinates": [[-89.213309, 48.352686], [-89.213157, 48.352881], [-89.212887, 48.352976], [-89.212821, 48.352972], [-89.212725, 48.352691], [-89.212294, 48.352903], [-89.212257, 48.35265], [-89.212341, 48.352471]]}}, {"type": "Feature", "properties": {"d": 2}, "geometry": {"type": "LineString", "coordinates": [[-89.219327, 48.352778], [-89.219291, 48.353044], [-89.218926, 48.353098], [-89.218603, 48.353244], [-89.21845, 48.353181]]}}, {"type": "Feature", "properties": {"d": 2}, "geometry": {"type": "LineString", "coordinates": [[-89.214019, 48.352766], [-89.213642, 48.352776], [-89.213328, 48.352686]]}}, {"type": "Feature", "properties": {"d": 2}, "geometry": {"type": "LineString", "coordinates": [[-89.217128, 48.353676], [-89.217062, 48.353795], [-89.216877, 48.353836], [-89.216561, 48.353759], [-89.216446, 48.353675], [-89.216068, 48.353796], [-89.215691, 48.353709], [-89.215584, 48.353616], [-89.215574, 48.353258]]}}, {"type": "Feature", "properties": {"d": 2}, "geometry": {"type": "LineString", "coordinates": [[-89.235365, 48.354802], [-89.235049, 48.35478], [-89.234658, 48.354583]]}}, {"type": "Feature", "properties": {"d": 2}, "geometry": {"type": "LineString", "coordinates": [[-89.211323, 48.355383], [-89.212024, 48.355736], [-89.212564, 48.35552], [-89.212941, 48.355547], [-89.213461, 48.35549]]}}, {"type": "Feature", "properties": {"d": 2}, "geometry": {"type": "LineString", "coordinates": [[-89.214019, 48.355604], [-89.214397, 48.355553], [-89.215152, 48.355714], [-89.215735, 48.355656], [-89.216122, 48.355788], [-89.216383, 48.355984]]}}, {"type": "Feature", "properties": {"d": 2}, "geometry": {"type": "LineString", "coordinates": [[-89.218818, 48.355869], [-89.219184, 48.355978], [-89.219267, 48.356014], [-89.218818, 48.356088], [-89.218537, 48.355907], [-89.218603, 48.355854], [-89.218818, 48.355869]]}}, {"type": "Feature", "properties": {"d": 2}, "geometry": {"type": "LineString", "coordinates": [[-89.219358, 48.356047], [-89.219558, 48.356122], [-89.219657, 48.356193], [-89.219519, 48.356198], [-89.219302, 48.35605], [-89.219358, 48.356047]]}}, {"type": "Feature", "properties": {"d": 2}, "geometry": {"type": "LineString", "coordinates": [[-89.217244, 48.356222], [-89.217848, 48.355864], [-89.217861, 48.356086], [-89.218314, 48.3563], [-89.21848, 48.356704]]}}, {"type": "Feature", "properties": {"d": 2}, "geometry": {"type": "LineString", "coordinates": [[-89.227458, 48.356515], [-89.227711, 48.356086], [-89.227931, 48.356083], [-89.228032, 48.356265], [-89.227939, 48.356623]]}}, {"type": "Feature", "properties": {"d": 2}, "geometry": {"type": "LineString", "coordinates": [[-89.220652, 48.356548], [-89.220827, 48.356623], [-89.220827, 48.356694], [-89.220706, 48.356683], [-89.220525, 48.356551], [-89.220652, 48.356548]]}}, {"type": "Feature", "properties": {"d": 2}, "geometry": {"type": "LineString", "coordinates": [[-89.2104, 48.356618], [-89.211162, 48.356377], [-89.211647, 48.356464], [-89.212132, 48.356372], [-89.212254, 48.3563], [-89.212024, 48.355907], [-89.211323, 48.356251], [-89.211162, 48.35627], [-89.210762, 48.355835], [-89.210752, 48.355599]]}}, {"type": "Feature", "properties": {"d": 2}, "geometry": {"type": "LineString", "coordinates": [[-89.233161, 48.356805], [-89.233029, 48.35673], [-89.233005, 48.356551], [-89.233176, 48.356382]]}}, {"type": "Feature", "properties": {"d": 2}, "geometry": {"type": "LineString", "coordinates": [[-89.225828, 48.356898], [-89.225819, 48.357195], [-89.225666, 48.357252], [-89.225444, 48.357124], [-89.225436, 48.357052], [-89.225828, 48.356898]]}}, {"type": "Feature", "properties": {"d": 2}, "geometry": {"type": "LineString", "coordinates": [[-89.232505, 48.357303], [-89.232622, 48.357191], [-89.232834, 48.357124], [-89.232892, 48.356974], [-89.233107, 48.356966]]}}, {"type": "Feature", "properties": {"d": 2}, "geometry": {"type": "LineString", "coordinates": [[-89.210137, 48.359092], [-89.210127, 48.358412], [-89.209665, 48.358269], [-89.209665, 48.357625], [-89.209868, 48.357554], [-89.210892, 48.357602], [-89.211163, 48.357482], [-89.210892, 48.357244], [-89.210515, 48.357356], [-89.210353, 48.357342], [-89.209954, 48.35698], [-89.209975, 48.356805]]}}, {"type": "Feature", "properties": {"d": 4}, "geometry": {"type": "LineString", "coordinates": [[-89.1926, 48.309001], [-89.191894, 48.310076], [-89.191894, 48.310398], [-89.191727, 48.310828], [-89.191743, 48.311222], [-89.191339, 48.311616], [-89.190995, 48.312101], [-89.190834, 48.312198], [-89.190294, 48.312346], [-89.189809, 48.312277], [-89.189539, 48.312162], [-89.188838, 48.312222], [-89.188561, 48.312118], [-89.188422, 48.311939], [-89.188922, 48.311365], [-89.189396, 48.311151], [-89.189573, 48.310971], [-89.189432, 48.310823], [-89.189379, 48.310542], [-89.189625, 48.310362], [-89.189863, 48.310409], [-89.189917, 48.310373], [-89.189897, 48.310148], [-89.189693, 48.310004], [-89.189461, 48.309682], [-89.189546, 48.309252], [-89.189774, 48.309001]]}}, {"type": "Feature", "properties": {"d": 4}, "geometry": {"type": "LineString", "coordinates": [[-89.190121, 48.310721], [-89.189653, 48.310971], [-89.18972, 48.311222], [-89.189809, 48.311269], [-89.190025, 48.311241], [-89.190131, 48.311115], [-89.190213, 48.3109], [-89.190121, 48.310721]]}}, {"type": "Feature", "properties": {"d": 4}, "geometry": {"type": "LineString", "coordinates": [[-89.200953, 48.334238], [-89.20124, 48.334124], [-89.201833, 48.334274], [-89.20223, 48.334214], [-89.202009, 48.333892], [-89.201456, 48.333371], [-89.200971, 48.333114], [-89.200725, 48.33314], [-89.200863, 48.333272], [-89.20124, 48.333296], [-89.201257, 48.333355], [-89.200863, 48.333404], [-89.200701, 48.33357], [-89.200377, 48.3336], [-89.20027, 48.333545], [-89.200216, 48.333295], [-89.200634, 48.333068], [-89.200583, 48.332817], [-89.200377, 48.332634], [-89.199838, 48.332415], [-89.199299, 48.332519], [-89.199094, 48.332388], [-89.199245, 48.332188], [-89.199623, 48.332149], [-89.199753, 48.331922], [-89.199515, 48.331883], [-89.199083, 48.331948], [-89.198814, 48.331915], [-89.198328, 48.331696], [-89.197951, 48.331316], [-89.197735, 48.331318], [-89.197034, 48.331589], [-89.196841, 48.331457], [-89.196793, 48.331314], [-89.197034, 48.330947], [-89.197789, 48.330694], [-89.198203, 48.330347], [-89.19849, 48.330257], [-89.198841, 48.329989], [-89.198328, 48.329322], [-89.198279, 48.328771], [-89.198143, 48.328485], [-89.19826, 48.328127], [-89.19827, 48.327339], [-89.198447, 48.327017], [-89.198328, 48.326961], [-89.198292, 48.326838], [-89.198383, 48.326408], [-89.198291, 48.326193], [-89.198289, 48.325835], [-89.198378, 48.325727], [-89.19831, 48.325584], [-89.198518, 48.325369], [-89.198465, 48.325047], [-89.198594, 48.324868], [-89.199245, 48.322628], [-89.199625, 48.321717], [-89.199841, 48.319675], [-89.199809, 48.318063], [-89.199482, 48.316917], [-89.198543, 48.315091], [-89.198316, 48.314804], [-89.198, 48.314124], [-89.19796, 48.313873], [-89.197665, 48.313658], [-89.197773, 48.313085], [-89.197358, 48.312518], [-89.197014, 48.311724], [-89.19684, 48.310649], [-89.197135, 48.310183], [-89.197398, 48.309001]]}}, {"type": "Feature", "properties": {"d": 4}, "geometry": {"type": "LineString", "coordinates": [[-89.201668, 48.33493], [-89.200917, 48.334673]]}}, {"type": "Feature", "properties": {"d": 4}, "geometry": {"type": "LineString", "coordinates": [[-89.203127, 48.336055], [-89.202319, 48.335737], [-89.202093, 48.335574], [-89.202116, 48.335467], [-89.202588, 48.335262], [-89.202665, 48.335073], [-89.202049, 48.334919], [-89.201827, 48.334926]]}}, {"type": "Feature", "properties": {"d": 4}, "geometry": {"type": "LineString", "coordinates": [[-89.20311, 48.337233], [-89.202879, 48.336792], [-89.20288, 48.336376]]}}, {"type": "Feature", "properties": {"d": 4}, "geometry": {"type": "LineString", "coordinates": [[-89.204437, 48.339236], [-89.204152, 48.339481], [-89.204098, 48.339725], [-89.204314, 48.339962], [-89.204717, 48.340104]]}}, {"type": "Feature", "properties": {"d": 4}, "geometry": {"type": "LineString", "coordinates": [[-89.204888, 48.340085], [-89.204891, 48.339226]]}}, {"type": "Feature", "properties": {"d": 4}, "geometry": {"type": "LineString", "coordinates": [[-89.200995, 48.340571], [-89.20119, 48.340801], [-89.200809, 48.341203], [-89.200344, 48.340694]]}}, {"type": "Feature", "properties": {"d": 4}, "geometry": {"type": "LineString", "coordinates": [[-89.204368, 48.341026], [-89.203505, 48.340886], [-89.203378, 48.340801], [-89.203621, 48.340551], [-89.203628, 48.3403], [-89.20322, 48.340157], [-89.20344, 48.339799], [-89.203172, 48.339513], [-89.203127, 48.339144], [-89.202821, 48.338868], [-89.202807, 48.338367], [-89.202904, 48.338116], [-89.203289, 48.337904]]}}, {"type": "Feature", "properties": {"d": 4}, "geometry": {"type": "LineString", "coordinates": [[-89.205482, 48.341672], [-89.204819, 48.340932]]}}, {"type": "Feature", "properties": {"d": 4}, "geometry": {"type": "LineString", "coordinates": [[-89.20496, 48.341876], [-89.204956, 48.342377], [-89.205312, 48.34252], [-89.205444, 48.343021], [-89.205608, 48.343103], [-89.205987, 48.342914], [-89.205764, 48.34252], [-89.205967, 48.342233], [-89.205539, 48.341706]]}}, {"type": "Feature", "properties": {"d": 4}, "geometry": {"type": "LineString", "coordinates": [[-89.204497, 48.345727], [-89.203774, 48.345734], [-89.203667, 48.346099], [-89.203505, 48.346125], [-89.203412, 48.346064], [-89.203386, 48.345813], [-89.203127, 48.34567], [-89.203288, 48.345205], [-89.203571, 48.344954], [-89.203691, 48.344417], [-89.203865, 48.344238], [-89.203922, 48.343988], [-89.204044, 48.343901], [-89.204413, 48.343844], [-89.204644, 48.343665], [-89.204475, 48.343118], [-89.204159, 48.342949], [-89.203906, 48.342663], [-89.203898, 48.342126], [-89.20348, 48.341768], [-89.203774, 48.341356], [-89.204314, 48.341181], [-89.204499, 48.341303], [-89.204691, 48.34168], [-89.204929, 48.341804]]}}, {"type": "Feature", "properties": {"d": 4}, "geometry": {"type": "LineString", "coordinates": [[-89.203013, 48.347419], [-89.202588, 48.347735], [-89.202546, 48.348147]]}}, {"type": "Feature", "properties": {"d": 4}, "geometry": {"type": "LineString", "coordinates": [[-89.202475, 48.34828], [-89.202321, 48.348391], [-89.202103, 48.348745], [-89.201579, 48.348498], [-89.201598, 48.348283], [-89.201726, 48.348169], [-89.201793, 48.347961], [-89.201921, 48.347889], [-89.201905, 48.34771], [-89.20211, 48.347603], [-89.202073, 48.347388], [-89.202265, 48.34729], [-89.202326, 48.346959], [-89.202584, 48.346708], [-89.202858, 48.346671], [-89.203045, 48.346708], [-89.203103, 48.347138]]}}, {"type": "Feature", "properties": {"d": 4}, "geometry": {"type": "LineString", "coordinates": [[-89.202037, 48.349062], [-89.201752, 48.349357], [-89.201694, 48.349551]]}}, {"type": "Feature", "properties": {"d": 4}, "geometry": {"type": "LineString", "coordinates": [[-89.204603, 48.350646], [-89.204451, 48.351075], [-89.204044, 48.351088], [-89.203235, 48.350806], [-89.202373, 48.350608], [-89.201995, 48.350576], [-89.201402, 48.350379], [-89.201132, 48.350386], [-89.200847, 48.350252], [-89.20074, 48.34993], [-89.200809, 48.349876], [-89.201134, 48.349858], [-89.200877, 48.349572], [-89.200971, 48.349511], [-89.201322, 48.349464], [-89.20111, 48.349285], [-89.20141, 48.349178], [-89.201288, 48.349035], [-89.201321, 48.348927], [-89.201456, 48.348883], [-89.201995, 48.348907]]}}, {"type": "Feature", "properties": {"d": 4}, "geometry": {"type": "LineString", "coordinates": [[-89.207659, 48.351327], [-89.207279, 48.351708], [-89.206799, 48.351648], [-89.206686, 48.35158], [-89.206255, 48.351587], [-89.206093, 48.351496], [-89.20533, 48.351326], [-89.205176, 48.351231], [-89.204838, 48.351218], [-89.204773, 48.351039], [-89.204991, 48.350737]]}}, {"type": "Feature", "properties": {"d": 4}, "geometry": {"type": "LineString", "coordinates": [[-89.22248, 48.35168], [-89.222323, 48.351795], [-89.222, 48.351859], [-89.221741, 48.351648]]}}, {"type": "Feature", "properties": {"d": 4}, "geometry": {"type": "LineString", "coordinates": [[-89.22146, 48.351791], [-89.221641, 48.35197], [-89.222, 48.351914], [-89.222215, 48.351983], [-89.22224, 48.352113], [-89.222111, 48.352328], [-89.222161, 48.35239], [-89.222322, 48.352364], [-89.222352, 48.35222], [-89.222744, 48.352077], [-89.222647, 48.352389], [-89.222485, 48.35249], [-89.222054, 48.352557], [-89.221949, 48.3529], [-89.221429, 48.353044], [-89.221245, 48.353405], [-89.220673, 48.353545], [-89.220544, 48.353693], [-89.220059, 48.353695], [-89.219681, 48.35381], [-89.219478, 48.353688], [-89.219142, 48.353622], [-89.218935, 48.353795], [-89.218963, 48.353867], [-89.219627, 48.353991], [-89.219684, 48.354046], [-89.219627, 48.35407], [-89.219358, 48.354116], [-89.21898, 48.35409], [-89.218711, 48.354164], [-89.218296, 48.354153], [-89.218108, 48.354117], [-89.21801, 48.353926], [-89.217848, 48.353883], [-89.217632, 48.353917], [-89.217482, 48.35401], [-89.217524, 48.354081], [-89.217673, 48.354117], [-89.217255, 48.35412], [-89.216662, 48.353853], [-89.216446, 48.353943], [-89.216284, 48.353809], [-89.216068, 48.353867], [-89.215637, 48.353759], [-89.215458, 48.353652], [-89.215421, 48.353484], [-89.215004, 48.35358], [-89.214968, 48.353402], [-89.215168, 48.353151]]}}, {"type": "Feature", "properties": {"d": 4}, "geometry": {"type": "LineString", "coordinates": [[-89.223668, 48.351968], [-89.223456, 48.35205], [-89.22318, 48.35197], [-89.222755, 48.351953], [-89.22262, 48.351827], [-89.222615, 48.351698]]}}, {"type": "Feature", "properties": {"d": 4}, "geometry": {"type": "LineString", "coordinates": [[-89.211412, 48.35222], [-89.211239, 48.352435], [-89.211, 48.352564], [-89.210838, 48.352473], [-89.210569, 48.352529], [-89.210245, 48.352442], [-89.210137, 48.352312], [-89.209706, 48.352365], [-89.209598, 48.352224], [-89.209328, 48.352258], [-89.209238, 48.352113], [-89.208952, 48.352113], [-89.208789, 48.351976], [-89.208627, 48.352038], [-89.208466, 48.352024], [-89.208414, 48.35154]]}}, {"type": "Feature", "properties": {"d": 4}, "geometry": {"type": "LineString", "coordinates": [[-89.221143, 48.352793], [-89.220978, 48.352865], [-89.220975, 48.352934], [-89.221137, 48.352932], [-89.221143, 48.352793]]}}, {"type": "Feature", "properties": {"d": 4}, "geometry": {"type": "LineString", "coordinates": [[-89.214048, 48.352812], [-89.213766, 48.352865], [-89.213615, 48.353223], [-89.21348, 48.353257], [-89.213113, 48.353151], [-89.213031, 48.353044], [-89.212688, 48.353044], [-89.212564, 48.352879], [-89.212348, 48.352959], [-89.212219, 48.352936], [-89.212171, 48.352614], [-89.212262, 48.352449]]}}, {"type": "Feature", "properties": {"d": 4}, "geometry": {"type": "LineString", "coordinates": [[-89.214613, 48.353294], [-89.214613, 48.353438], [-89.214377, 48.353437], [-89.214505, 48.353305], [-89.214613, 48.353294]]}}, {"type": "Feature", "properties": {"d": 4}, "geometry": {"type": "LineString", "coordinates": [[-89.208345, 48.354323], [-89.208735, 48.354109], [-89.209113, 48.35401], [-89.209506, 48.354117], [-89.209706, 48.354306], [-89.209975, 48.354203], [-89.210137, 48.354222], [-89.210246, 48.354296], [-89.210188, 48.354439], [-89.210299, 48.354526], [-89.210892, 48.354607], [-89.211216, 48.354441], [-89.211647, 48.354495], [-89.211762, 48.354547], [-89.211809, 48.354762], [-89.212024, 48.354718], [-89.212348, 48.354792], [-89.212559, 48.354762], [-89.21259, 48.354905], [-89.212725, 48.354961], [-89.213049, 48.35496], [-89.213265, 48.354838], [-89.213451, 48.354869], [-89.213434, 48.355012], [-89.213534, 48.355073], [-89.213912, 48.354904], [-89.215206, 48.35502], [-89.218657, 48.355661], [-89.220274, 48.356211], [-89.221083, 48.356582], [-89.221245, 48.356875], [-89.221469, 48.35698], [-89.221675, 48.357338], [-89.222064, 48.357517], [-89.222377, 48.357757], [-89.22297, 48.357949], [-89.22311, 48.358054]]}}, {"type": "Feature", "properties": {"d": 4}, "geometry": {"type": "LineString", "coordinates": [[-89.227122, 48.354926], [-89.227014, 48.354916], [-89.227011, 48.354869], [-89.227284, 48.354557]]}}, {"type": "Feature", "properties": {"d": 4}, "geometry": {"type": "LineString", "coordinates": [[-89.235115, 48.355183], [-89.234985, 48.355084], [-89.23503, 48.354905], [-89.234617, 48.354674], [-89.234569, 48.354583]]}}, {"type": "Feature", "properties": {"d": 4}, "geometry": {"type": "LineString", "coordinates": [[-89.233003, 48.355227], [-89.233021, 48.355155], [-89.233161, 48.355098], [-89.233539, 48.35511], [-89.233754, 48.355261], [-89.234294, 48.355308], [-89.234486, 48.35537], [-89.234522, 48.35545]]}}, {"type": "Feature", "properties": {"d": 4}, "geometry": {"type": "LineString", "coordinates": [[-89.226009, 48.356324], [-89.225815, 48.356014], [-89.225887, 48.355799], [-89.226044, 48.355715], [-89.226206, 48.35579], [-89.226529, 48.355774], [-89.227877, 48.35595], [-89.228913, 48.3563], [-89.229333, 48.356527], [-89.229656, 48.356591], [-89.22973, 48.356766]]}}, {"type": "Feature", "properties": {"d": 4}, "geometry": {"type": "LineString", "coordinates": [[-89.20564, 48.356422], [-89.205375, 48.356193], [-89.205289, 48.355978], [-89.205446, 48.355585], [-89.205003, 48.355298], [-89.205029, 48.355227], [-89.205338, 48.355106], [-89.205438, 48.354976], [-89.205033, 48.35469], [-89.205284, 48.354547], [-89.205138, 48.354296], [-89.20517, 48.354225], [-89.205716, 48.35399], [-89.205873, 48.353831], [-89.205816, 48.353473], [-89.205931, 48.353437], [-89.206065, 48.353473], [-89.206126, 48.353724], [-89.206249, 48.353795], [-89.206848, 48.353818], [-89.207765, 48.353984], [-89.208195, 48.354297]]}}, {"type": "Feature", "properties": {"d": 4}, "geometry": {"type": "LineString", "coordinates": [[-89.22054, 48.35673], [-89.220343, 48.35673], [-89.22049, 48.356892], [-89.220867, 48.356945], [-89.220852, 48.356873], [-89.22054, 48.35673]]}}, {"type": "Feature", "properties": {"d": 4}, "geometry": {"type": "LineString", "coordinates": [[-89.218959, 48.356787], [-89.219412, 48.356513], [-89.219573, 48.356511], [-89.219735, 48.356615], [-89.220009, 48.356587], [-89.219789, 48.356443], [-89.219519, 48.356387], [-89.21925, 48.356137], [-89.219088, 48.356125], [-89.218892, 48.356193], [-89.21899, 48.356408], [-89.218878, 48.356734]]}}, {"type": "Feature", "properties": {"d": 4}, "geometry": {"type": "LineString", "coordinates": [[-89.226068, 48.356802], [-89.226031, 48.357267], [-89.225922, 48.357374], [-89.225666, 48.35739], [-89.225122, 48.357052], [-89.225127, 48.356929], [-89.225343, 48.356675], [-89.22599, 48.356664]]}}, {"type": "Feature", "properties": {"d": 4}, "geometry": {"type": "LineString", "coordinates": [[-89.230642, 48.35699], [-89.230789, 48.356918], [-89.230951, 48.356921], [-89.231112, 48.357052], [-89.231382, 48.357082], [-89.231474, 48.357159]]}}, {"type": "Feature", "properties": {"d": 4}, "geometry": {"type": "LineString", "coordinates": [[-89.232392, 48.357303], [-89.232784, 48.356926], [-89.233062, 48.356873], [-89.232892, 48.35655], [-89.232514, 48.356446], [-89.232486, 48.356282]]}}, {"type": "Feature", "properties": {"d": 4}, "geometry": {"type": "LineString", "coordinates": [[-89.227569, 48.357277], [-89.227307, 48.357517], [-89.22723, 48.357701], [-89.226974, 48.357589], [-89.226853, 48.357456], [-89.226313, 48.357501], [-89.226313, 48.357355], [-89.226631, 48.357231], [-89.226805, 48.357016]]}}, {"type": "Feature", "properties": {"d": 4}, "geometry": {"type": "LineString", "coordinates": [[-89.205678, 48.357625], [-89.205446, 48.357498], [-89.205271, 48.357231], [-89.205446, 48.356962], [-89.205675, 48.356837]]}}, {"type": "Feature", "properties": {"d": 4}, "geometry": {"type": "LineString", "coordinates": [[-89.22847, 48.357799], [-89.22847, 48.357984], [-89.228255, 48.358112], [-89.228229, 48.357947], [-89.22847, 48.357799]]}}, {"type": "Feature", "properties": {"d": 4}, "geometry": {"type": "LineString", "coordinates": [[-89.224396, 48.35875], [-89.224642, 48.358719], [-89.225019, 48.358772], [-89.225518, 48.359092]]}}, {"type": "Feature", "properties": {"d": 4}, "geometry": {"type": "LineString", "coordinates": [[-89.206101, 48.358943], [-89.205596, 48.358519]]}}, {"type": "Feature", "properties": {"d": 4}, "geometry": {"type": "LineString", "coordinates": [[-89.22905, 48.359092], [-89.228919, 48.358698], [-89.229573, 48.358464]]}}, {"type": "Feature", "properties": {"d": 6}, "geometry": {"type": "LineString", "coordinates": [[-89.19319, 48.309001], [-89.193098, 48.309117], [-89.192512, 48.309467], [-89.192235, 48.309739], [-89.191804, 48.311399], [-89.191585, 48.311616], [-89.191103, 48.312427], [-89.190618, 48.312798], [-89.190466, 48.313049], [-89.190348, 48.313109], [-89.189917, 48.312977], [-89.189863, 48.312798], [-89.189649, 48.312619], [-89.189644, 48.312476], [-89.189539, 48.312375], [-89.189432, 48.312354], [-89.189054, 48.312482], [-89.188677, 48.312443], [-89.1879, 48.311831], [-89.188005, 48.311616], [-89.188979, 48.310756], [-89.188924, 48.310506], [-89.189197, 48.310255], [-89.189077, 48.309968], [-89.189084, 48.309682], [-89.188569, 48.309529], [-89.188412, 48.309395], [-89.188405, 48.309252], [-89.188552, 48.309001]]}}, {"type": "Feature", "properties": {"d": 6}, "geometry": {"type": "LineString", "coordinates": [[-89.19808, 48.337472], [-89.198054, 48.337042], [-89.198776, 48.336434], [-89.19857, 48.336183], [-89.19857, 48.336004], [-89.199083, 48.33571], [-89.199101, 48.335646], [-89.198976, 48.335496], [-89.198706, 48.335375], [-89.198463, 48.334966], [-89.198153, 48.334644], [-89.197524, 48.333355], [-89.197043, 48.33314], [-89.197166, 48.332889], [-89.19759, 48.332567], [-89.1976, 48.332352], [-89.197467, 48.332173], [-89.197196, 48.331996], [-89.196657, 48.331779], [-89.196255, 48.331314], [-89.196419, 48.33092], [-89.196889, 48.330633], [-89.197049, 48.330383], [-89.196953, 48.330025], [-89.196657, 48.329721], [-89.196719, 48.32938], [-89.196491, 48.329094], [-89.196422, 48.328771], [-89.196154, 48.32827], [-89.196033, 48.327446], [-89.196083, 48.324904], [-89.195972, 48.324367], [-89.19599, 48.323973], [-89.196597, 48.320141], [-89.19662, 48.319317], [-89.19648, 48.318063], [-89.196696, 48.317598], [-89.196854, 48.316917], [-89.19683, 48.316452], [-89.196702, 48.316344], [-89.196822, 48.316237], [-89.196833, 48.316058], [-89.196696, 48.315592], [-89.196655, 48.314983], [-89.196477, 48.314589], [-89.196112, 48.314338], [-89.19623, 48.313837], [-89.195821, 48.313156], [-89.195904, 48.312583], [-89.195863, 48.312225], [-89.195982, 48.311759], [-89.195845, 48.311222], [-89.196603, 48.309503], [-89.196669, 48.309001]]}}, {"type": "Feature", "properties": {"d": 6}, "geometry": {"type": "LineString", "coordinates": [[-89.194776, 48.339688], [-89.194338, 48.339676], [-89.194015, 48.339597], [-89.193765, 48.339405], [-89.193691, 48.339238], [-89.193152, 48.338948]]}}, {"type": "Feature", "properties": {"d": 6}, "geometry": {"type": "LineString", "coordinates": [[-89.201185, 48.341696], [-89.200809, 48.341722], [-89.200431, 48.341675], [-89.200054, 48.341497], [-89.200005, 48.341768], [-89.200201, 48.341911], [-89.200315, 48.342126], [-89.199838, 48.34226], [-89.199353, 48.342159], [-89.198652, 48.342143], [-89.197681, 48.342015], [-89.197435, 48.341732], [-89.197296, 48.341231], [-89.197054, 48.340873], [-89.196819, 48.340738], [-89.196495, 48.34078], [-89.196288, 48.340694], [-89.196303, 48.340229]]}}, {"type": "Feature", "properties": {"d": 6}, "geometry": {"type": "LineString", "coordinates": [[-89.190079, 48.34277], [-89.190348, 48.342779], [-89.191049, 48.34298], [-89.191592, 48.343057], [-89.191611, 48.3432], [-89.190941, 48.343601], [-89.19051, 48.343703], [-89.190079, 48.34392], [-89.188623, 48.344165], [-89.188294, 48.344131], [-89.188147, 48.343916], [-89.188235, 48.343701], [-89.188581, 48.343379], [-89.188892, 48.3432], [-89.189324, 48.343153], [-89.190079, 48.343246], [-89.190287, 48.3432], [-89.190294, 48.342986], [-89.189984, 48.342842], [-89.190079, 48.34277]]}}, {"type": "Feature", "properties": {"d": 6}, "geometry": {"type": "LineString", "coordinates": [[-89.198005, 48.35243], [-89.198246, 48.352543], [-89.198221, 48.352658], [-89.197951, 48.352694], [-89.197842, 48.35265], [-89.19776, 48.352507], [-89.197846, 48.352435], [-89.198005, 48.35243]]}}, {"type": "Feature", "properties": {"d": 6}, "geometry": {"type": "LineString", "coordinates": [[-89.228274, 48.353056], [-89.228165, 48.353187], [-89.227985, 48.353201], [-89.226745, 48.352912], [-89.226367, 48.352909], [-89.225882, 48.352777], [-89.225505, 48.352584], [-89.225127, 48.352523], [-89.225001, 48.352435], [-89.224965, 48.352272], [-89.224588, 48.352422], [-89.223132, 48.352193], [-89.222916, 48.352305], [-89.222647, 48.352582], [-89.2223, 48.352721], [-89.222161, 48.353007], [-89.221498, 48.353473], [-89.221461, 48.353849], [-89.221312, 48.354117], [-89.221191, 48.354187], [-89.220544, 48.354266], [-89.217255, 48.354265], [-89.216769, 48.354157], [-89.216608, 48.354001], [-89.21623, 48.354022], [-89.214289, 48.353624], [-89.211755, 48.352894], [-89.211593, 48.352805], [-89.211269, 48.352786], [-89.209652, 48.352433], [-89.209021, 48.35222], [-89.208681, 48.352227], [-89.208327, 48.352006], [-89.208304, 48.351655], [-89.207926, 48.351885], [-89.207441, 48.351904], [-89.203936, 48.351133], [-89.203324, 48.350932], [-89.200926, 48.350431], [-89.200708, 48.350252], [-89.200625, 48.349894], [-89.200784, 48.349715], [-89.200813, 48.3495], [-89.2011, 48.349429], [-89.200986, 48.34925], [-89.201186, 48.349142], [-89.20124, 48.348822], [-89.201561, 48.348713], [-89.201463, 48.348426], [-89.201663, 48.348068], [-89.201736, 48.347746], [-89.202049, 48.347246], [-89.202193, 48.347173], [-89.202239, 48.346923], [-89.20244, 48.346672], [-89.202988, 48.346601], [-89.203142, 48.346422], [-89.203077, 48.345921], [-89.202767, 48.345706], [-89.202588, 48.345313], [-89.202103, 48.344965], [-89.202006, 48.344704], [-89.201462, 48.344346], [-89.201576, 48.343988], [-89.201532, 48.343343], [-89.201614, 48.342878], [-89.201464, 48.342627], [-89.201447, 48.342233], [-89.201713, 48.341867]]}}, {"type": "Feature", "properties": {"d": 6}, "geometry": {"type": "LineString", "coordinates": [[-89.232246, 48.354977], [-89.232253, 48.354833], [-89.231941, 48.354618], [-89.231814, 48.354332], [-89.231004, 48.353969], [-89.230357, 48.353942], [-89.230034, 48.353837], [-89.2298, 48.353616], [-89.229982, 48.353473]]}}, {"type": "Feature", "properties": {"d": 6}, "geometry": {"type": "LineString", "coordinates": [[-89.22715, 48.354995], [-89.226907, 48.355083], [-89.226691, 48.355015], [-89.226623, 48.354905], [-89.226675, 48.354726], [-89.227068, 48.354311], [-89.227554, 48.354117], [-89.227895, 48.354105]]}}, {"type": "Feature", "properties": {"d": 6}, "geometry": {"type": "LineString", "coordinates": [[-89.228196, 48.359092], [-89.226799, 48.358195], [-89.224692, 48.357052], [-89.223553, 48.356336], [-89.223536, 48.356122], [-89.224103, 48.355453], [-89.224318, 48.35541], [-89.22723, 48.355708], [-89.227769, 48.35581], [-89.229387, 48.356331], [-89.22971, 48.356354], [-89.229926, 48.356451], [-89.230271, 48.356444], [-89.230196, 48.356298], [-89.230843, 48.356404], [-89.230873, 48.356479], [-89.230771, 48.356551], [-89.231166, 48.3567], [-89.231436, 48.356711], [-89.231705, 48.356641], [-89.232568, 48.356768], [-89.232784, 48.356713], [-89.232784, 48.356643], [-89.232389, 48.356479], [-89.232159, 48.356265]]}}, {"type": "Feature", "properties": {"d": 6}, "geometry": {"type": "LineString", "coordinates": [[-89.201916, 48.359092], [-89.202373, 48.357866], [-89.202439, 48.357231], [-89.202397, 48.355692], [-89.202165, 48.354368], [-89.201935, 48.354117], [-89.201672, 48.353959], [-89.20164, 48.353724], [-89.201425, 48.35358], [-89.201348, 48.353347], [-89.20124, 48.353412], [-89.201104, 48.353402], [-89.200647, 48.353136], [-89.200485, 48.352967], [-89.19973, 48.352935], [-89.199461, 48.352721], [-89.199027, 48.35265], [-89.198922, 48.352501], [-89.198814, 48.35263], [-89.198571, 48.352614], [-89.198868, 48.352169], [-89.199299, 48.352129], [-89.199838, 48.351977], [-89.2, 48.351853], [-89.200324, 48.351855], [-89.200593, 48.351964], [-89.201456, 48.352122], [-89.201833, 48.352127], [-89.201995, 48.352235], [-89.202373, 48.352331], [-89.203774, 48.352571], [-89.204422, 48.352766], [-89.206902, 48.353185], [-89.209975, 48.353893], [-89.213696, 48.354501], [-89.216338, 48.355018], [-89.218711, 48.355565], [-89.219789, 48.355958], [-89.220059, 48.355993], [-89.221083, 48.356418], [-89.221946, 48.356874], [-89.222161, 48.357054], [-89.222823, 48.357338], [-89.222961, 48.357446], [-89.222916, 48.357664], [-89.223132, 48.357806], [-89.223941, 48.358108], [-89.224318, 48.358402], [-89.225073, 48.358626], [-89.225794, 48.359092]]}}, {"type": "Feature", "properties": {"d": 8}, "geometry": {"type": "LineString", "coordinates": [[-89.193508, 48.309001], [-89.193439, 48.30918], [-89.192585, 48.309825], [-89.191971, 48.311365], [-89.191515, 48.31201], [-89.19153, 48.312368], [-89.19078, 48.312889], [-89.190562, 48.313156], [-89.190348, 48.313264], [-89.189809, 48.313203], [-89.189593, 48.313064], [-89.189324, 48.313028], [-89.18927, 48.312756], [-89.188299, 48.313165], [-89.187922, 48.313153], [-89.187902, 48.313049], [-89.188214, 48.312834], [-89.188399, 48.312583], [-89.188296, 48.312333], [-89.187922, 48.312163], [-89.187598, 48.312217], [-89.187113, 48.31258], [-89.186304, 48.312942], [-89.186168, 48.312942], [-89.186735, 48.312333], [-89.187275, 48.31203], [-89.187792, 48.311509], [-89.188297, 48.311151], [-89.188461, 48.310918], [-89.188554, 48.31047], [-89.188261, 48.310398], [-89.188283, 48.310076], [-89.187878, 48.309861], [-89.187745, 48.309646], [-89.188216, 48.309001]]}}, {"type": "Feature", "properties": {"d": 8}, "geometry": {"type": "LineString", "coordinates": [[-89.191858, 48.322752], [-89.191858, 48.322825], [-89.19162, 48.322791], [-89.191696, 48.322754], [-89.191858, 48.322752]]}}, {"type": "Feature", "properties": {"d": 8}, "geometry": {"type": "LineString", "coordinates": [[-89.191478, 48.323294], [-89.192001, 48.323412]]}}, {"type": "Feature", "properties": {"d": 8}, "geometry": {"type": "LineString", "coordinates": [[-89.192072, 48.3234], [-89.192317, 48.323292], [-89.19238, 48.323149], [-89.19203, 48.322863], [-89.192074, 48.322738], [-89.19185, 48.322469], [-89.191912, 48.322407], [-89.192074, 48.322451], [-89.192175, 48.322397], [-89.192089, 48.322218], [-89.192132, 48.321931], [-89.191993, 48.321824], [-89.191985, 48.321645], [-89.192358, 48.321358], [-89.192179, 48.321144], [-89.19225, 48.321], [-89.192128, 48.320714], [-89.192333, 48.320499], [-89.192394, 48.320105], [-89.192274, 48.318851], [-89.192455, 48.318278], [-89.19241, 48.317849], [-89.192521, 48.317132], [-89.192376, 48.316953], [-89.192475, 48.31681], [-89.192338, 48.316559], [-89.192451, 48.316382], [-89.192907, 48.316201], [-89.193216, 48.315449], [-89.193223, 48.314876], [-89.193112, 48.314518], [-89.19288, 48.314195], [-89.192378, 48.313873], [-89.192047, 48.31355], [-89.192089, 48.313371], [-89.192436, 48.313192], [-89.192731, 48.312906], [-89.192559, 48.312572], [-89.192128, 48.312189], [-89.192183, 48.312046], [-89.192397, 48.311861], [-89.193191, 48.311509], [-89.193201, 48.311222], [-89.192929, 48.310936], [-89.19304, 48.310756], [-89.193446, 48.310434], [-89.193691, 48.310384], [-89.194284, 48.310073], [-89.19477, 48.309957], [-89.195093, 48.309708], [-89.195579, 48.309509], [-89.195751, 48.309288], [-89.195625, 48.309001]]}}, {"type": "Feature", "properties": {"d": 8}, "geometry": {"type": "LineString", "coordinates": [[-89.191667, 48.324868], [-89.191651, 48.324188], [-89.191238, 48.32408], [-89.191224, 48.323364]]}}, {"type": "Feature", "properties": {"d": 8}, "geometry": {"type": "LineString", "coordinates": [[-89.192197, 48.326694], [-89.192204, 48.326086], [-89.192594, 48.325907], [-89.192633, 48.325835], [-89.19251, 48.325548], [-89.192224, 48.325298]]}}, {"type": "Feature", "properties": {"d": 8}, "geometry": {"type": "LineString", "coordinates": [[-89.191579, 48.328478], [-89.191757, 48.328306], [-89.191898, 48.327563]]}}, {"type": "Feature", "properties": {"d": 8}, "geometry": {"type": "LineString", "coordinates": [[-89.19355, 48.3319], [-89.192924, 48.331788]]}}, {"type": "Feature", "properties": {"d": 8}, "geometry": {"type": "LineString", "coordinates": [[-89.193232, 48.332674], [-89.193747, 48.33221]]}}, {"type": "Feature", "properties": {"d": 8}, "geometry": {"type": "LineString", "coordinates": [[-89.19306, 48.333641], [-89.19306, 48.332853]]}}, {"type": "Feature", "properties": {"d": 8}, "geometry": {"type": "LineString", "coordinates": [[-89.189917, 48.335809], [-89.189162, 48.335607], [-89.18872, 48.335782]]}}, {"type": "Feature", "properties": {"d": 8}, "geometry": {"type": "LineString", "coordinates": [[-89.186277, 48.335879], [-89.186155, 48.335395], [-89.186278, 48.335109], [-89.186526, 48.33493], [-89.18656, 48.334644], [-89.186897, 48.334445], [-89.187275, 48.33442], [-89.187904, 48.334214]]}}, {"type": "Feature", "properties": {"d": 8}, "geometry": {"type": "LineString", "coordinates": [[-89.179726, 48.335977], [-89.180089, 48.336183], [-89.180213, 48.336326], [-89.180696, 48.336403], [-89.180776, 48.336577], [-89.180939, 48.336684], [-89.180858, 48.336746], [-89.180481, 48.33678], [-89.180373, 48.336865], [-89.180295, 48.337114], [-89.180059, 48.337293], [-89.180241, 48.337436], [-89.180272, 48.337579], [-89.180078, 48.33783], [-89.180049, 48.338003], [-89.179637, 48.337508], [-89.179678, 48.337436], [-89.179964, 48.337329], [-89.179933, 48.337257], [-89.179564, 48.337125], [-89.179421, 48.337365], [-89.179415, 48.337579], [-89.179079, 48.337643], [-89.178973, 48.337544], [-89.179179, 48.337329], [-89.179119, 48.337186], [-89.178917, 48.337103], [-89.178324, 48.337085], [-89.1782, 48.336828], [-89.17827, 48.336649], [-89.17854, 48.336597], [-89.178884, 48.336362], [-89.17909, 48.336004], [-89.179726, 48.335977]]}}, {"type": "Feature", "properties": {"d": 8}, "geometry": {"type": "LineString", "coordinates": [[-89.180589, 48.338093], [-89.180663, 48.338152], [-89.180589, 48.338218], [-89.180402, 48.338116], [-89.180589, 48.338093]]}}, {"type": "Feature", "properties": {"d": 8}, "geometry": {"type": "LineString", "coordinates": [[-89.179241, 48.341118], [-89.179394, 48.341231], [-89.179241, 48.341305], [-89.179122, 48.341231], [-89.179241, 48.341118]]}}, {"type": "Feature", "properties": {"d": 8}, "geometry": {"type": "LineString", "coordinates": [[-89.184083, 48.342377], [-89.183986, 48.342363], [-89.183971, 48.342412], [-89.184255, 48.342598], [-89.184308, 48.342484], [-89.184083, 48.342377]]}}, {"type": "Feature", "properties": {"d": 8}, "geometry": {"type": "LineString", "coordinates": [[-89.183554, 48.343305], [-89.183565, 48.343415], [-89.183397, 48.343415], [-89.18341, 48.343307], [-89.183554, 48.343305]]}}, {"type": "Feature", "properties": {"d": 8}, "geometry": {"type": "LineString", "coordinates": [[-89.192949, 48.343844], [-89.192559, 48.343843], [-89.192074, 48.344053], [-89.19163, 48.344131], [-89.192142, 48.344381], [-89.192882, 48.344414], [-89.193055, 48.344346], [-89.19341, 48.343988], [-89.193242, 48.34388], [-89.192949, 48.343844]]}}, {"type": "Feature", "properties": {"d": 8}, "geometry": {"type": "LineString", "coordinates": [[-89.187059, 48.344654], [-89.187376, 48.344811], [-89.187606, 48.344847], [-89.187598, 48.345], [-89.186897, 48.34494], [-89.186765, 48.344739], [-89.187059, 48.344654]]}}, {"type": "Feature", "properties": {"d": 8}, "geometry": {"type": "LineString", "coordinates": [[-89.189371, 48.34499], [-89.188921, 48.345097], [-89.188873, 48.345276], [-89.189324, 48.345122], [-89.189371, 48.34499]]}}, {"type": "Feature", "properties": {"d": 8}, "geometry": {"type": "LineString", "coordinates": [[-89.189216, 48.346276], [-89.189294, 48.346386], [-89.189162, 48.346497], [-89.189085, 48.34635], [-89.189216, 48.346276]]}}, {"type": "Feature", "properties": {"d": 8}, "geometry": {"type": "LineString", "coordinates": [[-89.191373, 48.347924], [-89.192182, 48.34817], [-89.192203, 48.348247], [-89.192074, 48.348308], [-89.191858, 48.34818], [-89.191373, 48.348077], [-89.191241, 48.347997], [-89.191373, 48.347924]]}}, {"type": "Feature", "properties": {"d": 8}, "geometry": {"type": "LineString", "coordinates": [[-89.175574, 48.35114], [-89.175758, 48.351254], [-89.1756, 48.351397], [-89.175089, 48.351328], [-89.175196, 48.351182], [-89.175574, 48.35114]]}}, {"type": "Feature", "properties": {"d": 8}, "geometry": {"type": "LineString", "coordinates": [[-89.193422, 48.351353], [-89.193488, 48.351433], [-89.193368, 48.351529], [-89.193327, 48.351397], [-89.193422, 48.351353]]}}, {"type": "Feature", "properties": {"d": 8}, "geometry": {"type": "LineString", "coordinates": [[-89.19326, 48.351568], [-89.193314, 48.351612], [-89.19326, 48.351677], [-89.193098, 48.35167], [-89.193098, 48.351607], [-89.19326, 48.351568]]}}, {"type": "Feature", "properties": {"d": 8}, "geometry": {"type": "LineString", "coordinates": [[-89.193453, 48.352185], [-89.193341, 48.352292], [-89.193405, 48.352507], [-89.193866, 48.352435], [-89.193691, 48.352268], [-89.193453, 48.352185]]}}, {"type": "Feature", "properties": {"d": 8}, "geometry": {"type": "LineString", "coordinates": [[-89.194329, 48.352399], [-89.194207, 48.352435], [-89.194284, 48.352541], [-89.194379, 48.352471], [-89.194329, 48.352399]]}}, {"type": "Feature", "properties": {"d": 8}, "geometry": {"type": "LineString", "coordinates": [[-89.190079, 48.353717], [-89.190182, 48.353831], [-89.190025, 48.353888], [-89.189971, 48.353772], [-89.190079, 48.353717]]}}, {"type": "Feature", "properties": {"d": 8}, "geometry": {"type": "LineString", "coordinates": [[-89.190025, 48.354186], [-89.190062, 48.354296], [-89.189793, 48.354368], [-89.189755, 48.354244], [-89.190025, 48.354186]]}}, {"type": "Feature", "properties": {"d": 8}, "geometry": {"type": "LineString", "coordinates": [[-89.182476, 48.354546], [-89.182545, 48.354726], [-89.182422, 48.354826], [-89.182236, 48.354762], [-89.182191, 48.354583], [-89.18226, 48.354531], [-89.182476, 48.354546]]}}, {"type": "Feature", "properties": {"d": 8}, "geometry": {"type": "LineString", "coordinates": [[-89.231676, 48.354869], [-89.23164, 48.354726], [-89.231424, 48.354547], [-89.229926, 48.354184], [-89.229267, 48.353938], [-89.229035, 48.353759], [-89.229255, 48.353652], [-89.229225, 48.353568], [-89.22847, 48.353468], [-89.228255, 48.353504], [-89.227944, 48.35333], [-89.225828, 48.352884], [-89.224858, 48.35253], [-89.224049, 48.352456], [-89.222916, 48.352669], [-89.22276, 48.352757], [-89.222589, 48.353008], [-89.222296, 48.353223], [-89.222192, 48.353473], [-89.222032, 48.35358], [-89.222112, 48.353867], [-89.222056, 48.354082], [-89.22173, 48.354357], [-89.221083, 48.354472], [-89.219828, 48.354547], [-89.219519, 48.354631], [-89.21925, 48.354565], [-89.218657, 48.354634], [-89.216651, 48.354368], [-89.212402, 48.353506], [-89.207488, 48.352364], [-89.206686, 48.352119], [-89.204907, 48.351749], [-89.204426, 48.351612], [-89.204152, 48.351437], [-89.20248, 48.351127], [-89.201887, 48.350888], [-89.201025, 48.350705], [-89.200539, 48.350327], [-89.2, 48.350315], [-89.199784, 48.350223], [-89.199461, 48.350212], [-89.198976, 48.350067], [-89.198706, 48.350063], [-89.198382, 48.349971], [-89.198157, 48.349786], [-89.197196, 48.349485], [-89.196873, 48.349521], [-89.196657, 48.349435], [-89.196333, 48.349447], [-89.196172, 48.349279], [-89.195848, 48.349224], [-89.195686, 48.34908], [-89.194985, 48.348867], [-89.194824, 48.348766], [-89.194177, 48.348711], [-89.192622, 48.348212], [-89.191912, 48.347721], [-89.191373, 48.347666], [-89.190887, 48.347797], [-89.190564, 48.347793], [-89.189432, 48.347522], [-89.189266, 48.347424], [-89.189246, 48.346959], [-89.189146, 48.346816], [-89.189266, 48.346672], [-89.189447, 48.346601], [-89.189379, 48.346386], [-89.189528, 48.346028], [-89.189113, 48.345563], [-89.188932, 48.345491], [-89.188838, 48.345298], [-89.188623, 48.345431], [-89.188326, 48.345312], [-89.188193, 48.345026], [-89.188257, 48.344775], [-89.188137, 48.344588], [-89.187922, 48.344525], [-89.187598, 48.344612], [-89.187329, 48.344443], [-89.186897, 48.344368], [-89.186736, 48.344393], [-89.186574, 48.344509], [-89.185873, 48.34427], [-89.185744, 48.34431], [-89.185765, 48.344504], [-89.185603, 48.344575], [-89.184794, 48.344446], [-89.184604, 48.344346], [-89.18471, 48.344023], [-89.184509, 48.343665], [-89.183865, 48.343307], [-89.18377, 48.34314], [-89.183594, 48.343093], [-89.183339, 48.342798], [-89.183123, 48.342771], [-89.182799, 48.342519], [-89.182584, 48.342546], [-89.182098, 48.342364], [-89.181775, 48.342007], [-89.181451, 48.341841], [-89.181236, 48.34181], [-89.181309, 48.341696], [-89.181128, 48.341565], [-89.180912, 48.341519], [-89.180427, 48.341691], [-89.180002, 48.341625], [-89.179773, 48.341482], [-89.179618, 48.341175], [-89.179348, 48.341077], [-89.179276, 48.340945], [-89.179078, 48.340336], [-89.179351, 48.340085], [-89.179138, 48.339871], [-89.179123, 48.339656], [-89.179564, 48.339611], [-89.179726, 48.339462], [-89.180049, 48.339561], [-89.180157, 48.339379], [-89.180481, 48.339234], [-89.180642, 48.339269], [-89.180889, 48.339477], [-89.180934, 48.339692], [-89.181006, 48.339692], [-89.180979, 48.339513], [-89.181236, 48.339298], [-89.181315, 48.338976], [-89.181085, 48.33851], [-89.180858, 48.338406], [-89.180782, 48.33826], [-89.180966, 48.338205], [-89.181236, 48.338335], [-89.181367, 48.338188], [-89.181628, 48.338152], [-89.181904, 48.337973], [-89.181902, 48.33783], [-89.181656, 48.337687], [-89.181775, 48.337501], [-89.181949, 48.337436], [-89.18155, 48.337114], [-89.181522, 48.336756], [-89.181277, 48.336577], [-89.181294, 48.336434], [-89.181559, 48.336375], [-89.181991, 48.33651], [-89.182314, 48.336795], [-89.182522, 48.33672], [-89.18254, 48.336577], [-89.182696, 48.336505], [-89.182745, 48.336158], [-89.183012, 48.336219], [-89.183047, 48.336434], [-89.183123, 48.336461], [-89.183868, 48.336362], [-89.183673, 48.336076], [-89.183716, 48.33587], [-89.183878, 48.335848], [-89.184298, 48.335932], [-89.184633, 48.335704], [-89.184753, 48.335539], [-89.185226, 48.335549], [-89.185297, 48.335431], [-89.185226, 48.335242], [-89.18501, 48.335279], [-89.184833, 48.335181], [-89.184902, 48.335129], [-89.185172, 48.335132], [-89.185441, 48.335059], [-89.185742, 48.335181], [-89.185811, 48.335431], [-89.185576, 48.335682], [-89.185521, 48.336076], [-89.185118, 48.335885], [-89.18501, 48.335728], [-89.18494, 48.335753], [-89.18493, 48.336004], [-89.185187, 48.336316]]}}, {"type": "Feature", "properties": {"d": 8}, "geometry": {"type": "LineString", "coordinates": [[-89.187383, 48.354899], [-89.187544, 48.354976], [-89.187437, 48.355104], [-89.187221, 48.355083], [-89.187027, 48.354976], [-89.187113, 48.354881], [-89.187383, 48.354899]]}}, {"type": "Feature", "properties": {"d": 8}, "geometry": {"type": "LineString", "coordinates": [[-89.227228, 48.355083], [-89.227122, 48.355201], [-89.226907, 48.355202], [-89.22651, 48.355084], [-89.226222, 48.354905], [-89.226529, 48.35439], [-89.227143, 48.353974], [-89.227392, 48.353904], [-89.227877, 48.353901], [-89.228853, 48.354189]]}}, {"type": "Feature", "properties": {"d": 8}, "geometry": {"type": "LineString", "coordinates": [[-89.181991, 48.35508], [-89.182152, 48.355325], [-89.182302, 48.355406], [-89.182098, 48.355491], [-89.181888, 48.355442], [-89.181763, 48.355298], [-89.181832, 48.355119], [-89.181991, 48.35508]]}}, {"type": "Feature", "properties": {"d": 8}, "geometry": {"type": "LineString", "coordinates": [[-89.180535, 48.355261], [-89.180657, 48.355298], [-89.180655, 48.355406], [-89.180373, 48.355464], [-89.180316, 48.355298], [-89.180535, 48.355261]]}}, {"type": "Feature", "properties": {"d": 8}, "geometry": {"type": "LineString", "coordinates": [[-89.181236, 48.355577], [-89.181303, 48.355656], [-89.181236, 48.355741], [-89.181026, 48.355621], [-89.181074, 48.355573], [-89.181236, 48.355577]]}}, {"type": "Feature", "properties": {"d": 8}, "geometry": {"type": "LineString", "coordinates": [[-89.177192, 48.355651], [-89.177246, 48.355764], [-89.177138, 48.355872], [-89.177076, 48.355728], [-89.177192, 48.355651]]}}, {"type": "Feature", "properties": {"d": 8}, "geometry": {"type": "LineString", "coordinates": [[-89.19574, 48.356762], [-89.195686, 48.356935], [-89.195471, 48.356906], [-89.195554, 48.356766], [-89.19574, 48.356762]]}}, {"type": "Feature", "properties": {"d": 8}, "geometry": {"type": "LineString", "coordinates": [[-89.227186, 48.359092], [-89.226803, 48.35877], [-89.225774, 48.358199], [-89.224554, 48.357625], [-89.223887, 48.35719], [-89.223563, 48.357094], [-89.223326, 48.356873], [-89.222431, 48.356292], [-89.222378, 48.356157], [-89.222862, 48.355685], [-89.223294, 48.355437], [-89.223456, 48.355441], [-89.223725, 48.355307], [-89.224103, 48.35524], [-89.22448, 48.355249], [-89.225019, 48.355314], [-89.226044, 48.355323], [-89.227823, 48.355581], [-89.228333, 48.355692], [-89.22853, 48.355799], [-89.230357, 48.356159], [-89.231166, 48.356178], [-89.231334, 48.356086]]}}, {"type": "Feature", "properties": {"d": 8}, "geometry": {"type": "LineString", "coordinates": [[-89.195257, 48.359092], [-89.195371, 48.35877], [-89.195668, 48.358412], [-89.195953, 48.357839], [-89.196014, 48.357338], [-89.195775, 48.357159], [-89.196191, 48.356444], [-89.196112, 48.356157], [-89.196189, 48.355978], [-89.196022, 48.355871], [-89.19601, 48.355626], [-89.195568, 48.355907], [-89.195417, 48.355924], [-89.195249, 48.355871], [-89.195222, 48.355764], [-89.195409, 48.355585], [-89.195093, 48.355622], [-89.195012, 48.355513], [-89.195093, 48.355377], [-89.195201, 48.355348], [-89.195392, 48.35537], [-89.195525, 48.355473], [-89.195775, 48.355227], [-89.195809, 48.355048], [-89.195309, 48.354959], [-89.194843, 48.354726], [-89.19477, 48.354326], [-89.194318, 48.354368], [-89.194417, 48.354511], [-89.194284, 48.354663], [-89.193989, 48.354439], [-89.194047, 48.354368], [-89.193583, 48.354246], [-89.192721, 48.354818], [-89.192603, 48.354547], [-89.192289, 48.354618], [-89.191643, 48.354368], [-89.191696, 48.354287], [-89.192163, 48.354153], [-89.191948, 48.353903], [-89.191966, 48.353793], [-89.191912, 48.353769], [-89.191808, 48.353903], [-89.191588, 48.353959], [-89.191373, 48.353907], [-89.191303, 48.354153], [-89.191049, 48.354216], [-89.19076, 48.354189], [-89.190726, 48.353903], [-89.190941, 48.353746], [-89.191373, 48.353684], [-89.191804, 48.353378], [-89.192074, 48.353439], [-89.192775, 48.353414], [-89.193098, 48.35355], [-89.193314, 48.353436], [-89.193687, 48.353366], [-89.193651, 48.353008], [-89.193422, 48.35303], [-89.193206, 48.353147], [-89.193044, 48.353081], [-89.19299, 48.352831], [-89.192917, 48.352793], [-89.192939, 48.352757], [-89.192994, 48.352829], [-89.193098, 48.352823], [-89.193178, 48.352686], [-89.192687, 48.352328], [-89.192559, 48.352168], [-89.192559, 48.352041], [-89.19266, 48.352077], [-89.192721, 48.35224], [-89.19319, 48.35197], [-89.193637, 48.351955], [-89.193745, 48.352115], [-89.193799, 48.352149], [-89.193961, 48.352088], [-89.194123, 48.352264], [-89.194346, 48.351862], [-89.194231, 48.351464], [-89.194527, 48.35129], [-89.194608, 48.351052], [-89.194992, 48.351182], [-89.195065, 48.351003], [-89.194841, 48.350824], [-89.195686, 48.350652], [-89.195848, 48.350527], [-89.197358, 48.350864], [-89.197735, 48.350891], [-89.198447, 48.351147], [-89.19876, 48.35113], [-89.199515, 48.351228], [-89.199838, 48.351342], [-89.200054, 48.351533], [-89.201132, 48.351499], [-89.201348, 48.35162], [-89.202388, 48.351791], [-89.202804, 48.351929], [-89.20355, 48.35197], [-89.204745, 48.352276], [-89.207041, 48.352721], [-89.20852, 48.353099], [-89.212631, 48.353974], [-89.215253, 48.354654], [-89.21925, 48.355481], [-89.22076, 48.355992], [-89.221029, 48.356174], [-89.221606, 48.356372], [-89.222809, 48.356934], [-89.223887, 48.357469], [-89.224804, 48.358029], [-89.225214, 48.358197], [-89.225608, 48.358519], [-89.226124, 48.35877], [-89.226586, 48.359092]]}}, {"type": "Feature", "properties": {"d": 10}, "geometry": {"type": "LineString", "coordinates": [[-89.189378, 48.313462], [-89.189442, 48.313622], [-89.189324, 48.31367], [-89.189262, 48.313586], [-89.189378, 48.313462]]}}, {"type": "Feature", "properties": {"d": 10}, "geometry": {"type": "LineString", "coordinates": [[-89.188389, 48.314279], [-89.18776, 48.313922], [-89.187564, 48.314016], [-89.18749, 48.314168], [-89.187275, 48.314139], [-89.187059, 48.314224], [-89.186843, 48.314193], [-89.186574, 48.31432], [-89.18625, 48.314344], [-89.185711, 48.314549], [-89.185486, 48.314518], [-89.185479, 48.31441], [-89.185873, 48.314183], [-89.186088, 48.314132], [-89.186304, 48.31419], [-89.186464, 48.314124], [-89.186718, 48.313873], [-89.186928, 48.313407], [-89.187329, 48.31313], [-89.187583, 48.313049], [-89.187713, 48.312798], [-89.187598, 48.312738], [-89.187437, 48.312734], [-89.187033, 48.31287], [-89.186707, 48.313049], [-89.185981, 48.313299], [-89.185603, 48.313648], [-89.185388, 48.313753], [-89.185247, 48.313694], [-89.185628, 48.3133], [-89.185981, 48.312685], [-89.186895, 48.31201], [-89.186809, 48.311759], [-89.187124, 48.311401], [-89.187067, 48.311079], [-89.18714, 48.310828], [-89.186958, 48.310398], [-89.186976, 48.310183], [-89.187069, 48.310076], [-89.187059, 48.309915], [-89.187365, 48.309574], [-89.187634, 48.309001]]}}, {"type": "Feature", "properties": {"d": 10}, "geometry": {"type": "LineString", "coordinates": [[-89.188515, 48.321596], [-89.188717, 48.321717], [-89.188677, 48.321785], [-89.188461, 48.321751], [-89.188515, 48.321596]]}}, {"type": "Feature", "properties": {"d": 10}, "geometry": {"type": "LineString", "coordinates": [[-89.1896, 48.321788], [-89.189396, 48.321967], [-89.189593, 48.322051], [-89.189621, 48.322039], [-89.1896, 48.321788]]}}, {"type": "Feature", "properties": {"d": 10}, "geometry": {"type": "LineString", "coordinates": [[-89.189984, 48.322683], [-89.189575, 48.322325], [-89.189265, 48.321896], [-89.18958, 48.321466], [-89.189325, 48.321144], [-89.189539, 48.321036], [-89.189364, 48.320929], [-89.189566, 48.320571], [-89.189501, 48.320248], [-89.189562, 48.319997], [-89.189441, 48.319424], [-89.189513, 48.319066], [-89.189422, 48.31878], [-89.189584, 48.318637], [-89.189532, 48.318063], [-89.189599, 48.317705], [-89.189863, 48.317596], [-89.189932, 48.31749], [-89.189751, 48.317276], [-89.189819, 48.317096], [-89.189638, 48.316452], [-89.189919, 48.316237], [-89.189827, 48.316129], [-89.189879, 48.316022], [-89.189781, 48.315807], [-89.189863, 48.31574], [-89.190079, 48.315737], [-89.190224, 48.31552], [-89.190402, 48.315413], [-89.190438, 48.315198], [-89.190597, 48.315091], [-89.190618, 48.314732], [-89.190529, 48.314518], [-89.19024, 48.314232], [-89.189755, 48.313943], [-89.189646, 48.313479], [-89.189537, 48.313371], [-89.189162, 48.313371], [-89.188677, 48.313639], [-89.188367, 48.31373], [-89.188368, 48.313873], [-89.188546, 48.314175]]}}, {"type": "Feature", "properties": {"d": 10}, "geometry": {"type": "LineString", "coordinates": [[-89.189131, 48.324172], [-89.188552, 48.32408], [-89.188538, 48.323364]]}}, {"type": "Feature", "properties": {"d": 10}, "geometry": {"type": "LineString", "coordinates": [[-89.190079, 48.325054], [-89.189388, 48.324825]]}}, {"type": "Feature", "properties": {"d": 10}, "geometry": {"type": "LineString", "coordinates": [[-89.188595, 48.331636], [-89.189201, 48.331135], [-89.1892, 48.331073]]}}, {"type": "Feature", "properties": {"d": 10}, "geometry": {"type": "LineString", "coordinates": [[-89.182927, 48.334644], [-89.183392, 48.334844], [-89.183762, 48.334823], [-89.183985, 48.334679], [-89.184093, 48.334385], [-89.184525, 48.33446], [-89.185344, 48.334071], [-89.185657, 48.333732], [-89.186257, 48.333605], [-89.186682, 48.333319], [-89.187282, 48.333247], [-89.187156, 48.333104], [-89.187114, 48.332889], [-89.187605, 48.332536]]}}, {"type": "Feature", "properties": {"d": 10}, "geometry": {"type": "LineString", "coordinates": [[-89.174334, 48.336997], [-89.174765, 48.337151], [-89.174981, 48.337365], [-89.175281, 48.337436], [-89.175292, 48.337615], [-89.175481, 48.337758], [-89.175805, 48.337758], [-89.175951, 48.337647], [-89.176113, 48.337627], [-89.176177, 48.337436], [-89.176465, 48.337257], [-89.176598, 48.33699], [-89.177299, 48.336799], [-89.178162, 48.336151], [-89.178593, 48.336032], [-89.178971, 48.335756], [-89.179564, 48.335678], [-89.180211, 48.33568], [-89.180535, 48.335535], [-89.18129, 48.335623], [-89.181883, 48.335588], [-89.182179, 48.335503], [-89.182361, 48.33536], [-89.181985, 48.335073], [-89.182366, 48.334679]]}}, {"type": "Feature", "properties": {"d": 10}, "geometry": {"type": "LineString", "coordinates": [[-89.176167, 48.339259], [-89.176275, 48.339405], [-89.176113, 48.339452], [-89.176028, 48.339298], [-89.176059, 48.339245], [-89.176167, 48.339259]]}}, {"type": "Feature", "properties": {"d": 10}, "geometry": {"type": "LineString", "coordinates": [[-89.186466, 48.348772], [-89.186532, 48.348892], [-89.186412, 48.348962], [-89.186362, 48.34882], [-89.186466, 48.348772]]}}, {"type": "Feature", "properties": {"d": 10}, "geometry": {"type": "LineString", "coordinates": [[-89.183015, 48.349633], [-89.183183, 48.349715], [-89.183154, 48.349858], [-89.182638, 48.349914], [-89.182368, 48.349881], [-89.182412, 48.349679], [-89.183015, 48.349633]]}}, {"type": "Feature", "properties": {"d": 10}, "geometry": {"type": "LineString", "coordinates": [[-89.181397, 48.349857], [-89.181597, 48.350037], [-89.181555, 48.350252], [-89.181397, 48.350313], [-89.181224, 48.350288], [-89.181055, 48.350144], [-89.181182, 48.349931], [-89.181397, 48.349857]]}}, {"type": "Feature", "properties": {"d": 10}, "geometry": {"type": "LineString", "coordinates": [[-89.177461, 48.350284], [-89.177586, 48.350359], [-89.177623, 48.350538], [-89.177783, 48.350717], [-89.177677, 48.350867], [-89.177461, 48.35088], [-89.177353, 48.350824], [-89.177258, 48.350395], [-89.177299, 48.350322], [-89.177461, 48.350284]]}}, {"type": "Feature", "properties": {"d": 10}, "geometry": {"type": "LineString", "coordinates": [[-89.174334, 48.350759], [-89.174434, 48.350681], [-89.174549, 48.350338], [-89.17496, 48.350359], [-89.17552, 48.35065], [-89.175736, 48.35083], [-89.176162, 48.350824], [-89.176188, 48.35061], [-89.176329, 48.350579], [-89.176828, 48.350896], [-89.176804, 48.351254], [-89.177065, 48.351469], [-89.177042, 48.35154], [-89.176726, 48.351648], [-89.176686, 48.351755], [-89.177152, 48.35197], [-89.176437, 48.352132], [-89.176005, 48.352042], [-89.175844, 48.352285], [-89.17552, 48.35225], [-89.175143, 48.352313], [-89.174844, 48.352578], [-89.17447, 48.35265], [-89.174334, 48.352838]]}}, {"type": "Feature", "properties": {"d": 10}, "geometry": {"type": "LineString", "coordinates": [[-89.18075, 48.350887], [-89.180807, 48.351039], [-89.18075, 48.351074], [-89.180669, 48.351003], [-89.18075, 48.350887]]}}, {"type": "Feature", "properties": {"d": 10}, "geometry": {"type": "LineString", "coordinates": [[-89.177461, 48.351233], [-89.177407, 48.35137], [-89.177202, 48.351326], [-89.177299, 48.351232], [-89.177461, 48.351233]]}}, {"type": "Feature", "properties": {"d": 10}, "geometry": {"type": "LineString", "coordinates": [[-89.185574, 48.351469], [-89.1854, 48.351469], [-89.185174, 48.351648], [-89.185461, 48.351755], [-89.185363, 48.35197], [-89.186088, 48.352178], [-89.18625, 48.35232], [-89.186513, 48.351827], [-89.185873, 48.351659], [-89.185657, 48.351821], [-89.185586, 48.351755], [-89.185706, 48.351648], [-89.185574, 48.351469]]}}, {"type": "Feature", "properties": {"d": 10}, "geometry": {"type": "LineString", "coordinates": [[-89.180427, 48.351632], [-89.180469, 48.351684], [-89.180211, 48.351764], [-89.180199, 48.351648], [-89.180427, 48.351632]]}}, {"type": "Feature", "properties": {"d": 10}, "geometry": {"type": "LineString", "coordinates": [[-89.180589, 48.351805], [-89.180646, 48.351862], [-89.180589, 48.352138], [-89.180304, 48.35197], [-89.180589, 48.351805]]}}, {"type": "Feature", "properties": {"d": 10}, "geometry": {"type": "LineString", "coordinates": [[-89.184863, 48.351934], [-89.184687, 48.352137], [-89.184506, 48.352185], [-89.184353, 48.352328], [-89.184479, 48.352543], [-89.184687, 48.352655], [-89.184763, 48.352543], [-89.184663, 48.352328], [-89.184988, 48.352077], [-89.184863, 48.351934]]}}, {"type": "Feature", "properties": {"d": 10}, "geometry": {"type": "LineString", "coordinates": [[-89.226073, 48.353294], [-89.225505, 48.353446], [-89.225019, 48.353478], [-89.224642, 48.353697], [-89.224103, 48.35375], [-89.223692, 48.35401], [-89.223703, 48.354153], [-89.223995, 48.354209], [-89.224426, 48.354141], [-89.224965, 48.354147], [-89.225558, 48.353879], [-89.226044, 48.353858], [-89.226259, 48.353669], [-89.227826, 48.353724], [-89.226529, 48.353401], [-89.226206, 48.35341], [-89.226073, 48.353294]]}}, {"type": "Feature", "properties": {"d": 10}, "geometry": {"type": "LineString", "coordinates": [[-89.177353, 48.353758], [-89.177363, 48.353903], [-89.177245, 48.353933], [-89.177192, 48.353795], [-89.177245, 48.353742], [-89.177353, 48.353758]]}}, {"type": "Feature", "properties": {"d": 10}, "geometry": {"type": "LineString", "coordinates": [[-89.174334, 48.353779], [-89.174765, 48.353658], [-89.175111, 48.353903], [-89.174927, 48.354054], [-89.174334, 48.354101]]}}, {"type": "Feature", "properties": {"d": 10}, "geometry": {"type": "LineString", "coordinates": [[-89.175628, 48.353891], [-89.175732, 48.35401], [-89.175701, 48.354153], [-89.175412, 48.354251], [-89.175324, 48.354153], [-89.175326, 48.353938], [-89.175628, 48.353891]]}}, {"type": "Feature", "properties": {"d": 10}, "geometry": {"type": "LineString", "coordinates": [[-89.179814, 48.354332], [-89.179672, 48.354362], [-89.179705, 48.354439], [-89.1799, 48.354404], [-89.179814, 48.354332]]}}, {"type": "Feature", "properties": {"d": 10}, "geometry": {"type": "LineString", "coordinates": [[-89.174334, 48.355543], [-89.174549, 48.355446], [-89.174981, 48.355459], [-89.175628, 48.355379], [-89.17563, 48.355263], [-89.1755, 48.355155], [-89.175649, 48.354905], [-89.175393, 48.354833], [-89.17534, 48.35469], [-89.175466, 48.354572], [-89.175736, 48.35483], [-89.175897, 48.354829], [-89.175997, 48.354762], [-89.176105, 48.354296], [-89.175935, 48.354046], [-89.176113, 48.353927], [-89.176679, 48.354153], [-89.177016, 48.354439], [-89.176976, 48.354553], [-89.176652, 48.354533], [-89.176638, 48.354618], [-89.176814, 48.35466], [-89.176976, 48.354612], [-89.177299, 48.35472], [-89.177461, 48.354588], [-89.177623, 48.354668], [-89.177893, 48.35469], [-89.17854, 48.35434], [-89.178635, 48.354404], [-89.178675, 48.354618], [-89.178863, 48.354709], [-89.178932, 48.354618], [-89.178885, 48.354332], [-89.179025, 48.354178], [-89.179726, 48.354122], [-89.180157, 48.353889], [-89.180265, 48.3539], [-89.180373, 48.354057], [-89.180535, 48.353956], [-89.18075, 48.353994], [-89.180934, 48.353938], [-89.181002, 48.353688], [-89.180745, 48.35358], [-89.180715, 48.353437], [-89.180912, 48.353299], [-89.181451, 48.353264], [-89.1816, 48.353079], [-89.18129, 48.352962], [-89.180696, 48.353042], [-89.180211, 48.352889], [-89.180086, 48.352757], [-89.180211, 48.352609], [-89.180858, 48.352593], [-89.181074, 48.352687], [-89.18129, 48.352583], [-89.181063, 48.352328], [-89.181074, 48.352185], [-89.181224, 48.352041], [-89.181074, 48.351852], [-89.180921, 48.351791], [-89.181044, 48.35154], [-89.180891, 48.351075], [-89.181074, 48.351042], [-89.181134, 48.350896], [-89.181397, 48.350696], [-89.181716, 48.350646], [-89.181872, 48.350431], [-89.181884, 48.350216], [-89.182098, 48.349919], [-89.182314, 48.349918], [-89.18253, 48.350043], [-89.183015, 48.350094], [-89.183662, 48.349958], [-89.184363, 48.349691], [-89.184525, 48.349518], [-89.184794, 48.349544], [-89.18497, 48.349429], [-89.18528, 48.349377], [-89.185431, 48.349071], [-89.185579, 48.349071], [-89.185711, 48.349226], [-89.185911, 48.34925], [-89.185728, 48.348892], [-89.185819, 48.348785], [-89.186015, 48.348856], [-89.186196, 48.349069], [-89.186412, 48.349007], [-89.186897, 48.349098], [-89.187005, 48.348858], [-89.187275, 48.348788], [-89.187385, 48.348641], [-89.187652, 48.348601], [-89.187823, 48.348426], [-89.188461, 48.348381], [-89.188761, 48.348212], [-89.188667, 48.347961], [-89.188353, 48.347603], [-89.187868, 48.347512], [-89.187383, 48.347327], [-89.187113, 48.347066], [-89.186736, 48.346899], [-89.186412, 48.346657], [-89.186333, 48.346422], [-89.186433, 48.346279], [-89.186348, 48.346171], [-89.185927, 48.346128], [-89.185549, 48.345908], [-89.185334, 48.345872], [-89.18501, 48.345647], [-89.184793, 48.345598], [-89.184609, 48.345312], [-89.184201, 48.345044], [-89.183824, 48.345069], [-89.183353, 48.344847], [-89.182691, 48.344662], [-89.182314, 48.344659], [-89.182098, 48.344558], [-89.181886, 48.34456], [-89.182017, 48.344202], [-89.181891, 48.343773], [-89.181451, 48.343326], [-89.18134, 48.343451], [-89.181074, 48.343508], [-89.180933, 48.343415], [-89.180907, 48.343272], [-89.180481, 48.343161], [-89.180284, 48.342949], [-89.179834, 48.342888], [-89.17963, 48.342735], [-89.179552, 48.342412], [-89.178755, 48.342133], [-89.178216, 48.342158], [-89.177893, 48.34199], [-89.177615, 48.341947], [-89.177552, 48.341696], [-89.177138, 48.34133], [-89.176652, 48.341382], [-89.176416, 48.341267], [-89.176387, 48.341088], [-89.176491, 48.341083], [-89.176652, 48.34119], [-89.177064, 48.340909], [-89.176975, 48.340658], [-89.177055, 48.340336], [-89.176749, 48.339727], [-89.176465, 48.339548], [-89.176372, 48.339405], [-89.176545, 48.339345], [-89.176714, 48.339155], [-89.176881, 48.339083], [-89.176885, 48.338976], [-89.176598, 48.338806], [-89.1764, 48.338868], [-89.176221, 48.339077], [-89.175628, 48.339022], [-89.175405, 48.339155], [-89.17525, 48.339413], [-89.175163, 48.33919], [-89.174887, 48.339011], [-89.174693, 48.338725], [-89.174765, 48.33867], [-89.174927, 48.338746], [-89.17545, 48.338725], [-89.175522, 48.338403], [-89.175466, 48.338169], [-89.175412, 48.338142], [-89.175327, 48.338224], [-89.175366, 48.338439], [-89.175089, 48.338562], [-89.174819, 48.33856], [-89.174334, 48.338425]]}}, {"type": "Feature", "properties": {"d": 10}, "geometry": {"type": "LineString", "coordinates": [[-89.184695, 48.356193], [-89.184479, 48.3563], [-89.184579, 48.356479], [-89.184713, 48.356408], [-89.184695, 48.356193]]}}, {"type": "Feature", "properties": {"d": 10}, "geometry": {"type": "LineString", "coordinates": [[-89.18129, 48.3573], [-89.181483, 48.357338], [-89.181451, 48.357462], [-89.181171, 48.357446], [-89.181127, 48.357338], [-89.18129, 48.3573]]}}, {"type": "Feature", "properties": {"d": 10}, "geometry": {"type": "LineString", "coordinates": [[-89.182368, 48.357399], [-89.182476, 48.357454], [-89.182525, 48.357589], [-89.182314, 48.357662], [-89.18222, 48.357625], [-89.182175, 48.357446], [-89.182206, 48.357399], [-89.182368, 48.357399]]}}, {"type": "Feature", "properties": {"d": 10}, "geometry": {"type": "LineString", "coordinates": [[-89.189054, 48.357508], [-89.189068, 48.357732], [-89.188785, 48.357779], [-89.188609, 48.357732], [-89.18877, 48.357517], [-89.189054, 48.357508]]}}, {"type": "Feature", "properties": {"d": 10}, "geometry": {"type": "LineString", "coordinates": [[-89.18652, 48.358089], [-89.186609, 48.358161], [-89.186574, 48.358293], [-89.186377, 48.358126], [-89.18652, 48.358089]]}}, {"type": "Feature", "properties": {"d": 10}, "geometry": {"type": "LineString", "coordinates": [[-89.18474, 48.358084], [-89.184848, 48.35813], [-89.18501, 48.358495], [-89.184642, 48.358376], [-89.184646, 48.358161], [-89.18474, 48.358084]]}}, {"type": "Feature", "properties": {"d": 10}, "geometry": {"type": "LineString", "coordinates": [[-89.181991, 48.358081], [-89.182102, 48.358126], [-89.182118, 48.358233], [-89.181937, 48.358289], [-89.181853, 48.358126], [-89.181991, 48.358081]]}}, {"type": "Feature", "properties": {"d": 10}, "geometry": {"type": "LineString", "coordinates": [[-89.18901, 48.359092], [-89.189134, 48.35877], [-89.189324, 48.358671], [-89.18943, 48.358484], [-89.189482, 48.358233], [-89.189216, 48.358018], [-89.189297, 48.357732], [-89.189184, 48.357195], [-89.18871, 48.356837], [-89.188785, 48.356763], [-89.189337, 48.356587], [-89.189386, 48.356444], [-89.189, 48.356151], [-89.188677, 48.356219], [-89.188246, 48.356157], [-89.188201, 48.355978], [-89.187976, 48.355926], [-89.187714, 48.356014], [-89.187544, 48.356214], [-89.186951, 48.356151], [-89.186628, 48.356334], [-89.18625, 48.356356], [-89.185927, 48.356616], [-89.185549, 48.356555], [-89.185334, 48.356626], [-89.185125, 48.356802], [-89.184512, 48.357016], [-89.184395, 48.357231], [-89.18474, 48.357425], [-89.184848, 48.357659], [-89.18528, 48.357524], [-89.185441, 48.357774], [-89.186142, 48.357829], [-89.186232, 48.358018], [-89.186088, 48.358084], [-89.185172, 48.358093], [-89.184687, 48.357992], [-89.184525, 48.357857], [-89.184255, 48.357966], [-89.183986, 48.357912], [-89.183905, 48.357768], [-89.184006, 48.357374], [-89.183665, 48.357052], [-89.183755, 48.356837], [-89.183608, 48.356615], [-89.182961, 48.356725], [-89.182799, 48.356617], [-89.182098, 48.356818], [-89.181721, 48.35676], [-89.181608, 48.356873], [-89.181768, 48.357159], [-89.181613, 48.357256], [-89.181456, 48.357124], [-89.181504, 48.356945], [-89.181128, 48.356903], [-89.181031, 48.35698], [-89.180966, 48.357284], [-89.18075, 48.357275], [-89.180589, 48.357196], [-89.17951, 48.357438], [-89.179348, 48.357277], [-89.179079, 48.357274], [-89.178837, 48.357589], [-89.178911, 48.357804], [-89.178832, 48.357911], [-89.178647, 48.357996], [-89.17824, 48.358018], [-89.178162, 48.35815], [-89.178, 48.358225], [-89.177907, 48.358126], [-89.178088, 48.357983], [-89.178031, 48.357875], [-89.177893, 48.357846], [-89.177754, 48.357983], [-89.177623, 48.357992], [-89.17746, 48.357875], [-89.177518, 48.357696], [-89.177353, 48.357527], [-89.176976, 48.357455], [-89.176776, 48.357589], [-89.176432, 48.35766], [-89.176394, 48.357696], [-89.176592, 48.357875], [-89.176275, 48.357985], [-89.176197, 48.357947], [-89.176202, 48.357696], [-89.176091, 48.357553], [-89.175914, 48.357553], [-89.176033, 48.357696], [-89.176005, 48.357824], [-89.175736, 48.35792], [-89.175304, 48.358327], [-89.175035, 48.358324], [-89.174765, 48.358124], [-89.174334, 48.358092]]}}, {"type": "Feature", "properties": {"d": 10}, "geometry": {"type": "LineString", "coordinates": [[-89.188292, 48.359092], [-89.188623, 48.358957], [-89.188904, 48.359092]]}}, {"type": "Feature", "properties": {"d": 10}, "geometry": {"type": "LineString", "coordinates": [[-89.185626, 48.359092], [-89.185298, 48.358949], [-89.185288, 48.358806], [-89.185388, 48.358721], [-89.18567, 48.358698], [-89.185714, 48.358877], [-89.186066, 48.359092]]}}, {"type": "Feature", "properties": {"d": 10}, "geometry": {"type": "LineString", "coordinates": [[-89.18432, 48.359092], [-89.184342, 48.358949], [-89.184525, 48.35887], [-89.1846, 48.359092]]}}, {"type": "Feature", "properties": {"d": 12}, "geometry": {"type": "LineString", "coordinates": [[-89.187544, 48.314868], [-89.186951, 48.314866], [-89.186682, 48.314793], [-89.186412, 48.314985], [-89.185397, 48.315306], [-89.184848, 48.315589], [-89.184471, 48.315636], [-89.183716, 48.315605], [-89.183285, 48.3155], [-89.182638, 48.315459], [-89.181667, 48.315701], [-89.181325, 48.315735], [-89.181074, 48.315844], [-89.180912, 48.315768], [-89.180739, 48.315914], [-89.180535, 48.31598], [-89.180297, 48.315914], [-89.180536, 48.315664], [-89.180161, 48.315413], [-89.180129, 48.315162], [-89.180266, 48.314553], [-89.180476, 48.314231], [-89.180558, 48.313909], [-89.180923, 48.313622], [-89.181248, 48.313264], [-89.181266, 48.313156], [-89.181667, 48.313014], [-89.181883, 48.312766], [-89.182691, 48.312828], [-89.183285, 48.312724], [-89.183932, 48.312698], [-89.18412, 48.312798], [-89.184525, 48.312887], [-89.184745, 48.312798], [-89.184875, 48.312619], [-89.184939, 48.312261], [-89.184864, 48.311867], [-89.184956, 48.311785], [-89.185352, 48.311688], [-89.185351, 48.311401], [-89.185838, 48.310864], [-89.185683, 48.310542], [-89.185857, 48.310291], [-89.185803, 48.309861], [-89.186098, 48.309288], [-89.186046, 48.309145], [-89.186109, 48.309001]]}}, {"type": "Feature", "properties": {"d": 12}, "geometry": {"type": "LineString", "coordinates": [[-89.186951, 48.318959], [-89.187351, 48.318851], [-89.187429, 48.318708], [-89.187447, 48.31835], [-89.187579, 48.318171], [-89.187666, 48.317741], [-89.18755, 48.317598], [-89.187627, 48.317383], [-89.187506, 48.317276], [-89.187639, 48.316917], [-89.187497, 48.316774], [-89.187474, 48.316523], [-89.187681, 48.316237], [-89.187473, 48.316058], [-89.187598, 48.315943], [-89.187835, 48.316094], [-89.188137, 48.316143], [-89.188191, 48.316091], [-89.188226, 48.31595], [-89.187958, 48.315592], [-89.188198, 48.315413], [-89.188204, 48.314768]]}}, {"type": "Feature", "properties": {"d": 12}, "geometry": {"type": "LineString", "coordinates": [[-89.186834, 48.325011], [-89.186838, 48.324152]]}}, {"type": "Feature", "properties": {"d": 12}, "geometry": {"type": "LineString", "coordinates": [[-89.188353, 48.325097], [-89.187976, 48.324987], [-89.18749, 48.324941], [-89.187167, 48.325052]]}}, {"type": "Feature", "properties": {"d": 12}, "geometry": {"type": "LineString", "coordinates": [[-89.188176, 48.325595], [-89.188361, 48.325124]]}}, {"type": "Feature", "properties": {"d": 12}, "geometry": {"type": "LineString", "coordinates": [[-89.188061, 48.32759], [-89.188075, 48.326802]]}}, {"type": "Feature", "properties": {"d": 12}, "geometry": {"type": "LineString", "coordinates": [[-89.18253, 48.330427], [-89.183285, 48.330067], [-89.183401, 48.329846], [-89.183285, 48.329563], [-89.183824, 48.329701], [-89.183945, 48.32938], [-89.184094, 48.329308], [-89.184093, 48.329128], [-89.18501, 48.329017], [-89.185497, 48.328808]]}}, {"type": "Feature", "properties": {"d": 12}, "geometry": {"type": "LineString", "coordinates": [[-89.182125, 48.331833], [-89.18226, 48.331587], [-89.182766, 48.331564], [-89.182833, 48.331493], [-89.182745, 48.331378], [-89.182206, 48.331325], [-89.182064, 48.331206], [-89.182083, 48.331088]]}}, {"type": "Feature", "properties": {"d": 12}, "geometry": {"type": "LineString", "coordinates": [[-89.181876, 48.333999], [-89.181895, 48.333355], [-89.182152, 48.333246], [-89.182476, 48.333237], [-89.182538, 48.333176], [-89.182476, 48.332875], [-89.182152, 48.332647], [-89.182128, 48.33226]]}}, {"type": "Feature", "properties": {"d": 12}, "geometry": {"type": "LineString", "coordinates": [[-89.18102, 48.33483], [-89.18129, 48.334902], [-89.181883, 48.33494], [-89.18226, 48.33463]]}}, {"type": "Feature", "properties": {"d": 12}, "geometry": {"type": "LineString", "coordinates": [[-89.174334, 48.336773], [-89.175412, 48.336818], [-89.175951, 48.336736], [-89.176234, 48.336613], [-89.17676, 48.336503], [-89.17805, 48.335897], [-89.178486, 48.335577], [-89.179113, 48.33536], [-89.179187, 48.334989], [-89.179834, 48.335059], [-89.18019, 48.334987]]}}, {"type": "Feature", "properties": {"d": 12}, "geometry": {"type": "LineString", "coordinates": [[-89.174334, 48.344485], [-89.174429, 48.344274], [-89.174603, 48.344239], [-89.174835, 48.344274], [-89.175323, 48.34456], [-89.175089, 48.344727], [-89.174873, 48.344665], [-89.174753, 48.344704], [-89.174659, 48.345348], [-89.174824, 48.345706], [-89.175037, 48.345885], [-89.17528, 48.346314], [-89.175541, 48.346493], [-89.175536, 48.34678], [-89.175303, 48.347173], [-89.175259, 48.347424], [-89.175384, 48.347675], [-89.175574, 48.347799], [-89.175916, 48.347746], [-89.176916, 48.347424], [-89.177623, 48.346649], [-89.177787, 48.346672], [-89.178, 48.346817], [-89.178346, 48.346887], [-89.178609, 48.347138], [-89.178593, 48.34721], [-89.178088, 48.347567], [-89.178067, 48.347675], [-89.178162, 48.347791], [-89.178809, 48.347686], [-89.179995, 48.347108], [-89.180478, 48.346744], [-89.180427, 48.346684], [-89.180211, 48.346678], [-89.17976, 48.346923], [-89.179187, 48.347036], [-89.178863, 48.347002], [-89.178719, 48.346887], [-89.178674, 48.346672], [-89.179348, 48.346441], [-89.179599, 48.346279], [-89.179992, 48.346207], [-89.180049, 48.345929], [-89.179259, 48.345563], [-89.179133, 48.345348], [-89.179151, 48.345061], [-89.179333, 48.344775], [-89.179187, 48.344721], [-89.178863, 48.34477], [-89.178671, 48.344632], [-89.178432, 48.344573], [-89.178308, 48.344453], [-89.178471, 48.34431], [-89.178429, 48.344202], [-89.177808, 48.344023], [-89.177569, 48.343884], [-89.177407, 48.343689], [-89.177207, 48.34363], [-89.177138, 48.34344], [-89.176868, 48.343373], [-89.176706, 48.34302], [-89.176383, 48.342955], [-89.176059, 48.343007], [-89.17579, 48.342725], [-89.175196, 48.343027], [-89.175114, 48.343236], [-89.174765, 48.343259], [-89.174334, 48.343544]]}}, {"type": "Feature", "properties": {"d": 12}, "geometry": {"type": "LineString", "coordinates": [[-89.179025, 48.346037], [-89.179079, 48.346187], [-89.178863, 48.346203], [-89.178863, 48.346079], [-89.179025, 48.346037]]}}, {"type": "Feature", "properties": {"d": 12}, "geometry": {"type": "LineString", "coordinates": [[-89.177911, 48.34771], [-89.177785, 48.347696], [-89.17762, 48.347854], [-89.177875, 48.347854], [-89.177911, 48.34771]]}}, {"type": "Feature", "properties": {"d": 12}, "geometry": {"type": "LineString", "coordinates": [[-89.17872, 48.348498], [-89.178647, 48.348469], [-89.178303, 48.348569], [-89.178701, 48.348601], [-89.17872, 48.348498]]}}, {"type": "Feature", "properties": {"d": 12}, "geometry": {"type": "LineString", "coordinates": [[-89.178402, 48.348892], [-89.178216, 48.34887], [-89.178096, 48.348892], [-89.178486, 48.349053], [-89.17855, 48.348927], [-89.178402, 48.348892]]}}, {"type": "Feature", "properties": {"d": 15}, "geometry": {"type": "LineString", "coordinates": [[-89.182476, 48.309216], [-89.183015, 48.309423], [-89.183177, 48.309409], [-89.183303, 48.309288], [-89.18332, 48.309001]]}}, {"type": "Feature", "properties": {"d": 15}, "geometry": {"type": "LineString", "coordinates": [[-89.185476, 48.318386], [-89.185113, 48.31792], [-89.184525, 48.317563], [-89.184147, 48.317527], [-89.183231, 48.317683], [-89.182476, 48.31796], [-89.181991, 48.318048], [-89.181657, 48.318278], [-89.181397, 48.318241], [-89.181128, 48.318312], [-89.180557, 48.318601], [-89.180211, 48.318654], [-89.179598, 48.318995], [-89.179187, 48.319141], [-89.178809, 48.319149], [-89.178647, 48.319084], [-89.178598, 48.318923], [-89.178409, 48.31878], [-89.178453, 48.318637], [-89.178372, 48.318493], [-89.177946, 48.318093], [-89.177563, 48.317992], [-89.177299, 48.31763], [-89.177311, 48.317276], [-89.177486, 48.316774], [-89.177623, 48.316551], [-89.178063, 48.316165], [-89.178301, 48.315771], [-89.178305, 48.314876], [-89.178442, 48.31398], [-89.178634, 48.313765], [-89.17906, 48.31287], [-89.179834, 48.312008], [-89.180166, 48.311903], [-89.180128, 48.311759], [-89.180372, 48.311616], [-89.180427, 48.311335], [-89.18111, 48.310649], [-89.181182, 48.310456], [-89.181559, 48.310413], [-89.181753, 48.310148], [-89.181975, 48.310112], [-89.182314, 48.309921], [-89.182476, 48.309752], [-89.182806, 48.30961], [-89.182799, 48.309534], [-89.182426, 48.309252], [-89.182466, 48.309223]]}}, {"type": "Feature", "properties": {"d": 15}, "geometry": {"type": "LineString", "coordinates": [[-89.184114, 48.322912], [-89.184901, 48.322576], [-89.184812, 48.322039], [-89.185072, 48.321865]]}}, {"type": "Feature", "properties": {"d": 15}, "geometry": {"type": "LineString", "coordinates": [[-89.181297, 48.323216], [-89.182301, 48.323355]]}}, {"type": "Feature", "properties": {"d": 15}, "geometry": {"type": "LineString", "coordinates": [[-89.18253, 48.323331], [-89.182853, 48.323231], [-89.183558, 48.323223]]}}, {"type": "Feature", "properties": {"d": 15}, "geometry": {"type": "LineString", "coordinates": [[-89.180064, 48.324402], [-89.179803, 48.324116], [-89.179942, 48.324006], [-89.180481, 48.323814], [-89.180966, 48.323952], [-89.180997, 48.323256]]}}, {"type": "Feature", "properties": {"d": 15}, "geometry": {"type": "LineString", "coordinates": [[-89.178917, 48.32495], [-89.179241, 48.324857], [-89.179917, 48.32478]]}}, {"type": "Feature", "properties": {"d": 15}, "geometry": {"type": "LineString", "coordinates": [[-89.180157, 48.32532], [-89.178917, 48.325313]]}}, {"type": "Feature", "properties": {"d": 15}, "geometry": {"type": "LineString", "coordinates": [[-89.183686, 48.325727], [-89.183173, 48.326083]]}}, {"type": "Feature", "properties": {"d": 15}, "geometry": {"type": "LineString", "coordinates": [[-89.184417, 48.326373], [-89.18416, 48.325871], [-89.183977, 48.325727]]}}, {"type": "Feature", "properties": {"d": 15}, "geometry": {"type": "LineString", "coordinates": [[-89.182871, 48.327637], [-89.183534, 48.326968]]}}, {"type": "Feature", "properties": {"d": 15}, "geometry": {"type": "LineString", "coordinates": [[-89.180427, 48.329773], [-89.180505, 48.32981], [-89.180481, 48.32989], [-89.179888, 48.33023], [-89.179802, 48.330132], [-89.179815, 48.329989], [-89.180427, 48.329773]]}}, {"type": "Feature", "properties": {"d": 15}, "geometry": {"type": "LineString", "coordinates": [[-89.18096, 48.330056], [-89.181802, 48.329649]]}}, {"type": "Feature", "properties": {"d": 15}, "geometry": {"type": "LineString", "coordinates": [[-89.179705, 48.33062], [-89.179942, 48.330422], [-89.180427, 48.330302], [-89.180887, 48.330079]]}}, {"type": "Feature", "properties": {"d": 15}, "geometry": {"type": "LineString", "coordinates": [[-89.178432, 48.331012], [-89.179618, 48.331011]]}}, {"type": "Feature", "properties": {"d": 15}, "geometry": {"type": "LineString", "coordinates": [[-89.177221, 48.331548], [-89.177839, 48.331579], [-89.178128, 48.331515]]}}, {"type": "Feature", "properties": {"d": 15}, "geometry": {"type": "LineString", "coordinates": [[-89.176788, 48.331941], [-89.177128, 48.331594]]}}, {"type": "Feature", "properties": {"d": 15}, "geometry": {"type": "LineString", "coordinates": [[-89.178015, 48.333426], [-89.177893, 48.333332], [-89.177094, 48.333176], [-89.177061, 48.332638]]}}, {"type": "Feature", "properties": {"d": 15}, "geometry": {"type": "LineString", "coordinates": [[-89.174334, 48.336251], [-89.174981, 48.33642], [-89.176696, 48.335932], [-89.177299, 48.335265], [-89.177487, 48.335145], [-89.177731, 48.335033], [-89.178162, 48.335008], [-89.178296, 48.33493], [-89.178304, 48.334858], [-89.178017, 48.334679], [-89.178199, 48.334178]]}}, {"type": "Feature", "properties": {"d": 20}, "geometry": {"type": "LineString", "coordinates": [[-89.174334, 48.319607], [-89.174657, 48.318906], [-89.175412, 48.318029], [-89.176167, 48.317522], [-89.176506, 48.316917], [-89.176751, 48.316702], [-89.17674, 48.316416], [-89.176504, 48.315986], [-89.176545, 48.315246], [-89.176825, 48.314482], [-89.177279, 48.313873], [-89.17756, 48.313228], [-89.178054, 48.312504], [-89.178444, 48.311401], [-89.178809, 48.31095], [-89.179456, 48.310386], [-89.180157, 48.309979], [-89.18074, 48.309753], [-89.18129, 48.309416], [-89.181613, 48.309398], [-89.181883, 48.309236]]}}, {"type": "Feature", "properties": {"d": 20}, "geometry": {"type": "LineString", "coordinates": [[-89.174334, 48.321539], [-89.17482, 48.321287], [-89.174918, 48.321144], [-89.1746, 48.320248], [-89.174334, 48.319951]]}}, {"type": "Feature", "properties": {"d": 20}, "geometry": {"type": "LineString", "coordinates": [[-89.176545, 48.328601], [-89.175897, 48.328802], [-89.175574, 48.328801], [-89.175143, 48.328893], [-89.174927, 48.328893], [-89.174603, 48.328786], [-89.174546, 48.328485], [-89.174997, 48.327876], [-89.17509, 48.327518], [-89.174993, 48.32716], [-89.174583, 48.326623], [-89.174334, 48.326601]]}}, {"type": "Feature", "properties": {"d": 20}, "geometry": {"type": "LineString", "coordinates": [[-89.177885, 48.32916], [-89.17703, 48.329147], [-89.176607, 48.3287]]}}, {"type": "Feature", "properties": {"d": 20}, "geometry": {"type": "LineString", "coordinates": [[-89.177638, 48.329764], [-89.177761, 48.329523], [-89.177946, 48.329385]]}}, {"type": "Feature", "properties": {"d": 20}, "geometry": {"type": "LineString", "coordinates": [[-89.176404, 48.33097], [-89.176922, 48.331036], [-89.177623, 48.330635]]}}, {"type": "Feature", "properties": {"d": 20}, "geometry": {"type": "LineString", "coordinates": [[-89.174334, 48.331514], [-89.175089, 48.331197], [-89.175736, 48.331278], [-89.17612, 48.331103]]}}, {"type": "Feature", "properties": {"d": 20}, "geometry": {"type": "LineString", "coordinates": [[-89.175753, 48.331696], [-89.175682, 48.331664], [-89.175196, 48.331845], [-89.175088, 48.331994], [-89.175097, 48.332137], [-89.175304, 48.332279], [-89.175913, 48.332004]]}}, {"type": "Feature", "properties": {"d": 25}, "geometry": {"type": "LineString", "coordinates": [[-89.174334, 48.317458], [-89.174765, 48.317189], [-89.175198, 48.316595], [-89.175297, 48.315843], [-89.175501, 48.315162], [-89.175917, 48.314518], [-89.176076, 48.314016], [-89.176544, 48.31355], [-89.176737, 48.312906], [-89.177109, 48.312476], [-89.177452, 48.311616], [-89.177751, 48.31133], [-89.178, 48.310936], [-89.178484, 48.31047], [-89.179456, 48.309692], [-89.180104, 48.309324], [-89.180507, 48.309001]]}}, {"type": "Feature", "properties": {"w": 1}, "geometry": {"type": "Polygon", "coordinates": [[[-89.216904, 48.352945], [-89.217767, 48.352856], [-89.218185, 48.352721], [-89.218158, 48.352543], [-89.217659, 48.352507], [-89.216689, 48.352614], [-89.216271, 48.352748], [-89.216405, 48.352909], [-89.216904, 48.352945]]]}}, {"type": "Feature", "properties": {"w": 1}, "geometry": {"type": "Polygon", "coordinates": [[[-89.216567, 48.352238], [-89.217619, 48.352167], [-89.218117, 48.352032], [-89.218063, 48.351836], [-89.217538, 48.351791], [-89.21654, 48.351898], [-89.216041, 48.352032], [-89.216041, 48.352194], [-89.216567, 48.352238]]]}}, {"type": "Feature", "properties": {"w": 1}, "geometry": {"type": "Polygon", "coordinates": [[[-89.218131, 48.343182], [-89.218751, 48.342753], [-89.219061, 48.342395], [-89.219061, 48.342108], [-89.218913, 48.341679], [-89.218616, 48.341106], [-89.218171, 48.340855], [-89.217578, 48.340927], [-89.217403, 48.341204], [-89.217646, 48.341688], [-89.21778, 48.342296], [-89.217807, 48.34303], [-89.218131, 48.343182]]]}}, {"type": "Feature", "properties": {"w": 1}, "geometry": {"type": "Polygon", "coordinates": [[[-89.21073, 48.341401], [-89.211647, 48.341133], [-89.21197, 48.340515], [-89.211701, 48.339548], [-89.210676, 48.338859], [-89.208897, 48.338448], [-89.20825, 48.338913], [-89.208735, 48.340256], [-89.209301, 48.341079], [-89.209948, 48.341383], [-89.21073, 48.341401]]]}}, {"type": "Feature", "properties": {"w": 1}, "geometry": {"type": "Polygon", "coordinates": [[[-89.217295, 48.340273], [-89.217538, 48.340041], [-89.218266, 48.339969], [-89.219479, 48.340059], [-89.220315, 48.340041], [-89.220773, 48.339915], [-89.220948, 48.339826], [-89.22084, 48.339772], [-89.220544, 48.339817], [-89.220059, 48.33996], [-89.219385, 48.340005], [-89.218522, 48.339951], [-89.21747, 48.339504], [-89.21623, 48.338662], [-89.215637, 48.33843], [-89.215691, 48.338806], [-89.215934, 48.339244], [-89.216365, 48.339745], [-89.216715, 48.340005], [-89.216985, 48.340023], [-89.217133, 48.340121], [-89.21716, 48.3403], [-89.217295, 48.340273]]]}}, {"type": "Feature", "properties": {"w": 1}, "geometry": {"type": "Polygon", "coordinates": [[[-89.212537, 48.311106], [-89.212968, 48.31098], [-89.213292, 48.31081], [-89.213507, 48.310595], [-89.213588, 48.310237], [-89.213534, 48.309736], [-89.213211, 48.309359], [-89.212618, 48.309109], [-89.211876, 48.308983], [-89.210986, 48.308983], [-89.210218, 48.309207], [-89.209571, 48.309655], [-89.209652, 48.310165], [-89.210461, 48.310739], [-89.211229, 48.311061], [-89.211957, 48.311133], [-89.212537, 48.311106]]]}}, {"type": "Feature", "properties": {"w": 1}, "geometry": {"type": "Polygon", "coordinates": [[[-89.229845, 48.358833], [-89.229953, 48.358278], [-89.229522, 48.357848], [-89.228551, 48.357544], [-89.228201, 48.357222], [-89.22847, 48.356882], [-89.228713, 48.356676], [-89.228929, 48.356605], [-89.229387, 48.356676], [-89.230088, 48.356891], [-89.230991, 48.357079], [-89.232096, 48.35724], [-89.23277, 48.35724], [-89.233013, 48.357079], [-89.233175, 48.356846], [-89.233256, 48.356542], [-89.231746, 48.356059], [-89.228645, 48.355397], [-89.22719, 48.35486], [-89.227378, 48.354448], [-89.227702, 48.354162], [-89.22816, 48.354001], [-89.230007, 48.354314], [-89.233242, 48.355102], [-89.234995, 48.355307], [-89.235264, 48.354932], [-89.232056, 48.353938], [-89.22537, 48.352328], [-89.220867, 48.352059], [-89.218549, 48.353133], [-89.217079, 48.353652], [-89.216459, 48.353616], [-89.215974, 48.353437], [-89.215624, 48.353115], [-89.215138, 48.352883], [-89.214518, 48.352739], [-89.214168, 48.352453], [-89.214087, 48.352024], [-89.214114, 48.351648], [-89.214249, 48.351326], [-89.214316, 48.350753], [-89.214316, 48.34993], [-89.214262, 48.34942], [-89.214154, 48.349223], [-89.213386, 48.348838], [-89.211957, 48.348265], [-89.211337, 48.347827], [-89.211526, 48.347522], [-89.211741, 48.347361], [-89.211984, 48.347344], [-89.212119, 48.347263], [-89.212146, 48.34712], [-89.212402, 48.346905], [-89.212887, 48.346619], [-89.213157, 48.346117], [-89.213211, 48.345402], [-89.212442, 48.344811], [-89.210852, 48.344346], [-89.20922, 48.341983], [-89.207549, 48.337723], [-89.206902, 48.335655], [-89.207279, 48.33578], [-89.20767, 48.335843], [-89.208075, 48.335843], [-89.208587, 48.3357], [-89.209207, 48.335413], [-89.209706, 48.335279], [-89.210083, 48.335297], [-89.210501, 48.335789], [-89.210959, 48.336756], [-89.21135, 48.337347], [-89.211674, 48.337561], [-89.212537, 48.33774], [-89.213939, 48.337884], [-89.214815, 48.338018], [-89.215165, 48.338143], [-89.215408, 48.338197], [-89.215543, 48.338179], [-89.21561, 48.338054], [-89.21561, 48.337821], [-89.215327, 48.337517], [-89.214761, 48.337141], [-89.214262, 48.336935], [-89.213831, 48.336899], [-89.213399, 48.336765], [-89.212968, 48.336532], [-89.212685, 48.336237], [-89.21255, 48.335879], [-89.212334, 48.335557], [-89.212038, 48.33527], [-89.21162, 48.335136], [-89.211081, 48.335154], [-89.210542, 48.3351], [-89.210002, 48.334975], [-89.2098, 48.334527], [-89.209935, 48.333757], [-89.2098, 48.333131], [-89.209396, 48.332647], [-89.208816, 48.332316], [-89.208061, 48.332137], [-89.206929, 48.33211], [-89.205419, 48.332236], [-89.204583, 48.332218], [-89.204422, 48.332057], [-89.203801, 48.331869], [-89.202723, 48.331654], [-89.202089, 48.331466], [-89.201901, 48.331305], [-89.201779, 48.330839], [-89.201726, 48.330069], [-89.201901, 48.329532], [-89.202305, 48.329228], [-89.202656, 48.329049], [-89.202952, 48.328995], [-89.203222, 48.328727], [-89.203464, 48.328243], [-89.203842, 48.327751], [-89.204354, 48.327249], [-89.204853, 48.3269], [-89.205338, 48.326703], [-89.205635, 48.326274], [-89.205743, 48.325611], [-89.20577, 48.325208], [-89.205716, 48.325065], [-89.205594, 48.324984], [-89.205406, 48.324967], [-89.205379, 48.324913], [-89.205513, 48.324823], [-89.205554, 48.324617], [-89.2055, 48.324295], [-89.205635, 48.323883], [-89.205958, 48.323382], [-89.206201, 48.323113], [-89.206363, 48.323077], [-89.206727, 48.322737], [-89.207293, 48.322093], [-89.207603, 48.321663], [-89.207657, 48.321448], [-89.207819, 48.321278], [-89.208088, 48.321152], [-89.208156, 48.320991], [-89.208021, 48.320794], [-89.208102, 48.320696], [-89.208398, 48.320696], [-89.208681, 48.320606], [-89.208951, 48.320427], [-89.20914, 48.320132], [-89.209247, 48.31972], [-89.209207, 48.319389], [-89.209018, 48.319138], [-89.208007, 48.318422], [-89.206174, 48.31724], [-89.204462, 48.316389], [-89.202871, 48.31587], [-89.201537, 48.315001], [-89.200458, 48.313783], [-89.199353, 48.312843], [-89.198221, 48.31218], [-89.197574, 48.311697], [-89.197412, 48.311392], [-89.197344, 48.31107], [-89.197371, 48.31073], [-89.197654, 48.310165], [-89.198194, 48.309377], [-89.192424, 48.308983], [-89.180346, 48.308983], [-89.174307, 48.32152], [-89.174307, 48.346583], [-89.184457, 48.35911], [-89.204759, 48.35911], [-89.21561, 48.358645], [-89.217012, 48.357714], [-89.218414, 48.357473], [-89.219816, 48.35792], [-89.220423, 48.358063], [-89.220234, 48.357902], [-89.219479, 48.35758], [-89.218158, 48.357097], [-89.217187, 48.356864], [-89.216567, 48.356882], [-89.216446, 48.356846], [-89.216823, 48.356757], [-89.217376, 48.356802], [-89.218104, 48.35698], [-89.21867, 48.357007], [-89.219075, 48.356882], [-89.219883, 48.356989], [-89.221097, 48.357329], [-89.221784, 48.357482], [-89.221946, 48.357446], [-89.222525, 48.357616], [-89.223523, 48.357992], [-89.224116, 48.358287], [-89.224305, 48.358501], [-89.224655, 48.358734], [-89.225168, 48.358985], [-89.226516, 48.35911], [-89.228699, 48.35911], [-89.229845, 48.358833]]]}}, {"type": "Feature", "properties": {"w": 1}, "geometry": {"type": "Polygon", "coordinates": [[[-89.209517, 48.309413], [-89.210056, 48.309127], [-89.209288, 48.308983], [-89.207212, 48.308983], [-89.206309, 48.309082], [-89.206578, 48.309279], [-89.207131, 48.309368], [-89.207967, 48.30935], [-89.2086, 48.309395], [-89.209032, 48.309503], [-89.209517, 48.309413]]]}}]}