{"type": "FeatureCollection", "features": [{"type": "Feature", "properties": {"d": 2}, "geometry": {"type": "LineString", "coordinates": [[-88.992023, 48.49996], [-88.992793, 48.499457], [-88.99317, 48.49944], [-88.993385, 48.499295], [-88.993546, 48.499307], [-88.994084, 48.499561], [-88.994407, 48.499436], [-88.994545, 48.499461], [-88.994563, 48.499782], [-88.99444, 48.499925], [-88.994141, 48.500032], [-88.993879, 48.500282], [-88.9936, 48.500397], [-88.993439, 48.500428], [-88.993325, 48.500353]]}}, {"type": "Feature", "properties": {"d": 2}, "geometry": {"type": "LineString", "coordinates": [[-88.993255, 48.500368], [-88.993224, 48.500513], [-88.992793, 48.500615], [-88.991448, 48.50114], [-88.98959, 48.50203], [-88.98889, 48.502459], [-88.987575, 48.503473], [-88.987037, 48.503691], [-88.986606, 48.504087], [-88.986023, 48.504386], [-88.98542, 48.5046], [-88.983701, 48.504983], [-88.982755, 48.50542], [-88.981388, 48.505836], [-88.981011, 48.5061], [-88.979128, 48.506144], [-88.978644, 48.506054], [-88.978268, 48.505801], [-88.978068, 48.505278], [-88.978268, 48.505032], [-88.979505, 48.504788], [-88.979882, 48.504563], [-88.980043, 48.504563], [-88.980258, 48.504673], [-88.980689, 48.504674], [-88.98103, 48.504457], [-88.98128, 48.504472], [-88.981711, 48.504329], [-88.982679, 48.503796], [-88.983271, 48.503783], [-88.983863, 48.50369], [-88.984092, 48.503422], [-88.984227, 48.502958], [-88.984569, 48.502744], [-88.985692, 48.502302], [-88.986606, 48.502161], [-88.987126, 48.501995], [-88.987557, 48.501459], [-88.987898, 48.501229], [-88.989458, 48.500802], [-88.989942, 48.500554], [-88.99048, 48.5004], [-88.991148, 48.500067], [-88.991825, 48.500033]]}}, {"type": "Feature", "properties": {"d": 2}, "geometry": {"type": "LineString", "coordinates": [[-88.983271, 48.507095], [-88.983325, 48.507098], [-88.983445, 48.507133], [-88.98313, 48.507133], [-88.983271, 48.507095]]}}, {"type": "Feature", "properties": {"d": 2}, "geometry": {"type": "LineString", "coordinates": [[-88.974405, 48.509531], [-88.974717, 48.509454], [-88.974878, 48.509303], [-88.975147, 48.509337], [-88.97518, 48.509274], [-88.975094, 48.509199], [-88.974717, 48.509207], [-88.974502, 48.509092], [-88.974179, 48.50906], [-88.974043, 48.508882], [-88.974141, 48.508739], [-88.974771, 48.508725], [-88.975094, 48.508862], [-88.975578, 48.508884], [-88.975954, 48.509242], [-88.976761, 48.509073], [-88.976935, 48.509238], [-88.977084, 48.509258], [-88.977299, 48.509172], [-88.977622, 48.509304], [-88.978962, 48.508311], [-88.979989, 48.507744], [-88.980796, 48.507496], [-88.981388, 48.507518], [-88.981711, 48.507468], [-88.982141, 48.507355], [-88.982679, 48.507116], [-88.982782, 48.507133], [-88.982679, 48.507303], [-88.982506, 48.507383], [-88.98257, 48.507419], [-88.983432, 48.507521], [-88.983755, 48.507659], [-88.985208, 48.507806], [-88.985954, 48.508061], [-88.989189, 48.510055], [-88.990051, 48.510523], [-88.991809, 48.511308], [-88.996236, 48.512615], [-88.996828, 48.512679], [-88.997689, 48.512446], [-88.998119, 48.512442], [-88.998471, 48.512343], [-88.999034, 48.511925], [-88.999626, 48.51182]]}}, {"type": "Feature", "properties": {"d": 2}, "geometry": {"type": "LineString", "coordinates": [[-88.971866, 48.509631], [-88.97192, 48.509582], [-88.972458, 48.509548], [-88.974266, 48.509538]]}}, {"type": "Feature", "properties": {"d": 2}, "geometry": {"type": "LineString", "coordinates": [[-88.970986, 48.509738], [-88.971113, 48.509654], [-88.971534, 48.509672]]}}, {"type": "Feature", "properties": {"d": 2}, "geometry": {"type": "LineString", "coordinates": [[-88.966807, 48.510416], [-88.968846, 48.509881], [-88.969983, 48.509843], [-88.970158, 48.509916]]}}, {"type": "Feature", "properties": {"d": 2}, "geometry": {"type": "LineString", "coordinates": [[-88.964874, 48.51088], [-88.965571, 48.51066], [-88.966008, 48.51059]]}}, {"type": "Feature", "properties": {"d": 2}, "geometry": {"type": "LineString", "coordinates": [[-88.960495, 48.511606], [-88.960612, 48.511522], [-88.960966, 48.511522], [-88.961368, 48.511629], [-88.96159, 48.511813], [-88.961859, 48.511807]]}}, {"type": "Feature", "properties": {"d": 2}, "geometry": {"type": "LineString", "coordinates": [[-88.962096, 48.511722], [-88.962151, 48.511593], [-88.962666, 48.511342], [-88.962774, 48.511352]]}}, {"type": "Feature", "properties": {"d": 2}, "geometry": {"type": "LineString", "coordinates": [[-88.959841, 48.511736], [-88.959923, 48.511628], [-88.960286, 48.511638]]}}, {"type": "Feature", "properties": {"d": 2}, "geometry": {"type": "LineString", "coordinates": [[-88.954522, 48.514782], [-88.954758, 48.514336], [-88.955494, 48.513805], [-88.956202, 48.512985], [-88.956748, 48.512683], [-88.957095, 48.512307], [-88.957824, 48.512106], [-88.958147, 48.512191], [-88.958416, 48.512144], [-88.959492, 48.511727], [-88.959759, 48.511738]]}}, {"type": "Feature", "properties": {"d": 2}, "geometry": {"type": "LineString", "coordinates": [[-88.952851, 48.514963], [-88.952948, 48.51509], [-88.952691, 48.515161], [-88.952715, 48.515268], [-88.952467, 48.515768], [-88.952122, 48.516196], [-88.951786, 48.516481], [-88.951502, 48.517052], [-88.951458, 48.517338], [-88.951518, 48.517516], [-88.951853, 48.517706], [-88.952122, 48.517699], [-88.952606, 48.517474], [-88.95309, 48.517101], [-88.953574, 48.516608], [-88.953771, 48.516303], [-88.953897, 48.515815], [-88.954489, 48.51489]]}}, {"type": "Feature", "properties": {"d": 2}, "geometry": {"type": "LineString", "coordinates": [[-88.937273, 48.519446], [-88.937272, 48.519621], [-88.937037, 48.519835], [-88.936789, 48.519842], [-88.936605, 48.519763], [-88.936592, 48.519692], [-88.936789, 48.519532], [-88.937273, 48.519446]]}}, {"type": "Feature", "properties": {"d": 2}, "geometry": {"type": "LineString", "coordinates": [[-88.935391, 48.519856], [-88.935365, 48.519942], [-88.934853, 48.520013], [-88.935068, 48.519877], [-88.935391, 48.519856]]}}, {"type": "Feature", "properties": {"d": 2}, "geometry": {"type": "LineString", "coordinates": [[-88.937746, 48.519914], [-88.937698, 48.519763], [-88.937788, 48.519264], [-88.938296, 48.518804], [-88.938618, 48.518695], [-88.939318, 48.518861], [-88.939641, 48.518859], [-88.940723, 48.519228], [-88.940829, 48.519335], [-88.940724, 48.519728], [-88.94026, 48.520192], [-88.938834, 48.520957], [-88.938618, 48.520963], [-88.938092, 48.520798], [-88.93771, 48.520334], [-88.937728, 48.520065]]}}, {"type": "Feature", "properties": {"d": 2}, "geometry": {"type": "LineString", "coordinates": [[-88.931786, 48.520423], [-88.931786, 48.52059], [-88.931571, 48.520712], [-88.931492, 48.520584], [-88.931786, 48.520423]]}}, {"type": "Feature", "properties": {"d": 2}, "geometry": {"type": "LineString", "coordinates": [[-88.925275, 48.520441], [-88.926406, 48.520134], [-88.926675, 48.520112], [-88.926816, 48.520013], [-88.927933, 48.519656], [-88.928289, 48.519363], [-88.928827, 48.519177], [-88.92915, 48.519158], [-88.929778, 48.519371], [-88.930065, 48.519559], [-88.93071, 48.520766], [-88.930877, 48.520798], [-88.931302, 48.520656], [-88.931356, 48.520703], [-88.931168, 48.521226], [-88.931033, 48.521352], [-88.931019, 48.521797], [-88.931208, 48.522118], [-88.931207, 48.522439], [-88.930818, 48.523295], [-88.931732, 48.524183], [-88.932218, 48.524437], [-88.932647, 48.524539], [-88.934476, 48.524506], [-88.936574, 48.524577], [-88.936789, 48.524468], [-88.937004, 48.524572], [-88.939103, 48.52471], [-88.939318, 48.52463], [-88.939587, 48.524717], [-88.940824, 48.524776], [-88.941846, 48.524698], [-88.942277, 48.524504], [-88.943018, 48.523937], [-88.94303, 48.523723], [-88.942798, 48.523366], [-88.943, 48.522903], [-88.943182, 48.52276], [-88.943622, 48.522611], [-88.943837, 48.522571], [-88.944012, 48.522617]]}}, {"type": "Feature", "properties": {"d": 2}, "geometry": {"type": "LineString", "coordinates": [[-88.944164, 48.52262], [-88.945612, 48.522741], [-88.945989, 48.522507], [-88.946365, 48.522457], [-88.946764, 48.522653], [-88.947094, 48.523331], [-88.947388, 48.523466], [-88.947764, 48.52354], [-88.948679, 48.523205], [-88.949916, 48.522653], [-88.951745, 48.522124], [-88.952983, 48.521519], [-88.95313, 48.521262], [-88.953507, 48.520905], [-88.953467, 48.520615], [-88.95266, 48.520222], [-88.952192, 48.519799], [-88.951691, 48.519477], [-88.951118, 48.518979], [-88.950562, 48.518275], [-88.949862, 48.518136], [-88.94967, 48.518015], [-88.949504, 48.51773], [-88.94876, 48.517552], [-88.948728, 48.51723], [-88.948802, 48.517159], [-88.949324, 48.517053], [-88.94997, 48.517152], [-88.950508, 48.517155], [-88.950669, 48.517095], [-88.950669, 48.516951], [-88.950508, 48.516898], [-88.949055, 48.516829], [-88.94841, 48.516668], [-88.948255, 48.516481], [-88.948383, 48.516196], [-88.948786, 48.515862], [-88.9494, 48.515589], [-88.949647, 48.515377], [-88.950346, 48.515225], [-88.95091, 48.515019], [-88.951745, 48.514882], [-88.952652, 48.514483], [-88.953036, 48.514453], [-88.95309, 48.514607], [-88.952858, 48.514758]]}}, {"type": "Feature", "properties": {"d": 4}, "geometry": {"type": "LineString", "coordinates": [[-88.994945, 48.498987], [-88.995139, 48.499104], [-88.995163, 48.499247], [-88.99494, 48.499711], [-88.994676, 48.499951], [-88.994323, 48.500032], [-88.993815, 48.500386], [-88.99224, 48.500888], [-88.989907, 48.501923], [-88.987629, 48.503507], [-88.987144, 48.503758], [-88.98663, 48.504171], [-88.98623, 48.50438], [-88.985551, 48.504635], [-88.98366, 48.505135], [-88.983163, 48.505425], [-88.982311, 48.505777], [-88.981657, 48.505901], [-88.980904, 48.506186], [-88.979987, 48.506313], [-88.979182, 48.506343], [-88.978429, 48.506149], [-88.978019, 48.505884], [-88.977934, 48.505313], [-88.978041, 48.505028], [-88.978214, 48.5049], [-88.978882, 48.504528], [-88.979236, 48.504409], [-88.979882, 48.504362], [-88.98017, 48.504207], [-88.98085, 48.504247], [-88.981227, 48.504078], [-88.981549, 48.504139], [-88.982529, 48.503529], [-88.982558, 48.503458], [-88.982417, 48.503315], [-88.982577, 48.503208], [-88.982679, 48.502949], [-88.982787, 48.502925], [-88.983163, 48.503005], [-88.983486, 48.502885], [-88.983809, 48.50294], [-88.98399, 48.502673], [-88.985046, 48.502236], [-88.985315, 48.50205], [-88.986606, 48.501807], [-88.986947, 48.501459], [-88.98736, 48.501212], [-88.98935, 48.500607], [-88.99049, 48.500067], [-88.991018, 48.499996], [-88.991556, 48.499827], [-88.991848, 48.499568], [-88.992201, 48.499423], [-88.993385, 48.499084], [-88.993546, 48.499082], [-88.993708, 48.499183], [-88.994084, 48.499279], [-88.994569, 48.499016], [-88.994945, 48.498987]]}}, {"type": "Feature", "properties": {"d": 4}, "geometry": {"type": "LineString", "coordinates": [[-88.9708, 48.509738], [-88.971059, 48.509579], [-88.97192, 48.509477], [-88.974018, 48.509452], [-88.974479, 48.509381], [-88.974521, 48.509346], [-88.974415, 48.509238], [-88.974125, 48.509148], [-88.973949, 48.508989], [-88.973946, 48.508775], [-88.974071, 48.508688], [-88.974771, 48.508651], [-88.975578, 48.508764], [-88.975954, 48.508915], [-88.976331, 48.508759], [-88.977084, 48.508624], [-88.977515, 48.508477], [-88.979236, 48.507505], [-88.979828, 48.507293], [-88.980473, 48.507224], [-88.981442, 48.507406], [-88.982733, 48.506865], [-88.984455, 48.506737], [-88.985638, 48.506759], [-88.986067, 48.506848], [-88.986176, 48.507057], [-88.986548, 48.507098], [-88.986714, 48.50722], [-88.987037, 48.507278], [-88.986904, 48.507597], [-88.987905, 48.508489], [-88.989243, 48.509384], [-88.990749, 48.510193], [-88.992793, 48.510937], [-88.994999, 48.511543], [-88.995377, 48.511593], [-88.995698, 48.511698], [-88.995806, 48.511795], [-88.996505, 48.51196], [-88.997097, 48.511987], [-88.998119, 48.511879], [-88.99898, 48.511581], [-88.999626, 48.511438]]}}, {"type": "Feature", "properties": {"d": 4}, "geometry": {"type": "LineString", "coordinates": [[-88.966567, 48.510416], [-88.96697, 48.51026], [-88.968046, 48.510015], [-88.968315, 48.509878], [-88.969014, 48.509771], [-88.970661, 48.509752]]}}, {"type": "Feature", "properties": {"d": 4}, "geometry": {"type": "LineString", "coordinates": [[-88.964334, 48.510934], [-88.965541, 48.510594], [-88.966393, 48.510442]]}}, {"type": "Feature", "properties": {"d": 4}, "geometry": {"type": "LineString", "coordinates": [[-88.962882, 48.511272], [-88.962989, 48.511116], [-88.963473, 48.511014], [-88.963664, 48.511039]]}}, {"type": "Feature", "properties": {"d": 4}, "geometry": {"type": "LineString", "coordinates": [[-88.933938, 48.51987], [-88.934079, 48.519942], [-88.933669, 48.520208], [-88.933454, 48.520221], [-88.932701, 48.520532], [-88.932477, 48.520441], [-88.932593, 48.520143], [-88.932857, 48.520013], [-88.933938, 48.51987]]}}, {"type": "Feature", "properties": {"d": 4}, "geometry": {"type": "LineString", "coordinates": [[-88.924362, 48.520614], [-88.925223, 48.520327], [-88.926675, 48.519988], [-88.927109, 48.519835], [-88.92759, 48.519657], [-88.928225, 48.519264], [-88.928773, 48.519011], [-88.929042, 48.51901], [-88.929419, 48.51911], [-88.930118, 48.519432], [-88.930764, 48.520269], [-88.93094, 48.520156], [-88.931678, 48.520064], [-88.932055, 48.51985], [-88.932098, 48.519585], [-88.932378, 48.519555], [-88.932485, 48.519614], [-88.932497, 48.519763], [-88.932216, 48.520329], [-88.931827, 48.520798], [-88.931463, 48.521023], [-88.931302, 48.521219], [-88.931245, 48.521654], [-88.931406, 48.521975], [-88.931431, 48.522403], [-88.931184, 48.52301], [-88.931293, 48.523152], [-88.931748, 48.523402], [-88.93227, 48.523511], [-88.932647, 48.523527], [-88.933239, 48.523431], [-88.93378, 48.523509], [-88.934099, 48.523327], [-88.934637, 48.523514], [-88.935229, 48.523618], [-88.935821, 48.523652], [-88.936628, 48.523608], [-88.936856, 48.523545], [-88.937033, 48.523366], [-88.937339, 48.522617], [-88.93744, 48.521975], [-88.937894, 48.52144], [-88.937512, 48.520299], [-88.937507, 48.519621], [-88.937435, 48.519627], [-88.937302, 48.51987], [-88.937058, 48.519985], [-88.936574, 48.519964], [-88.936144, 48.519796], [-88.935767, 48.51998], [-88.934691, 48.520144], [-88.934454, 48.520084], [-88.934376, 48.519906], [-88.935229, 48.519577], [-88.935552, 48.519583], [-88.93652, 48.519283], [-88.937112, 48.519256], [-88.938242, 48.518632], [-88.938618, 48.518587], [-88.939372, 48.518673], [-88.93991, 48.518834], [-88.940555, 48.518941], [-88.941127, 48.519121], [-88.941182, 48.519228], [-88.940935, 48.519656], [-88.940179, 48.520335], [-88.939246, 48.521369], [-88.93916, 48.52169], [-88.939284, 48.522118], [-88.939066, 48.522903], [-88.939103, 48.523218], [-88.939318, 48.52345], [-88.940125, 48.523708], [-88.941201, 48.523854], [-88.942115, 48.523777], [-88.942497, 48.52358], [-88.942517, 48.523117], [-88.942849, 48.52276], [-88.943446, 48.52251], [-88.94416, 48.522425], [-88.945289, 48.522532], [-88.945666, 48.522332], [-88.946365, 48.52221], [-88.947441, 48.522333], [-88.947805, 48.522225], [-88.948103, 48.522047], [-88.948248, 48.521863], [-88.948625, 48.521759], [-88.94884, 48.521632], [-88.949069, 48.521155], [-88.949425, 48.520869], [-88.949717, 48.520513], [-88.949797, 48.520156], [-88.94997, 48.519946], [-88.950083, 48.519621], [-88.949808, 48.519122], [-88.94927, 48.519], [-88.949001, 48.518844], [-88.948786, 48.518878], [-88.948706, 48.518836], [-88.948699, 48.518765], [-88.948971, 48.51855], [-88.948942, 48.518087], [-88.948793, 48.517694], [-88.94851, 48.517445], [-88.948542, 48.516909], [-88.948168, 48.516624], [-88.948135, 48.516446], [-88.948356, 48.516072], [-88.949474, 48.51534], [-88.949701, 48.515254], [-88.949916, 48.515053], [-88.952229, 48.514517], [-88.953198, 48.514179], [-88.953117, 48.515054], [-88.952871, 48.515661], [-88.953036, 48.515988], [-88.953252, 48.516021], [-88.953843, 48.515516], [-88.9547, 48.514234], [-88.955352, 48.513698], [-88.955388, 48.513556], [-88.955246, 48.513342], [-88.955565, 48.513113], [-88.956157, 48.512867], [-88.956283, 48.512771], [-88.956179, 48.512628], [-88.956244, 48.512521], [-88.956587, 48.512387], [-88.957075, 48.512057], [-88.957513, 48.511879], [-88.958147, 48.511847], [-88.958416, 48.511921], [-88.958739, 48.511912], [-88.959741, 48.511593], [-88.960676, 48.511446], [-88.961429, 48.51149], [-88.961805, 48.511622], [-88.962343, 48.511446], [-88.962666, 48.511267], [-88.962881, 48.511273]]}}, {"type": "Feature", "properties": {"d": 6}, "geometry": {"type": "LineString", "coordinates": [[-88.995322, 48.497997], [-88.995511, 48.498283], [-88.995496, 48.498426], [-88.995752, 48.498529], [-88.995903, 48.498783], [-88.995806, 48.498907], [-88.995507, 48.499068], [-88.995322, 48.499401], [-88.994825, 48.49996], [-88.994399, 48.500067], [-88.994199, 48.500282], [-88.993977, 48.500386], [-88.992686, 48.500791], [-88.991502, 48.501252], [-88.989969, 48.501959], [-88.988852, 48.502815], [-88.988059, 48.503246], [-88.986553, 48.504322], [-88.985746, 48.504645], [-88.985121, 48.504814], [-88.982787, 48.505777], [-88.981496, 48.506063], [-88.981065, 48.506218], [-88.979666, 48.506453], [-88.978591, 48.506481], [-88.977945, 48.506571], [-88.977622, 48.50653], [-88.977371, 48.50642], [-88.977212, 48.505884], [-88.977252, 48.50567], [-88.978214, 48.504555], [-88.978806, 48.504271], [-88.979182, 48.50398], [-88.979588, 48.50385], [-88.980527, 48.503779], [-88.981227, 48.503551], [-88.981926, 48.503406], [-88.982013, 48.503244], [-88.981926, 48.502985], [-88.982303, 48.502956], [-88.982733, 48.502695], [-88.983594, 48.502542], [-88.984616, 48.50203], [-88.985746, 48.501648], [-88.986058, 48.501459], [-88.986606, 48.501325], [-88.987306, 48.500999], [-88.987955, 48.500781], [-88.988617, 48.500639], [-88.989436, 48.500317], [-88.989716, 48.500067], [-88.990803, 48.499881], [-88.991179, 48.49959], [-88.991448, 48.499531], [-88.991822, 48.499318], [-88.992525, 48.499068], [-88.993277, 48.498963], [-88.993977, 48.49895], [-88.994759, 48.498818], [-88.995051, 48.498676], [-88.995124, 48.498569], [-88.994854, 48.498426], [-88.994822, 48.498212], [-88.995107, 48.498014], [-88.995322, 48.497997]]}}, {"type": "Feature", "properties": {"d": 6}, "geometry": {"type": "LineString", "coordinates": [[-88.994461, 48.498422], [-88.99459, 48.498533], [-88.994488, 48.498711], [-88.994138, 48.498705], [-88.994084, 48.498517], [-88.994461, 48.498422]]}}, {"type": "Feature", "properties": {"d": 6}, "geometry": {"type": "LineString", "coordinates": [[-88.981422, 48.507098], [-88.981227, 48.507098], [-88.981231, 48.507169], [-88.98141, 48.507205], [-88.981422, 48.507098]]}}, {"type": "Feature", "properties": {"d": 6}, "geometry": {"type": "LineString", "coordinates": [[-88.964304, 48.510896], [-88.965917, 48.510452], [-88.967992, 48.509976], [-88.968315, 48.509794], [-88.96853, 48.509798], [-88.969014, 48.509651], [-88.969777, 48.509667], [-88.970521, 48.509578], [-88.971758, 48.509234], [-88.972511, 48.509113], [-88.974018, 48.508579], [-88.975793, 48.508389], [-88.977084, 48.508133], [-88.980258, 48.507043], [-88.981011, 48.506727], [-88.98128, 48.506694], [-88.982087, 48.506804], [-88.982464, 48.506787], [-88.985477, 48.506422], [-88.987198, 48.506431], [-88.988489, 48.506736], [-88.989512, 48.507407], [-88.990073, 48.507918], [-88.991072, 48.508608], [-88.991311, 48.508846], [-88.99204, 48.509012], [-88.992201, 48.509237], [-88.992578, 48.509241], [-88.992847, 48.509596], [-88.993224, 48.50965], [-88.993923, 48.509585], [-88.994061, 48.509845], [-88.994246, 48.509956], [-88.994891, 48.50983], [-88.994872, 48.510095], [-88.994999, 48.510205], [-88.995698, 48.510286], [-88.996936, 48.510075], [-88.997527, 48.510058], [-88.998227, 48.509842], [-88.999034, 48.509702], [-88.999626, 48.509505]]}}, {"type": "Feature", "properties": {"d": 6}, "geometry": {"type": "LineString", "coordinates": [[-88.945451, 48.516148], [-88.945523, 48.516196], [-88.945469, 48.516232], [-88.945236, 48.516317], [-88.945091, 48.516303], [-88.945182, 48.516164], [-88.945451, 48.516148]]}}, {"type": "Feature", "properties": {"d": 6}, "geometry": {"type": "LineString", "coordinates": [[-88.936171, 48.520013], [-88.936036, 48.519993], [-88.935283, 48.52021], [-88.934745, 48.52028], [-88.934368, 48.520271], [-88.934172, 48.520156], [-88.934007, 48.520156], [-88.933723, 48.520272], [-88.933508, 48.520284], [-88.933023, 48.520532], [-88.932539, 48.520684], [-88.932511, 48.520798], [-88.932808, 48.521091], [-88.933239, 48.521257], [-88.933777, 48.521828], [-88.934091, 48.522047], [-88.935014, 48.522433], [-88.935552, 48.522431], [-88.935982, 48.522247], [-88.936222, 48.521939], [-88.936682, 48.521559], [-88.936798, 48.52119], [-88.937097, 48.521083], [-88.937197, 48.520976], [-88.93723, 48.520584], [-88.937004, 48.520219], [-88.93652, 48.520212], [-88.936171, 48.520013]]}}, {"type": "Feature", "properties": {"d": 6}, "geometry": {"type": "LineString", "coordinates": [[-88.924362, 48.520462], [-88.925223, 48.52015], [-88.926137, 48.51998], [-88.92689, 48.519749], [-88.927751, 48.51937], [-88.92872, 48.518821], [-88.929253, 48.518872], [-88.929796, 48.519105], [-88.930334, 48.519369], [-88.930602, 48.519699], [-88.93114, 48.519505], [-88.931278, 48.519549], [-88.931311, 48.519728], [-88.931463, 48.51974], [-88.932109, 48.519439], [-88.932485, 48.519409], [-88.932701, 48.51947], [-88.932754, 48.51973], [-88.932862, 48.519785], [-88.933884, 48.519656], [-88.934368, 48.519491], [-88.935552, 48.519346], [-88.936256, 48.519121], [-88.937134, 48.518979], [-88.938027, 48.518533], [-88.938726, 48.518483], [-88.93921, 48.518526], [-88.940125, 48.518736], [-88.940717, 48.518775], [-88.941255, 48.518891], [-88.941435, 48.519014], [-88.94147, 48.519216], [-88.941256, 48.519621], [-88.940881, 48.519942], [-88.940501, 48.520548], [-88.940654, 48.520762], [-88.941169, 48.521155], [-88.941416, 48.521536], [-88.941685, 48.52172], [-88.9419, 48.521771], [-88.942599, 48.521677], [-88.943568, 48.521912], [-88.945397, 48.521679], [-88.946054, 48.521476], [-88.946828, 48.520798], [-88.947156, 48.520334], [-88.947336, 48.519549], [-88.947508, 48.519264], [-88.947879, 48.517552], [-88.947924, 48.516446], [-88.947872, 48.516367], [-88.947702, 48.516339], [-88.947676, 48.516267], [-88.947764, 48.516189], [-88.948087, 48.51616], [-88.948393, 48.51591], [-88.949612, 48.515197], [-88.949916, 48.514916], [-88.950992, 48.514502], [-88.95248, 48.514269], [-88.953144, 48.513966], [-88.953385, 48.514055], [-88.953413, 48.514439], [-88.953521, 48.514683], [-88.953736, 48.514753], [-88.953951, 48.514717], [-88.954423, 48.514305], [-88.954596, 48.51392], [-88.954965, 48.513591], [-88.955081, 48.51327], [-88.955473, 48.512949], [-88.955894, 48.512771], [-88.955829, 48.512557], [-88.955888, 48.512431], [-88.957421, 48.511665], [-88.957932, 48.511607], [-88.958578, 48.511628], [-88.958954, 48.511714], [-88.959923, 48.511474], [-88.960729, 48.51138], [-88.961483, 48.511388], [-88.961859, 48.511499], [-88.962236, 48.511411], [-88.962753, 48.51113], [-88.962989, 48.511066], [-88.96385, 48.510886], [-88.96404, 48.510932]]}}, {"type": "Feature", "properties": {"d": 8}, "geometry": {"type": "LineString", "coordinates": [[-88.995483, 48.497818], [-88.99586, 48.498031], [-88.996132, 48.498283], [-88.996171, 48.498426], [-88.996044, 48.498569], [-88.996015, 48.49889], [-88.994999, 48.499946], [-88.994569, 48.500086], [-88.994138, 48.500414], [-88.992686, 48.500878], [-88.992201, 48.501114], [-88.991451, 48.501352], [-88.990021, 48.50203], [-88.989407, 48.502673], [-88.988167, 48.503302], [-88.98666, 48.504405], [-88.985328, 48.504849], [-88.983882, 48.505527], [-88.982572, 48.505973], [-88.981657, 48.506146], [-88.980689, 48.506434], [-88.978967, 48.506715], [-88.978268, 48.506725], [-88.976977, 48.50726], [-88.976439, 48.507286], [-88.975994, 48.507169], [-88.975879, 48.50699], [-88.975881, 48.506741], [-88.976087, 48.506241], [-88.976977, 48.505378], [-88.977947, 48.504243], [-88.978483, 48.504024], [-88.979075, 48.503543], [-88.97929, 48.503473], [-88.980204, 48.503402], [-88.980473, 48.503167], [-88.981065, 48.503128], [-88.981518, 48.50303], [-88.981872, 48.5027], [-88.982679, 48.502364], [-88.983475, 48.502137], [-88.984455, 48.501656], [-88.984996, 48.501459], [-88.985799, 48.501273], [-88.986894, 48.500817], [-88.988489, 48.500487], [-88.988815, 48.500317], [-88.989013, 48.500067], [-88.989554, 48.49996], [-88.990157, 48.499739], [-88.990963, 48.499318], [-88.99161, 48.49906], [-88.992309, 48.498822], [-88.993277, 48.498655], [-88.994945, 48.497855], [-88.995268, 48.497796], [-88.995483, 48.497818]]}}, {"type": "Feature", "properties": {"d": 8}, "geometry": {"type": "LineString", "coordinates": [[-88.947979, 48.515142], [-88.947978, 48.515447], [-88.94771, 48.515792], [-88.947172, 48.515927], [-88.946337, 48.516267], [-88.946313, 48.516303], [-88.946634, 48.516427], [-88.946685, 48.516517], [-88.946634, 48.516641], [-88.946439, 48.516767], [-88.945343, 48.516977], [-88.94459, 48.51693], [-88.944644, 48.516781], [-88.945245, 48.516553], [-88.944767, 48.516339], [-88.944805, 48.516182], [-88.94502, 48.51606], [-88.945503, 48.51591], [-88.945989, 48.515887], [-88.946742, 48.515665], [-88.947372, 48.51534], [-88.947979, 48.515142]]}}, {"type": "Feature", "properties": {"d": 8}, "geometry": {"type": "LineString", "coordinates": [[-88.924362, 48.520119], [-88.925707, 48.519868], [-88.926599, 48.519478], [-88.927913, 48.519075], [-88.928558, 48.51872], [-88.928935, 48.518646], [-88.929886, 48.518693], [-88.930185, 48.518979], [-88.930871, 48.519305], [-88.931409, 48.519277], [-88.931786, 48.519392], [-88.932647, 48.519235], [-88.932862, 48.519294], [-88.933185, 48.519518], [-88.93453, 48.519153], [-88.935337, 48.519076], [-88.935929, 48.51889], [-88.936893, 48.518729], [-88.937566, 48.518336], [-88.938834, 48.518263], [-88.939567, 48.518336], [-88.940394, 48.518572], [-88.941631, 48.518698], [-88.941882, 48.5188], [-88.942223, 48.519175], [-88.942707, 48.519273], [-88.942922, 48.519386], [-88.943137, 48.519379], [-88.94346, 48.519258], [-88.943783, 48.51941], [-88.944644, 48.519413], [-88.945505, 48.519227], [-88.94613, 48.51905], [-88.946708, 48.518622], [-88.947196, 48.517694], [-88.947479, 48.517338], [-88.947621, 48.51666], [-88.947495, 48.516555], [-88.946992, 48.51641], [-88.947024, 48.516303], [-88.948087, 48.515859], [-88.949457, 48.515126], [-88.949455, 48.515054], [-88.949324, 48.515011], [-88.948894, 48.515071], [-88.948793, 48.514912], [-88.951315, 48.514224], [-88.951745, 48.514197], [-88.95309, 48.513755], [-88.953271, 48.513805], [-88.953736, 48.514157], [-88.953951, 48.514163], [-88.954166, 48.514031], [-88.954614, 48.51352], [-88.955173, 48.513056], [-88.955558, 48.512592], [-88.955559, 48.51245], [-88.955671, 48.512307], [-88.957146, 48.511629], [-88.957814, 48.511486], [-88.9589, 48.51136], [-88.959707, 48.511109], [-88.959834, 48.51113], [-88.959976, 48.511302], [-88.960138, 48.511331], [-88.961237, 48.511272], [-88.961644, 48.511144], [-88.962074, 48.511233], [-88.963419, 48.510866], [-88.964334, 48.51081], [-88.965087, 48.510569], [-88.967511, 48.509988], [-88.968261, 48.509686], [-88.969552, 48.509279], [-88.972027, 48.508727], [-88.97278, 48.508462], [-88.974394, 48.508144], [-88.975416, 48.507867], [-88.9766, 48.507714], [-88.978053, 48.507403], [-88.978913, 48.507128], [-88.979782, 48.507026], [-88.980366, 48.506798], [-88.980635, 48.506593], [-88.981388, 48.506547], [-88.982195, 48.506678], [-88.982572, 48.506671], [-88.985109, 48.506241], [-88.987682, 48.506], [-88.989081, 48.505708], [-88.990372, 48.505941], [-88.991986, 48.50669], [-88.992524, 48.506734], [-88.993385, 48.506671], [-88.993762, 48.506721], [-88.994, 48.506848], [-88.994167, 48.507133], [-88.994407, 48.507339], [-88.995537, 48.507731], [-88.995967, 48.50781], [-88.998012, 48.507974], [-88.999626, 48.507902]]}}, {"type": "Feature", "properties": {"d": 8}, "geometry": {"type": "LineString", "coordinates": [[-88.93679, 48.520406], [-88.936721, 48.520513], [-88.936789, 48.520572], [-88.936836, 48.520477], [-88.93679, 48.520406]]}}, {"type": "Feature", "properties": {"d": 8}, "geometry": {"type": "LineString", "coordinates": [[-88.935145, 48.520477], [-88.934508, 48.520513], [-88.934397, 48.520655], [-88.93453, 48.520724], [-88.934799, 48.520671], [-88.935122, 48.520561], [-88.935145, 48.520477]]}}, {"type": "Feature", "properties": {"d": 10}, "geometry": {"type": "LineString", "coordinates": [[-88.94851, 48.51509], [-88.94841, 48.515066], [-88.948356, 48.515125], [-88.948302, 48.515385], [-88.948716, 48.515233], [-88.948702, 48.515161], [-88.94851, 48.51509]]}}, {"type": "Feature", "properties": {"d": 10}, "geometry": {"type": "LineString", "coordinates": [[-88.924362, 48.519813], [-88.925118, 48.519656], [-88.926137, 48.519287], [-88.927006, 48.519086], [-88.928289, 48.518601], [-88.929042, 48.518431], [-88.930354, 48.518336], [-88.930886, 48.518479], [-88.931409, 48.518787], [-88.931947, 48.518838], [-88.932109, 48.518746], [-88.932415, 48.518194], [-88.932593, 48.518037], [-88.93297, 48.517887], [-88.933669, 48.517763], [-88.934201, 48.517873], [-88.934476, 48.518052], [-88.935068, 48.518239], [-88.935267, 48.518122], [-88.935337, 48.517905], [-88.935713, 48.51748], [-88.936359, 48.517296], [-88.936951, 48.517251], [-88.93722, 48.517287], [-88.937356, 48.517552], [-88.937596, 48.517654], [-88.937919, 48.517944], [-88.93808, 48.51798], [-88.938349, 48.517963], [-88.939856, 48.517614], [-88.940824, 48.517592], [-88.942922, 48.517676], [-88.943191, 48.517633], [-88.944076, 48.517266], [-88.944123, 48.517123], [-88.943847, 48.516981], [-88.943864, 48.516767], [-88.9442, 48.516481], [-88.944531, 48.516339], [-88.944654, 48.515946], [-88.944967, 48.515742], [-88.9462, 48.515518], [-88.947334, 48.515029], [-88.948464, 48.514779], [-88.949109, 48.514535], [-88.950992, 48.514049], [-88.952283, 48.51386], [-88.952821, 48.513656], [-88.953144, 48.513636], [-88.953628, 48.51384], [-88.953897, 48.513839], [-88.954955, 48.513056], [-88.955565, 48.512261], [-88.956964, 48.51161], [-88.958699, 48.511237], [-88.959277, 48.511037], [-88.960837, 48.511054], [-88.961805, 48.510883], [-88.962505, 48.510849], [-88.963366, 48.510626], [-88.964065, 48.510606], [-88.965033, 48.510304], [-88.965733, 48.5103], [-88.966109, 48.510122], [-88.967562, 48.509725], [-88.968744, 48.50931], [-88.972189, 48.508391], [-88.97278, 48.508071], [-88.974766, 48.507561], [-88.975094, 48.507419], [-88.975265, 48.50724], [-88.975273, 48.506455], [-88.97544, 48.50617], [-88.976156, 48.50567], [-88.976815, 48.505306], [-88.977109, 48.504921], [-88.977228, 48.504528], [-88.977407, 48.504306], [-88.978813, 48.503279], [-88.97929, 48.503075], [-88.979882, 48.502998], [-88.980581, 48.502728], [-88.98085, 48.502718], [-88.981388, 48.50257], [-88.98241, 48.502065], [-88.983134, 48.501888], [-88.984562, 48.501234], [-88.986445, 48.500588], [-88.988489, 48.500311], [-88.988799, 48.500067], [-88.989102, 48.49996], [-88.989565, 48.499639], [-88.991448, 48.498738], [-88.992094, 48.498524], [-88.992524, 48.498304], [-88.993224, 48.498204], [-88.994515, 48.497795], [-88.995268, 48.497704], [-88.995698, 48.497765], [-88.996364, 48.498319], [-88.996152, 48.498925], [-88.995163, 48.49996], [-88.994816, 48.500067], [-88.994246, 48.500478], [-88.991494, 48.501495], [-88.990964, 48.501745], [-88.990428, 48.502066], [-88.989724, 48.502815], [-88.988167, 48.503667], [-88.986636, 48.504635], [-88.985423, 48.505057], [-88.983863, 48.505803], [-88.982182, 48.506277], [-88.982151, 48.506384], [-88.982518, 48.506484], [-88.983002, 48.506457], [-88.984293, 48.506194], [-88.986176, 48.505925], [-88.98779, 48.50551], [-88.989027, 48.505051], [-88.990803, 48.504624], [-88.991179, 48.504598], [-88.993385, 48.504712], [-88.994084, 48.504687], [-88.995039, 48.504421], [-88.995591, 48.504339], [-88.996183, 48.504367], [-88.996559, 48.504497], [-88.997205, 48.504926], [-88.997312, 48.505068], [-88.997527, 48.505112], [-88.997689, 48.505232], [-88.998065, 48.505299], [-88.998496, 48.505616], [-88.999034, 48.505754], [-88.999626, 48.505767]]}}, {"type": "Feature", "properties": {"d": 12}, "geometry": {"type": "LineString", "coordinates": [[-88.997258, 48.497986], [-88.997309, 48.498105], [-88.997097, 48.498287], [-88.997035, 48.498212], [-88.99707, 48.498033], [-88.997151, 48.497968], [-88.997258, 48.497986]]}}, {"type": "Feature", "properties": {"d": 12}, "geometry": {"type": "LineString", "coordinates": [[-88.924362, 48.518749], [-88.925007, 48.518801], [-88.92689, 48.518729], [-88.92872, 48.51819], [-88.929311, 48.51808], [-88.93028, 48.517998], [-88.931005, 48.517516], [-88.931527, 48.517338], [-88.932485, 48.517179], [-88.934046, 48.517267], [-88.934637, 48.516884], [-88.935337, 48.516706], [-88.937489, 48.516698], [-88.937865, 48.516654], [-88.938062, 48.516874], [-88.938188, 48.516903], [-88.940017, 48.516526], [-88.940878, 48.516505], [-88.942169, 48.516315], [-88.943101, 48.516017], [-88.944429, 48.515251], [-88.945343, 48.514926], [-88.946365, 48.514616], [-88.947872, 48.514336], [-88.949217, 48.513914], [-88.949647, 48.513873], [-88.950024, 48.513755], [-88.950723, 48.513743], [-88.951507, 48.513627], [-88.951853, 48.513506], [-88.952445, 48.513495], [-88.952767, 48.51341], [-88.953736, 48.513503], [-88.953951, 48.513462], [-88.954646, 48.513056], [-88.955619, 48.512137], [-88.956745, 48.511593], [-88.958362, 48.511133], [-88.959223, 48.510953], [-88.96116, 48.510744], [-88.962612, 48.510361], [-88.964011, 48.51011], [-88.964711, 48.509851], [-88.965356, 48.509845], [-88.966701, 48.509683], [-88.967936, 48.509417], [-88.96999, 48.508846], [-88.97202, 48.508132], [-88.972266, 48.507883], [-88.972509, 48.507454], [-88.972772, 48.507312], [-88.973909, 48.50724], [-88.97434, 48.5071], [-88.974546, 48.506776], [-88.974585, 48.50642], [-88.974819, 48.506205], [-88.975632, 48.505804], [-88.976691, 48.505171], [-88.976878, 48.504921], [-88.97694, 48.504564], [-88.977245, 48.504136], [-88.977311, 48.503779], [-88.977784, 48.503489], [-88.978135, 48.503101], [-88.979075, 48.502698], [-88.979774, 48.502554], [-88.980258, 48.502383], [-88.980851, 48.50203], [-88.981549, 48.501757], [-88.982572, 48.501653], [-88.982841, 48.501466], [-88.983863, 48.501134], [-88.984992, 48.500612], [-88.986122, 48.500244], [-88.987198, 48.500098], [-88.988274, 48.500156], [-88.988871, 48.49996], [-88.989189, 48.499579], [-88.990211, 48.498986], [-88.990775, 48.498497], [-88.99149, 48.498247], [-88.99247, 48.497785], [-88.993062, 48.497839], [-88.99473, 48.497608], [-88.995645, 48.497641], [-88.995854, 48.497712], [-88.996559, 48.498184], [-88.99664, 48.49839], [-88.996142, 48.499175], [-88.995361, 48.49996], [-88.995008, 48.500103], [-88.994353, 48.500553], [-88.993654, 48.500849], [-88.991932, 48.501753], [-88.990287, 48.503101], [-88.989901, 48.503315], [-88.989696, 48.503529], [-88.989607, 48.503779], [-88.990103, 48.503899], [-88.990964, 48.503924], [-88.992201, 48.503799], [-88.993385, 48.503528], [-88.993977, 48.503496], [-88.994838, 48.503567], [-88.996505, 48.503457], [-88.996882, 48.503383], [-88.99785, 48.502966], [-88.999034, 48.502618], [-88.999626, 48.502635]]}}, {"type": "Feature", "properties": {"d": 15}, "geometry": {"type": "LineString", "coordinates": [[-88.995884, 48.496855], [-88.995916, 48.497319], [-88.997527, 48.497603], [-88.99776, 48.497712], [-88.998059, 48.497998], [-88.997999, 48.498283], [-88.997699, 48.498497], [-88.997517, 48.498818], [-88.997722, 48.499247], [-88.997948, 48.499461], [-88.997995, 48.499818], [-88.998163, 48.500175], [-88.998496, 48.500289], [-88.99883, 48.500246], [-88.998872, 48.500397], [-88.999626, 48.500354]]}}, {"type": "Feature", "properties": {"d": 15}, "geometry": {"type": "LineString", "coordinates": [[-88.998239, 48.500389], [-88.99693, 48.500674], [-88.996467, 48.500924], [-88.996613, 48.501067], [-88.996543, 48.501352], [-88.996783, 48.501638], [-88.996739, 48.50178], [-88.996936, 48.501854], [-88.997205, 48.501826], [-88.997463, 48.502102], [-88.997635, 48.502163], [-88.998388, 48.501962], [-88.998728, 48.501673], [-88.998741, 48.501495], [-88.998452, 48.500817], [-88.998444, 48.500603], [-88.998541, 48.500424], [-88.998239, 48.500389]]}}, {"type": "Feature", "properties": {"d": 15}, "geometry": {"type": "LineString", "coordinates": [[-88.976277, 48.50353], [-88.976869, 48.503518], [-88.977353, 48.502948], [-88.977784, 48.502671], [-88.97849, 48.502351], [-88.97929, 48.50188], [-88.980366, 48.501449], [-88.980527, 48.501301], [-88.981657, 48.501147], [-88.982141, 48.501028], [-88.983271, 48.500641], [-88.984724, 48.500034], [-88.985477, 48.499939], [-88.986176, 48.499764], [-88.987037, 48.49974], [-88.987736, 48.499504], [-88.988274, 48.499656], [-88.988543, 48.499462], [-88.988785, 48.499068], [-88.989619, 48.498444], [-88.991118, 48.497819], [-88.991932, 48.49757], [-88.992524, 48.497482], [-88.995107, 48.497286], [-88.995645, 48.497328], [-88.995714, 48.497248], [-88.995715, 48.496855]]}}, {"type": "Feature", "properties": {"d": 15}, "geometry": {"type": "LineString", "coordinates": [[-88.973648, 48.505915], [-88.974448, 48.505931], [-88.974663, 48.505819], [-88.974932, 48.50578], [-88.97504, 48.505668], [-88.975578, 48.505525], [-88.976062, 48.505191], [-88.976092, 48.505028], [-88.976366, 48.504921], [-88.976489, 48.5046], [-88.976481, 48.504457], [-88.9762, 48.504243], [-88.976492, 48.504309], [-88.976761, 48.50427], [-88.97682, 48.504207], [-88.9766, 48.504032], [-88.976277, 48.503936]]}}, {"type": "Feature", "properties": {"d": 15}, "geometry": {"type": "LineString", "coordinates": [[-88.973091, 48.505991], [-88.973129, 48.50642], [-88.973264, 48.506446], [-88.973426, 48.506387], [-88.973695, 48.506509], [-88.97386, 48.506455], [-88.973894, 48.506384], [-88.973514, 48.505969]]}}, {"type": "Feature", "properties": {"d": 15}, "geometry": {"type": "LineString", "coordinates": [[-88.97079, 48.507234], [-88.971435, 48.507192], [-88.971521, 48.50699], [-88.971455, 48.506812], [-88.97192, 48.506493], [-88.972897, 48.506455], [-88.972965, 48.506384], [-88.97297, 48.505991]]}}, {"type": "Feature", "properties": {"d": 15}, "geometry": {"type": "LineString", "coordinates": [[-88.969572, 48.508155], [-88.969929, 48.50837], [-88.970252, 48.50836], [-88.970413, 48.508245], [-88.970575, 48.508216], [-88.970682, 48.507858], [-88.971256, 48.507776], [-88.971092, 48.507597], [-88.97079, 48.507487]]}}, {"type": "Feature", "properties": {"d": 15}, "geometry": {"type": "LineString", "coordinates": [[-88.968743, 48.508453], [-88.968993, 48.508703], [-88.969176, 48.508749], [-88.969183, 48.508596], [-88.969006, 48.508352]]}}, {"type": "Feature", "properties": {"d": 15}, "geometry": {"type": "LineString", "coordinates": [[-88.967316, 48.50881], [-88.967777, 48.509115], [-88.967857, 48.509096], [-88.967938, 48.508874], [-88.968323, 48.509024], [-88.968396, 48.508882], [-88.968199, 48.508596]]}}, {"type": "Feature", "properties": {"d": 15}, "geometry": {"type": "LineString", "coordinates": [[-88.959738, 48.510039], [-88.96003, 48.510269], [-88.960353, 48.510289], [-88.960708, 48.510095], [-88.960945, 48.509812], [-88.961429, 48.509661], [-88.962021, 48.509624], [-88.962397, 48.50944], [-88.962471, 48.509702], [-88.962666, 48.509847], [-88.962757, 48.509809], [-88.962828, 48.509549], [-88.963473, 48.509618], [-88.96385, 48.509494], [-88.96411, 48.509274]]}}, {"type": "Feature", "properties": {"d": 15}, "geometry": {"type": "LineString", "coordinates": [[-88.955301, 48.511344], [-88.955457, 48.51144], [-88.95621, 48.511558], [-88.956536, 48.511379], [-88.95673, 48.510987]]}}, {"type": "Feature", "properties": {"d": 15}, "geometry": {"type": "LineString", "coordinates": [[-88.953584, 48.512028], [-88.953281, 48.512307], [-88.953305, 48.512465], [-88.953628, 48.512503], [-88.954033, 48.512254]]}}, {"type": "Feature", "properties": {"d": 15}, "geometry": {"type": "LineString", "coordinates": [[-88.949616, 48.512042], [-88.94997, 48.512396], [-88.950077, 48.512412], [-88.950454, 48.51227], [-88.950777, 48.512227], [-88.951369, 48.512233], [-88.95153, 48.512152], [-88.951853, 48.512206], [-88.952014, 48.512151], [-88.952229, 48.512178], [-88.952606, 48.51199], [-88.952714, 48.512189], [-88.952983, 48.512049], [-88.953118, 48.511862]]}}, {"type": "Feature", "properties": {"d": 15}, "geometry": {"type": "LineString", "coordinates": [[-88.934925, 48.515696], [-88.935187, 48.515946], [-88.935498, 48.516018], [-88.935673, 48.515982], [-88.935767, 48.515848], [-88.936251, 48.515954], [-88.936574, 48.515679], [-88.936825, 48.515839], [-88.936951, 48.515851], [-88.937058, 48.515652], [-88.937567, 48.515625], [-88.93765, 48.515373], [-88.937973, 48.515515], [-88.938242, 48.515422], [-88.938565, 48.515148], [-88.938941, 48.515311], [-88.939132, 48.515268], [-88.93921, 48.515098], [-88.939479, 48.515178], [-88.939929, 48.51509], [-88.940054, 48.515019], [-88.940125, 48.514768], [-88.94034, 48.514849], [-88.940501, 48.514837], [-88.941416, 48.514256], [-88.941631, 48.514216], [-88.942062, 48.514], [-88.942277, 48.513942], [-88.942599, 48.514003], [-88.94346, 48.513765], [-88.943675, 48.513761], [-88.943891, 48.513685], [-88.943998, 48.513549], [-88.944332, 48.513484], [-88.944469, 48.513342], [-88.944644, 48.51328], [-88.944805, 48.51341], [-88.945074, 48.51323], [-88.945128, 48.51335], [-88.945348, 48.513342], [-88.945376, 48.513306], [-88.945176, 48.513199], [-88.945343, 48.513016], [-88.945451, 48.513261], [-88.945612, 48.51318], [-88.945881, 48.513197], [-88.946096, 48.513116], [-88.946634, 48.513169], [-88.946643, 48.512985], [-88.947388, 48.512825], [-88.947657, 48.512843], [-88.947926, 48.512678], [-88.948141, 48.512747], [-88.948464, 48.512751], [-88.948811, 48.512557], [-88.948708, 48.512216]]}}, {"type": "Feature", "properties": {"d": 15}, "geometry": {"type": "LineString", "coordinates": [[-88.931577, 48.516263], [-88.932001, 48.516589], [-88.932378, 48.516578], [-88.932593, 48.51663], [-88.933131, 48.516388], [-88.933239, 48.516578], [-88.933563, 48.516304]]}}, {"type": "Feature", "properties": {"d": 15}, "geometry": {"type": "LineString", "coordinates": [[-88.933833, 48.516588], [-88.933789, 48.516731], [-88.933884, 48.51677], [-88.933937, 48.516695], [-88.933833, 48.516588]]}}, {"type": "Feature", "properties": {"d": 15}, "geometry": {"type": "LineString", "coordinates": [[-88.924362, 48.517689], [-88.926352, 48.517334], [-88.926593, 48.51723], [-88.926675, 48.517112], [-88.92689, 48.517169], [-88.927536, 48.517115], [-88.92802, 48.517173], [-88.928182, 48.517257], [-88.928343, 48.517219], [-88.92872, 48.517453], [-88.929365, 48.517509], [-88.929527, 48.517485], [-88.929796, 48.517323], [-88.929903, 48.517556], [-88.930141, 48.51748], [-88.929948, 48.517094]]}}, {"type": "Feature", "properties": {"d": 20}, "geometry": {"type": "LineString", "coordinates": [[-88.97649, 48.502744], [-88.976678, 48.502637], [-88.97703, 48.502265]]}}, {"type": "Feature", "properties": {"d": 20}, "geometry": {"type": "LineString", "coordinates": [[-88.962774, 48.509043], [-88.96353, 48.508813]]}}, {"type": "Feature", "properties": {"d": 20}, "geometry": {"type": "LineString", "coordinates": [[-88.955508, 48.511274], [-88.955834, 48.511362], [-88.956318, 48.511348], [-88.956564, 48.510971]]}}, {"type": "Feature", "properties": {"w": 1}, "geometry": {"type": "Polygon", "coordinates": [[[-88.991314, 48.530045], [-88.991744, 48.529742], [-88.991906, 48.529439], [-88.991798, 48.529136], [-88.991623, 48.52894], [-88.991381, 48.528851], [-88.990937, 48.528913], [-88.990292, 48.529127], [-88.990144, 48.529475], [-88.990493, 48.529956], [-88.990776, 48.530197], [-88.990991, 48.530197], [-88.991314, 48.530045]]]}}, {"type": "Feature", "properties": {"w": 1}, "geometry": {"type": "Polygon", "coordinates": [[[-88.943877, 48.529261], [-88.944119, 48.5291], [-88.9442, 48.528859], [-88.944119, 48.528538], [-88.943918, 48.528333], [-88.943595, 48.528244], [-88.943205, 48.528235], [-88.942747, 48.528307], [-88.942465, 48.528396], [-88.942357, 48.528503], [-88.942398, 48.528663], [-88.942586, 48.528877], [-88.942949, 48.529073], [-88.943487, 48.529252], [-88.943877, 48.529261]]]}}, {"type": "Feature", "properties": {"w": 1}, "geometry": {"type": "Polygon", "coordinates": [[[-88.924591, 48.533068], [-88.924994, 48.532747], [-88.925626, 48.531436], [-88.926487, 48.529136], [-88.926796, 48.527745], [-88.926554, 48.527263], [-88.925935, 48.526755], [-88.92494, 48.52622], [-88.924429, 48.527772], [-88.924402, 48.53141], [-88.924591, 48.533068]]]}}, {"type": "Feature", "properties": {"w": 1}, "geometry": {"type": "Polygon", "coordinates": [[[-88.987185, 48.526746], [-88.987319, 48.526621], [-88.987239, 48.526443], [-88.986943, 48.526211], [-88.986378, 48.526033], [-88.985544, 48.525908], [-88.98506, 48.525872], [-88.984925, 48.525926], [-88.984898, 48.526059], [-88.984979, 48.526274], [-88.985235, 48.526389], [-88.985665, 48.526407], [-88.98619, 48.526514], [-88.986808, 48.52671], [-88.987185, 48.526746]]]}}, {"type": "Feature", "properties": {"w": 1}, "geometry": {"type": "Polygon", "coordinates": [[[-88.94229, 48.532462], [-88.942263, 48.532069], [-88.941981, 48.531481], [-88.941443, 48.530696], [-88.941133, 48.530135], [-88.941053, 48.529796], [-88.941066, 48.529528], [-88.941174, 48.529332], [-88.940959, 48.529189], [-88.940421, 48.5291], [-88.940448, 48.528708], [-88.941039, 48.528012], [-88.941793, 48.527567], [-88.942707, 48.52737], [-88.943245, 48.527201], [-88.943406, 48.527058], [-88.943353, 48.526782], [-88.943084, 48.526372], [-88.94303, 48.526086], [-88.943191, 48.525926], [-88.943232, 48.525756], [-88.943151, 48.525578], [-88.943232, 48.52548], [-88.943474, 48.525462], [-88.943689, 48.525212], [-88.943877, 48.524731], [-88.943743, 48.524222], [-88.943285, 48.523687], [-88.943097, 48.523295], [-88.943178, 48.523045], [-88.943366, 48.522831], [-88.943662, 48.522653], [-88.944119, 48.522591], [-88.944738, 48.522644], [-88.94541, 48.522858], [-88.946137, 48.523233], [-88.946944, 48.523563], [-88.947831, 48.523848], [-88.948625, 48.523893], [-88.949324, 48.523696], [-88.950777, 48.523135], [-88.952983, 48.522207], [-88.954422, 48.521806], [-88.955094, 48.521931], [-88.955874, 48.521806], [-88.956762, 48.521431], [-88.95734, 48.521039], [-88.957609, 48.520629], [-88.958013, 48.520316], [-88.958551, 48.520102], [-88.958887, 48.51971], [-88.959021, 48.519139], [-88.959048, 48.518729], [-88.958968, 48.518479], [-88.958228, 48.517703], [-88.956829, 48.516401], [-88.955847, 48.515875], [-88.955282, 48.516125], [-88.954718, 48.516232], [-88.954153, 48.516196], [-88.953843, 48.516125], [-88.95379, 48.516017], [-88.953951, 48.515598], [-88.954328, 48.514867], [-88.954785, 48.514367], [-88.955323, 48.5141], [-88.955767, 48.513761], [-88.956116, 48.513351], [-88.957071, 48.512824], [-88.958631, 48.512182], [-88.959801, 48.511799], [-88.960582, 48.511674], [-88.961025, 48.511709], [-88.961133, 48.511906], [-88.961308, 48.512022], [-88.96155, 48.512057], [-88.96198, 48.51187], [-88.962599, 48.51146], [-88.963298, 48.511156], [-88.964078, 48.51096], [-88.964684, 48.510871], [-88.965114, 48.510889], [-88.965612, 48.510773], [-88.966177, 48.510523], [-88.967427, 48.510282], [-88.969364, 48.51005], [-88.970454, 48.509872], [-88.970696, 48.509747], [-88.97196, 48.509622], [-88.974246, 48.509497], [-88.975376, 48.509337], [-88.975349, 48.50914], [-88.975201, 48.50906], [-88.974932, 48.509096], [-88.974784, 48.509069], [-88.974757, 48.50898], [-88.974609, 48.508917], [-88.97434, 48.508882], [-88.974273, 48.508837], [-88.974408, 48.508784], [-88.97469, 48.508792], [-88.975121, 48.508864], [-88.975416, 48.509042], [-88.975578, 48.509328], [-88.975887, 48.509533], [-88.976344, 48.509658], [-88.976694, 48.50972], [-88.976936, 48.50972], [-88.977084, 48.509676], [-88.977138, 48.509586], [-88.977178, 48.509577], [-88.977205, 48.509649], [-88.977501, 48.509676], [-88.978066, 48.509658], [-88.978483, 48.509818], [-88.978752, 48.510157], [-88.979653, 48.510309], [-88.981186, 48.510273], [-88.982195, 48.510077], [-88.982679, 48.50972], [-88.982867, 48.509408], [-88.98276, 48.50914], [-88.982787, 48.508908], [-88.982948, 48.508712], [-88.983621, 48.508516], [-88.984804, 48.50832], [-88.985315, 48.508427], [-88.985154, 48.508837], [-88.985208, 48.509185], [-88.985477, 48.50947], [-88.98623, 48.509988], [-88.987467, 48.510737], [-88.989175, 48.511602], [-88.991354, 48.512583], [-88.99286, 48.513163], [-88.993694, 48.513342], [-88.994367, 48.513422], [-88.994878, 48.513404], [-88.995604, 48.513244], [-88.996546, 48.51294], [-88.997258, 48.51278], [-88.997743, 48.512762], [-88.998267, 48.512575], [-88.998832, 48.512218], [-88.999249, 48.512013], [-88.999518, 48.511959], [-88.999653, 48.506696], [-88.999653, 48.496222], [-88.980823, 48.490984], [-88.943164, 48.490984], [-88.924335, 48.498435], [-88.924335, 48.513333], [-88.925478, 48.520414], [-88.927765, 48.519683], [-88.92911, 48.519433], [-88.929513, 48.519665], [-88.929782, 48.520067], [-88.929917, 48.520637], [-88.930145, 48.521012], [-88.930468, 48.52119], [-88.930616, 48.521431], [-88.930589, 48.521734], [-88.93067, 48.522055], [-88.930858, 48.522394], [-88.930724, 48.52268], [-88.930266, 48.522912], [-88.929836, 48.523233], [-88.929432, 48.523643], [-88.929325, 48.524017], [-88.929513, 48.524356], [-88.929836, 48.524677], [-88.930293, 48.52498], [-88.9311, 48.525275], [-88.932257, 48.52556], [-88.934624, 48.525792], [-88.938201, 48.52597], [-88.940676, 48.526167], [-88.942048, 48.526381], [-88.942801, 48.526586], [-88.942936, 48.526782], [-88.942922, 48.526951], [-88.942761, 48.527094], [-88.942573, 48.527219], [-88.942357, 48.527326], [-88.942048, 48.527361], [-88.941645, 48.527326], [-88.941201, 48.52746], [-88.940717, 48.527763], [-88.940434, 48.528021], [-88.940353, 48.528235], [-88.93999, 48.528521], [-88.939345, 48.528877], [-88.939466, 48.529145], [-88.940353, 48.529323], [-88.940811, 48.529626], [-88.940838, 48.530054], [-88.941214, 48.530866], [-88.94194, 48.532061], [-88.94229, 48.532462]], [[-88.938524, 48.52062], [-88.938175, 48.520441], [-88.937932, 48.520218], [-88.937798, 48.519951], [-88.937932, 48.519612], [-88.938336, 48.519202], [-88.938834, 48.51897], [-88.939425, 48.518916], [-88.939923, 48.519023], [-88.940327, 48.519291], [-88.940515, 48.519487], [-88.940488, 48.519612], [-88.94034, 48.519799], [-88.940071, 48.520049], [-88.939694, 48.520236], [-88.93921, 48.520361], [-88.938901, 48.520495], [-88.938766, 48.520637], [-88.938524, 48.52062]], [[-88.950024, 48.51748], [-88.949539, 48.517373], [-88.949217, 48.517355], [-88.949055, 48.517427], [-88.948907, 48.517409], [-88.948773, 48.517302], [-88.948894, 48.517222], [-88.94927, 48.517168], [-88.949661, 48.517239], [-88.950064, 48.517436], [-88.950024, 48.51748]], [[-88.949539, 48.516553], [-88.948732, 48.516446], [-88.948894, 48.516098], [-88.950024, 48.515509], [-88.950858, 48.515206], [-88.951396, 48.515188], [-88.951812, 48.515081], [-88.952108, 48.514885], [-88.952418, 48.514769], [-88.95274, 48.514733], [-88.952687, 48.515019], [-88.952256, 48.515625], [-88.951517, 48.516098], [-88.950467, 48.516437], [-88.949539, 48.516553]], [[-88.980756, 48.505858], [-88.980406, 48.505768], [-88.979841, 48.50575], [-88.979061, 48.505804], [-88.978564, 48.505759], [-88.978348, 48.505617], [-88.978241, 48.505465], [-88.978241, 48.505304], [-88.97894, 48.505153], [-88.980339, 48.50501], [-88.981496, 48.504725], [-88.98241, 48.504296], [-88.983204, 48.504038], [-88.983876, 48.503948], [-88.98432, 48.503761], [-88.984535, 48.503476], [-88.985181, 48.503074], [-88.986257, 48.502557], [-88.986929, 48.502298], [-88.987198, 48.502298], [-88.987548, 48.502111], [-88.987978, 48.501736], [-88.988476, 48.501477], [-88.989041, 48.501334], [-88.989592, 48.501102], [-88.99013, 48.500781], [-88.990749, 48.500514], [-88.991448, 48.500299], [-88.991825, 48.500139], [-88.991879, 48.500032], [-88.99239, 48.499844], [-88.993358, 48.499577], [-88.993883, 48.499577], [-88.993963, 48.499844], [-88.993936, 48.500041], [-88.993802, 48.500166], [-88.993237, 48.500362], [-88.992242, 48.50063], [-88.991152, 48.501031], [-88.989969, 48.501566], [-88.988476, 48.502459], [-88.986674, 48.503708], [-88.985221, 48.504421], [-88.984118, 48.5046], [-88.983029, 48.504876], [-88.981953, 48.505251], [-88.981294, 48.505554], [-88.981052, 48.505786], [-88.980756, 48.505858]]]}}]}