{"type": "FeatureCollection", "features": [{"type": "Feature", "properties": {"lead": 0, "band": "edge"}, "geometry": {"type": "LineString", "coordinates": [[-89.174906, 48.455187], [-89.174755, 48.45518], [-89.174579, 48.455153], [-89.174458, 48.455111], [-89.174391, 48.455053], [-89.174377, 48.454979], [-89.174418, 48.45489], [-89.174404, 48.454832], [-89.174337, 48.454805], [-89.174215, 48.454809], [-89.17404, 48.454845], [-89.173868, 48.454814], [-89.1737, 48.454716], [-89.173535, 48.45455], [-89.173373, 48.454318], [-89.173154, 48.454144], [-89.172878, 48.454028], [-89.172544, 48.45397], [-89.172153, 48.45397], [-89.171863, 48.453961], [-89.171674, 48.453943], [-89.171587, 48.453916], [-89.1716, 48.453881], [-89.171661, 48.453827], [-89.171769, 48.453756], [-89.171924, 48.453666], [-89.172126, 48.453559], [-89.172328, 48.453477], [-89.17253, 48.453419], [-89.172733, 48.453385], [-89.172935, 48.453376], [-89.173134, 48.45339], [-89.173329, 48.453425], [-89.173521, 48.453483], [-89.17371, 48.453564], [-89.173889, 48.453678], [-89.174057, 48.453825], [-89.174215, 48.454006], [-89.174364, 48.45422], [-89.174529, 48.454381], [-89.174711, 48.454488], [-89.17491, 48.454541], [-89.175125, 48.454541], [-89.175365, 48.454508], [-89.175628, 48.454441], [-89.175914, 48.454341], [-89.176224, 48.454207], [-89.176504, 48.453992], [-89.176753, 48.453698], [-89.176972, 48.453323], [-89.177161, 48.452867], [-89.177393, 48.452476], [-89.17767, 48.45215], [-89.17799, 48.451889], [-89.178354, 48.451693], [-89.178667, 48.451498], [-89.17893, 48.451306], [-89.179143, 48.451117], [-89.179304, 48.450929], [-89.1795, 48.450782], [-89.179729, 48.450675], [-89.179992, 48.450608], [-89.180288, 48.450581], [-89.180575, 48.450574], [-89.180851, 48.450588], [-89.181117, 48.450621], [-89.181373, 48.450675], [-89.181694, 48.45069], [-89.182078, 48.450668], [-89.182526, 48.450608], [-89.183038, 48.450509], [-89.183247, 48.450279], [-89.183153, 48.449918], [-89.182755, 48.449424], [-89.182054, 48.448799], [-89.181525, 48.448299], [-89.181168, 48.447924], [-89.180983, 48.447674], [-89.180969, 48.447549], [-89.18103, 48.44741], [-89.181165, 48.447259], [-89.181373, 48.447093], [-89.181657, 48.446915], [-89.181926, 48.446781], [-89.182182, 48.446691], [-89.182425, 48.446647], [-89.182654, 48.446647], [-89.182829, 48.44662], [-89.182951, 48.446566], [-89.183018, 48.446486], [-89.183032, 48.446379], [-89.183069, 48.446278], [-89.183129, 48.446185], [-89.183214, 48.446097], [-89.183321, 48.446017], [-89.1835, 48.445901], [-89.183749, 48.445749], [-89.18407, 48.445562], [-89.18446, 48.445338], [-89.184801, 48.445162], [-89.185091, 48.445032], [-89.18533, 48.44495], [-89.185519, 48.444914], [-89.18566, 48.444965], [-89.185755, 48.445104], [-89.185802, 48.445329], [-89.185802, 48.445642], [-89.185782, 48.445876], [-89.185741, 48.446033], [-89.18568, 48.446111], [-89.1856, 48.446111], [-89.185539, 48.446097], [-89.185498, 48.446071], [-89.185478, 48.44603], [-89.185478, 48.445977], [-89.185444, 48.445943], [-89.185377, 48.44593], [-89.185276, 48.445937], [-89.185141, 48.445964], [-89.184996, 48.446024], [-89.184841, 48.446118], [-89.184676, 48.446245], [-89.184501, 48.446406], [-89.184467, 48.446602], [-89.184575, 48.446834], [-89.184824, 48.447102], [-89.185215, 48.447406], [-89.185509, 48.447703], [-89.185704, 48.447993], [-89.185802, 48.448277], [-89.185802, 48.448554], [-89.185714, 48.44869], [-89.185539, 48.448685], [-89.185276, 48.44854], [-89.184926, 48.448254], [-89.184589, 48.448047], [-89.184265, 48.447917], [-89.183955, 48.447866], [-89.183658, 48.447893], [-89.183402, 48.447879], [-89.183187, 48.447826], [-89.183011, 48.447732], [-89.182877, 48.447598], [-89.182742, 48.447511], [-89.182607, 48.447471], [-89.182472, 48.447477], [-89.182337, 48.447531], [-89.182445, 48.447754], [-89.182796, 48.448147], [-89.183389, 48.44871], [-89.184225, 48.449442], [-89.184797, 48.449991], [-89.185107, 48.450358], [-89.185155, 48.450541], [-89.184939, 48.450541], [-89.184733, 48.450521], [-89.184538, 48.45048], [-89.184353, 48.45042], [-89.184177, 48.45034], [-89.184046, 48.450293], [-89.183958, 48.450279], [-89.183914, 48.4503], [-89.183914, 48.450353], [-89.183894, 48.4504], [-89.183854, 48.45044], [-89.183793, 48.450474], [-89.183712, 48.450501], [-89.183652, 48.450536], [-89.183611, 48.450581], [-89.183591, 48.450634], [-89.183591, 48.450697], [-89.183577, 48.450744], [-89.183551, 48.450775], [-89.18351, 48.450791], [-89.183456, 48.450791], [-89.183416, 48.450804], [-89.183389, 48.450831], [-89.183375, 48.450871], [-89.183375, 48.450925], [-89.183335, 48.450981], [-89.183254, 48.451039], [-89.183133, 48.451099], [-89.182971, 48.451161], [-89.182873, 48.451235], [-89.182839, 48.45132], [-89.18287, 48.451416], [-89.182964, 48.451523], [-89.183021, 48.451626], [-89.183042, 48.451724], [-89.183025, 48.451818], [-89.182971, 48.451907], [-89.182887, 48.451952], [-89.182772, 48.451952], [-89.182627, 48.451907], [-89.182452, 48.451818], [-89.182331, 48.451715], [-89.182263, 48.451599], [-89.18225, 48.451469], [-89.18229, 48.451327], [-89.1823, 48.451206], [-89.18228, 48.451108], [-89.182229, 48.451032], [-89.182149, 48.450978], [-89.182054, 48.450945], [-89.181946, 48.450931], [-89.181825, 48.450938], [-89.18169, 48.450965], [-89.181613, 48.451021], [-89.181593, 48.451106], [-89.18163, 48.451219], [-89.181724, 48.451362], [-89.181731, 48.451478], [-89.18165, 48.451568], [-89.181481, 48.45163], [-89.181225, 48.451666], [-89.180979, 48.45182], [-89.180743, 48.452092], [-89.180517, 48.452483], [-89.180302, 48.452992], [-89.180116, 48.453345], [-89.179961, 48.453541], [-89.179837, 48.453582], [-89.179742, 48.453465], [-89.179695, 48.453365], [-89.179695, 48.45328], [-89.179742, 48.453211], [-89.179837, 48.453157], [-89.179938, 48.45303], [-89.180046, 48.452829], [-89.18016, 48.452555], [-89.180282, 48.452206], [-89.180332, 48.451941], [-89.180312, 48.451757], [-89.180221, 48.451657], [-89.180059, 48.451639], [-89.179938, 48.451646], [-89.179857, 48.451677], [-89.179817, 48.451733], [-89.179817, 48.451813], [-89.179719, 48.451916], [-89.179523, 48.452041], [-89.17923, 48.452188], [-89.178839, 48.452358], [-89.178512, 48.452592], [-89.178249, 48.452892], [-89.178051, 48.453256], [-89.177916, 48.453684], [-89.177751, 48.454032], [-89.177555, 48.4543], [-89.177329, 48.454488], [-89.177073, 48.454595], [-89.176851, 48.454675], [-89.176662, 48.454729], [-89.176507, 48.454756], [-89.176386, 48.454756], [-89.176295, 48.454771], [-89.176234, 48.454803], [-89.176204, 48.45485], [-89.176204, 48.454912], [-89.17615, 48.454959], [-89.176042, 48.45499], [-89.17588, 48.455006], [-89.175665, 48.455006], [-89.175483, 48.455019], [-89.175334, 48.455046], [-89.17522, 48.455086], [-89.175139, 48.45514], [-89.175034, 48.455173], [-89.174906, 48.455187]]}}, {"type": "Feature", "properties": {"lead": 0, "band": "edge"}, "geometry": {"type": "LineString", "coordinates": [[-89.185111, 48.450648], [-89.185101, 48.45063], [-89.185101, 48.450594], [-89.185111, 48.450567], [-89.185131, 48.45055], [-89.185161, 48.450541], [-89.185202, 48.450541], [-89.185222, 48.45055], [-89.185222, 48.450567], [-89.185202, 48.450594], [-89.185161, 48.45063], [-89.185131, 48.450648], [-89.185111, 48.450648]]}}, {"type": "Feature", "properties": {"lead": 0, "band": "edge"}, "geometry": {"type": "LineString", "coordinates": [[-89.166006, 48.455758], [-89.165945, 48.455792], [-89.165865, 48.455792], [-89.165794, 48.455756], [-89.165733, 48.455685], [-89.165683, 48.455577], [-89.165642, 48.455434], [-89.165642, 48.45533], [-89.165683, 48.455263], [-89.165763, 48.455234], [-89.165885, 48.455242], [-89.165976, 48.455283], [-89.166036, 48.455354], [-89.166067, 48.455457], [-89.166067, 48.455591], [-89.166046, 48.455691], [-89.166006, 48.455758]]}}, {"type": "Feature", "properties": {"lead": 0, "band": "edge"}, "geometry": {"type": "LineString", "coordinates": [[-89.165918, 48.457104], [-89.165352, 48.456836], [-89.164921, 48.456595], [-89.164624, 48.456381], [-89.164463, 48.456194], [-89.164436, 48.456033], [-89.164449, 48.455883], [-89.164503, 48.455745], [-89.164597, 48.455618], [-89.164732, 48.455501], [-89.16485, 48.455414], [-89.164951, 48.455356], [-89.165035, 48.455327], [-89.165103, 48.455327], [-89.165153, 48.455363], [-89.165187, 48.455434], [-89.165204, 48.455542], [-89.165204, 48.455685], [-89.165184, 48.455792], [-89.165143, 48.455863], [-89.165083, 48.455899], [-89.165002, 48.455899], [-89.164941, 48.455921], [-89.164901, 48.455966], [-89.16488, 48.456033], [-89.16488, 48.456122], [-89.164975, 48.456225], [-89.165164, 48.456341], [-89.165447, 48.45647], [-89.165824, 48.456613], [-89.166131, 48.456763], [-89.166367, 48.456919], [-89.166532, 48.457082], [-89.166626, 48.457252], [-89.166555, 48.457312], [-89.166319, 48.457263], [-89.165918, 48.457104]]}}, {"type": "Feature", "properties": {"lead": 0, "band": "edge"}, "geometry": {"type": "LineString", "coordinates": [[-89.156368, 48.473898], [-89.156192, 48.473898], [-89.156075, 48.473873], [-89.156014, 48.473824], [-89.15601, 48.473751], [-89.156064, 48.473653], [-89.156078, 48.473543], [-89.156051, 48.473423], [-89.155984, 48.473291], [-89.155876, 48.473148], [-89.155768, 48.473039], [-89.15566, 48.472963], [-89.155552, 48.472921], [-89.155444, 48.472912], [-89.15534, 48.472854], [-89.155239, 48.472746], [-89.155141, 48.47259], [-89.155047, 48.472385], [-89.154922, 48.472247], [-89.154767, 48.472175], [-89.154582, 48.472171], [-89.154366, 48.472233], [-89.15417, 48.472307], [-89.153995, 48.472392], [-89.15384, 48.472488], [-89.153705, 48.472595], [-89.153608, 48.472659], [-89.153547, 48.472682], [-89.153523, 48.472662], [-89.153537, 48.472599], [-89.153577, 48.472514], [-89.153645, 48.472407], [-89.153739, 48.472278], [-89.15386, 48.472126], [-89.153988, 48.471997], [-89.154123, 48.47189], [-89.154265, 48.471805], [-89.154413, 48.471742], [-89.154528, 48.471646], [-89.154609, 48.471517], [-89.154656, 48.471354], [-89.154669, 48.471157], [-89.154753, 48.470981], [-89.154908, 48.470825], [-89.155134, 48.470689], [-89.155431, 48.470573], [-89.1557, 48.470488], [-89.155943, 48.470434], [-89.156159, 48.470412], [-89.156347, 48.470421], [-89.156519, 48.470448], [-89.156674, 48.470492], [-89.156813, 48.470555], [-89.156934, 48.470635], [-89.156995, 48.470716], [-89.156995, 48.470796], [-89.156934, 48.470876], [-89.156813, 48.470957], [-89.156668, 48.471017], [-89.156499, 48.471057], [-89.156307, 48.471077], [-89.156091, 48.471077], [-89.155886, 48.471097], [-89.15569, 48.471137], [-89.155505, 48.471198], [-89.15533, 48.471278], [-89.155222, 48.471387], [-89.155181, 48.471526], [-89.155208, 48.471693], [-89.155303, 48.47189], [-89.155401, 48.472037], [-89.155502, 48.472135], [-89.155606, 48.472184], [-89.155714, 48.472184], [-89.155818, 48.472218], [-89.15592, 48.472285], [-89.156017, 48.472385], [-89.156112, 48.472519], [-89.156176, 48.472644], [-89.156209, 48.47276], [-89.156213, 48.472867], [-89.156186, 48.472965], [-89.156189, 48.473039], [-89.156223, 48.473088], [-89.156287, 48.473112], [-89.156381, 48.473112], [-89.156472, 48.473141], [-89.15656, 48.4732], [-89.156644, 48.473287], [-89.156725, 48.473403], [-89.156772, 48.47351], [-89.156786, 48.473608], [-89.156765, 48.473697], [-89.156711, 48.473778], [-89.156627, 48.473838], [-89.156513, 48.473878], [-89.156368, 48.473898]]}}, {"type": "Feature", "properties": {"lead": 24, "band": "edge"}, "geometry": {"type": "LineString", "coordinates": [[-89.185488, 48.446084], [-89.185478, 48.446071], [-89.185478, 48.446044], [-89.185488, 48.446024], [-89.185509, 48.44601], [-89.185539, 48.446004], [-89.185579, 48.446004], [-89.1856, 48.44601], [-89.1856, 48.446024], [-89.185579, 48.446044], [-89.185539, 48.446071], [-89.185509, 48.446084], [-89.185488, 48.446084]]}}, {"type": "Feature", "properties": {"lead": 24, "band": "edge"}, "geometry": {"type": "LineString", "coordinates": [[-89.185155, 48.450541], [-89.184939, 48.450541], [-89.184744, 48.450514], [-89.184568, 48.45046], [-89.184413, 48.45038], [-89.184278, 48.450273], [-89.18415, 48.450192], [-89.184029, 48.450139], [-89.183914, 48.450112], [-89.183807, 48.450112], [-89.183561, 48.449971], [-89.183176, 48.44969], [-89.182654, 48.449268], [-89.181994, 48.448705], [-89.181495, 48.448252], [-89.181158, 48.447908], [-89.180983, 48.447674], [-89.180969, 48.447549], [-89.18103, 48.44741], [-89.181165, 48.447259], [-89.181373, 48.447093], [-89.181657, 48.446915], [-89.181926, 48.446781], [-89.182182, 48.446691], [-89.182425, 48.446647], [-89.182654, 48.446647], [-89.182829, 48.44662], [-89.182951, 48.446566], [-89.183018, 48.446486], [-89.183032, 48.446379], [-89.183069, 48.446278], [-89.183129, 48.446185], [-89.183214, 48.446097], [-89.183321, 48.446017], [-89.1835, 48.445901], [-89.183749, 48.445749], [-89.18407, 48.445562], [-89.18446, 48.445338], [-89.184801, 48.445162], [-89.185091, 48.445032], [-89.18533, 48.44495], [-89.185519, 48.444914], [-89.18566, 48.444945], [-89.185755, 48.445044], [-89.185802, 48.445209], [-89.185802, 48.445441], [-89.185748, 48.445629], [-89.18564, 48.445771], [-89.185478, 48.44587], [-89.185263, 48.445923], [-89.185057, 48.446004], [-89.184861, 48.446111], [-89.184676, 48.446245], [-89.184501, 48.446406], [-89.184467, 48.446602], [-89.184575, 48.446834], [-89.184824, 48.447102], [-89.185215, 48.447406], [-89.185509, 48.447703], [-89.185704, 48.447993], [-89.185802, 48.448277], [-89.185802, 48.448554], [-89.185714, 48.44869], [-89.185539, 48.448685], [-89.185276, 48.44854], [-89.184926, 48.448254], [-89.184589, 48.448047], [-89.184265, 48.447917], [-89.183955, 48.447866], [-89.183658, 48.447893], [-89.183402, 48.447879], [-89.183187, 48.447826], [-89.183011, 48.447732], [-89.182877, 48.447598], [-89.182742, 48.447511], [-89.182607, 48.447471], [-89.182472, 48.447477], [-89.182337, 48.447531], [-89.182445, 48.447754], [-89.182796, 48.448147], [-89.183389, 48.44871], [-89.184225, 48.449442], [-89.184797, 48.449991], [-89.185107, 48.450358], [-89.185155, 48.450541]]}}, {"type": "Feature", "properties": {"lead": 24, "band": "edge"}, "geometry": {"type": "LineString", "coordinates": [[-89.174815, 48.455113], [-89.174681, 48.455113], [-89.17459, 48.455091], [-89.174542, 48.455046], [-89.174539, 48.454979], [-89.174579, 48.45489], [-89.174566, 48.454816], [-89.174499, 48.454758], [-89.174377, 48.454716], [-89.174202, 48.454689], [-89.17402, 48.45462], [-89.173831, 48.454508], [-89.173636, 48.454354], [-89.173434, 48.454157], [-89.173198, 48.454001], [-89.172928, 48.453885], [-89.172625, 48.453809], [-89.172288, 48.453774], [-89.172086, 48.453724], [-89.172018, 48.453662], [-89.172086, 48.453586], [-89.172288, 48.453497], [-89.1725, 48.453434], [-89.172723, 48.453398], [-89.172955, 48.45339], [-89.173198, 48.453407], [-89.173444, 48.45349], [-89.173693, 48.453637], [-89.173946, 48.453849], [-89.174202, 48.454126], [-89.174448, 48.454334], [-89.174684, 48.454472], [-89.17491, 48.454541], [-89.175125, 48.454541], [-89.175365, 48.454508], [-89.175628, 48.454441], [-89.175914, 48.454341], [-89.176224, 48.454207], [-89.176504, 48.453992], [-89.176753, 48.453698], [-89.176972, 48.453323], [-89.177161, 48.452867], [-89.177393, 48.452476], [-89.17767, 48.45215], [-89.17799, 48.451889], [-89.178354, 48.451693], [-89.178667, 48.451498], [-89.17893, 48.451306], [-89.179143, 48.451117], [-89.179304, 48.450929], [-89.1795, 48.450782], [-89.179729, 48.450675], [-89.179992, 48.450608], [-89.180288, 48.450581], [-89.180575, 48.450574], [-89.180851, 48.450588], [-89.181117, 48.450621], [-89.181373, 48.450675], [-89.18169, 48.45069], [-89.182068, 48.450668], [-89.182506, 48.450608], [-89.183005, 48.450509], [-89.183369, 48.450456], [-89.183598, 48.450447], [-89.183692, 48.450483], [-89.183652, 48.450563], [-89.183567, 48.450637], [-89.183439, 48.450704], [-89.183267, 48.450764], [-89.183052, 48.450818], [-89.18289, 48.4509], [-89.182782, 48.451012], [-89.182728, 48.451152], [-89.182728, 48.451322], [-89.182748, 48.451465], [-89.182789, 48.451581], [-89.18285, 48.45167], [-89.18293, 48.451733], [-89.182981, 48.451793], [-89.183001, 48.451851], [-89.182991, 48.451907], [-89.182951, 48.451961], [-89.182887, 48.451987], [-89.182799, 48.451987], [-89.182688, 48.451961], [-89.182553, 48.451907], [-89.182465, 48.451845], [-89.182425, 48.451773], [-89.182432, 48.451693], [-89.182486, 48.451603], [-89.182513, 48.451536], [-89.182513, 48.451492], [-89.182486, 48.451469], [-89.182432, 48.451469], [-89.182391, 48.45144], [-89.182364, 48.451382], [-89.182351, 48.451295], [-89.182351, 48.451179], [-89.182331, 48.451079], [-89.18229, 48.450994], [-89.182229, 48.450925], [-89.182149, 48.450871], [-89.182054, 48.450838], [-89.181946, 48.450824], [-89.181825, 48.450831], [-89.18169, 48.450858], [-89.181603, 48.450927], [-89.181562, 48.451039], [-89.181569, 48.451193], [-89.181623, 48.451389], [-89.181626, 48.45153], [-89.181579, 48.451615], [-89.181481, 48.451644], [-89.181333, 48.451617], [-89.181205, 48.451606], [-89.181097, 48.45161], [-89.18101, 48.45163], [-89.180942, 48.451666], [-89.180838, 48.45182], [-89.180696, 48.452092], [-89.180517, 48.452483], [-89.180302, 48.452992], [-89.180116, 48.453345], [-89.179961, 48.453541], [-89.179837, 48.453582], [-89.179742, 48.453465], [-89.179705, 48.453349], [-89.179726, 48.453233], [-89.179803, 48.453117], [-89.179938, 48.453001], [-89.180059, 48.452851], [-89.180167, 48.452668], [-89.180261, 48.452452], [-89.180342, 48.452202], [-89.180393, 48.451999], [-89.180413, 48.451842], [-89.180403, 48.451733], [-89.180362, 48.45167], [-89.180302, 48.451626], [-89.180221, 48.451599], [-89.18012, 48.45159], [-89.179998, 48.451599], [-89.179908, 48.451626], [-89.179847, 48.45167], [-89.179817, 48.451733], [-89.179817, 48.451813], [-89.179719, 48.451916], [-89.179523, 48.452041], [-89.17923, 48.452188], [-89.178839, 48.452358], [-89.178512, 48.452592], [-89.178249, 48.452892], [-89.178051, 48.453256], [-89.177916, 48.453684], [-89.177646, 48.454055], [-89.177242, 48.454367], [-89.176703, 48.454622], [-89.176029, 48.454818], [-89.175489, 48.454966], [-89.175085, 48.455064], [-89.174815, 48.455113]]}}, {"type": "Feature", "properties": {"lead": 24, "band": "edge"}, "geometry": {"type": "LineString", "coordinates": [[-89.165733, 48.455651], [-89.165683, 48.455577], [-89.165642, 48.455434], [-89.165642, 48.45533], [-89.165683, 48.455263], [-89.165763, 48.455234], [-89.165885, 48.455242], [-89.165956, 48.455283], [-89.165976, 48.455354], [-89.165945, 48.455457], [-89.165865, 48.455591], [-89.165794, 48.455655], [-89.165733, 48.455651]]}}, {"type": "Feature", "properties": {"lead": 24, "band": "edge"}, "geometry": {"type": "LineString", "coordinates": [[-89.165784, 48.456993], [-89.165487, 48.456912], [-89.165228, 48.456825], [-89.165005, 48.456732], [-89.16482, 48.456631], [-89.164672, 48.456524], [-89.164557, 48.456408], [-89.164476, 48.456283], [-89.164429, 48.456149], [-89.164415, 48.456006], [-89.164439, 48.45587], [-89.1645, 48.45574], [-89.164597, 48.455618], [-89.164732, 48.455501], [-89.16485, 48.455414], [-89.164951, 48.455356], [-89.165035, 48.455327], [-89.165103, 48.455327], [-89.165153, 48.455363], [-89.165187, 48.455434], [-89.165204, 48.455542], [-89.165204, 48.455685], [-89.165184, 48.455792], [-89.165143, 48.455863], [-89.165083, 48.455899], [-89.165002, 48.455899], [-89.164941, 48.455921], [-89.164901, 48.455966], [-89.16488, 48.456033], [-89.16488, 48.456122], [-89.164944, 48.456209], [-89.165073, 48.456294], [-89.165265, 48.456377], [-89.165521, 48.456457], [-89.165733, 48.456551], [-89.165902, 48.456658], [-89.166026, 48.456778], [-89.166107, 48.456912], [-89.166094, 48.456993], [-89.165986, 48.457019], [-89.165784, 48.456993]]}}, {"type": "Feature", "properties": {"lead": 24, "band": "edge"}, "geometry": {"type": "LineString", "coordinates": [[-89.156368, 48.473898], [-89.156192, 48.473898], [-89.156075, 48.473873], [-89.156014, 48.473824], [-89.15601, 48.473751], [-89.156064, 48.473653], [-89.156078, 48.473543], [-89.156051, 48.473423], [-89.155984, 48.473291], [-89.155876, 48.473148], [-89.155768, 48.473039], [-89.15566, 48.472963], [-89.155552, 48.472921], [-89.155444, 48.472912], [-89.15534, 48.472854], [-89.155239, 48.472746], [-89.155141, 48.47259], [-89.155047, 48.472385], [-89.154912, 48.472253], [-89.154737, 48.472195], [-89.154521, 48.472211], [-89.154265, 48.4723], [-89.154049, 48.472396], [-89.153874, 48.472499], [-89.153739, 48.472608], [-89.153645, 48.472724], [-89.153574, 48.472793], [-89.153527, 48.472816], [-89.153503, 48.472791], [-89.153503, 48.47272], [-89.15353, 48.472628], [-89.153584, 48.472517], [-89.153665, 48.472385], [-89.153773, 48.472233], [-89.153897, 48.472097], [-89.154039, 48.471977], [-89.154197, 48.471872], [-89.154373, 48.471782], [-89.154501, 48.471673], [-89.154582, 48.471544], [-89.154615, 48.471394], [-89.154602, 48.471224], [-89.154673, 48.471062], [-89.154828, 48.470905], [-89.155067, 48.470756], [-89.15539, 48.470613], [-89.15568, 48.470508], [-89.155936, 48.470441], [-89.156159, 48.470412], [-89.156347, 48.470421], [-89.156519, 48.470448], [-89.156674, 48.470492], [-89.156813, 48.470555], [-89.156934, 48.470635], [-89.157005, 48.470716], [-89.157025, 48.470796], [-89.156995, 48.470876], [-89.156914, 48.470957], [-89.156779, 48.471017], [-89.15659, 48.471057], [-89.156347, 48.471077], [-89.156051, 48.471077], [-89.155818, 48.471091], [-89.15565, 48.471117], [-89.155545, 48.471157], [-89.155505, 48.471211], [-89.155451, 48.471251], [-89.155384, 48.471278], [-89.155303, 48.471291], [-89.155208, 48.471291], [-89.155151, 48.471327], [-89.155131, 48.471399], [-89.155148, 48.471506], [-89.155202, 48.471648], [-89.155272, 48.471765], [-89.15536, 48.471854], [-89.155465, 48.471916], [-89.155586, 48.471952], [-89.155707, 48.472023], [-89.155829, 48.472131], [-89.15595, 48.472273], [-89.156071, 48.472452], [-89.156155, 48.47261], [-89.156203, 48.472749], [-89.156213, 48.472867], [-89.156186, 48.472965], [-89.156189, 48.473039], [-89.156223, 48.473088], [-89.156287, 48.473112], [-89.156381, 48.473112], [-89.156472, 48.473141], [-89.15656, 48.4732], [-89.156644, 48.473287], [-89.156725, 48.473403], [-89.156772, 48.47351], [-89.156786, 48.473608], [-89.156765, 48.473697], [-89.156711, 48.473778], [-89.156627, 48.473838], [-89.156513, 48.473878], [-89.156368, 48.473898]]}}, {"type": "Feature", "properties": {"lead": 48, "band": "edge"}, "geometry": {"type": "LineString", "coordinates": [[-89.184939, 48.450474], [-89.184777, 48.45046], [-89.184562, 48.450407], [-89.1844, 48.450353], [-89.184292, 48.4503], [-89.184238, 48.450246], [-89.184238, 48.450192], [-89.184164, 48.450121], [-89.184016, 48.450032], [-89.183793, 48.449924], [-89.183497, 48.449799], [-89.183146, 48.449596], [-89.182742, 48.449315], [-89.182283, 48.448955], [-89.181771, 48.448518], [-89.181384, 48.448158], [-89.181121, 48.447877], [-89.180983, 48.447674], [-89.180969, 48.447549], [-89.18103, 48.44741], [-89.181165, 48.447259], [-89.181373, 48.447093], [-89.181657, 48.446915], [-89.181926, 48.446781], [-89.182182, 48.446691], [-89.182425, 48.446647], [-89.182654, 48.446647], [-89.182829, 48.44662], [-89.182951, 48.446566], [-89.183018, 48.446486], [-89.183032, 48.446379], [-89.183069, 48.446278], [-89.183129, 48.446185], [-89.183214, 48.446097], [-89.183321, 48.446017], [-89.1835, 48.445901], [-89.183749, 48.445749], [-89.18407, 48.445562], [-89.18446, 48.445338], [-89.184801, 48.445162], [-89.185091, 48.445032], [-89.18533, 48.44495], [-89.185519, 48.444914], [-89.18566, 48.444945], [-89.185755, 48.445044], [-89.185802, 48.445209], [-89.185802, 48.445441], [-89.185728, 48.445635], [-89.185579, 48.445792], [-89.185357, 48.44591], [-89.18506, 48.44599], [-89.184814, 48.446084], [-89.184619, 48.446191], [-89.184474, 48.446312], [-89.18438, 48.446446], [-89.184407, 48.446622], [-89.184555, 48.446841], [-89.184824, 48.447102], [-89.185215, 48.447406], [-89.185509, 48.447703], [-89.185704, 48.447993], [-89.185802, 48.448277], [-89.185802, 48.448554], [-89.185728, 48.448696], [-89.185579, 48.448705], [-89.185357, 48.44858], [-89.18506, 48.448321], [-89.184784, 48.448107], [-89.184528, 48.447937], [-89.184292, 48.447812], [-89.184076, 48.447732], [-89.183914, 48.447656], [-89.183807, 48.447585], [-89.183753, 48.447518], [-89.183753, 48.447455], [-89.183668, 48.44741], [-89.1835, 48.447384], [-89.183247, 48.447375], [-89.18291, 48.447384], [-89.182641, 48.447404], [-89.182438, 48.447435], [-89.182304, 48.447477], [-89.182236, 48.447531], [-89.182371, 48.447727], [-89.182708, 48.448067], [-89.183247, 48.448549], [-89.183989, 48.449174], [-89.184545, 48.44967], [-89.184915, 48.450036], [-89.185101, 48.450273], [-89.185101, 48.45038], [-89.185047, 48.450447], [-89.184939, 48.450474]]}}, {"type": "Feature", "properties": {"lead": 48, "band": "edge"}, "geometry": {"type": "LineString", "coordinates": [[-89.183591, 48.447785], [-89.183591, 48.447759], [-89.183601, 48.447739], [-89.183621, 48.447725], [-89.183652, 48.447719], [-89.183692, 48.447719], [-89.183712, 48.447725], [-89.183712, 48.447739], [-89.183692, 48.447759], [-89.183652, 48.447785], [-89.183621, 48.447799], [-89.183601, 48.447799], [-89.183591, 48.447785]]}}, {"type": "Feature", "properties": {"lead": 48, "band": "edge"}, "geometry": {"type": "LineString", "coordinates": [[-89.182587, 48.451112], [-89.182492, 48.451112], [-89.182435, 48.451099], [-89.182415, 48.451072], [-89.182432, 48.451032], [-89.182486, 48.450978], [-89.182513, 48.450925], [-89.182513, 48.450871], [-89.182486, 48.450818], [-89.182432, 48.450764], [-89.182415, 48.450724], [-89.182435, 48.450697], [-89.182492, 48.450684], [-89.182587, 48.450684], [-89.182657, 48.45071], [-89.182705, 48.450764], [-89.182728, 48.450844], [-89.182728, 48.450952], [-89.182705, 48.451032], [-89.182657, 48.451085], [-89.182587, 48.451112]]}}, {"type": "Feature", "properties": {"lead": 48, "band": "edge"}, "geometry": {"type": "LineString", "coordinates": [[-89.177228, 48.454354], [-89.177013, 48.4543], [-89.17679, 48.454265], [-89.176561, 48.454247], [-89.176325, 48.454247], [-89.176083, 48.454265], [-89.175961, 48.45426], [-89.175961, 48.454233], [-89.176083, 48.454184], [-89.176325, 48.454113], [-89.176561, 48.453939], [-89.17679, 48.453662], [-89.177013, 48.453282], [-89.177228, 48.4528], [-89.177474, 48.452396], [-89.177751, 48.45207], [-89.178057, 48.451822], [-89.178394, 48.451653], [-89.178698, 48.451474], [-89.178967, 48.451286], [-89.179203, 48.45109], [-89.179405, 48.450885], [-89.179678, 48.450739], [-89.180022, 48.450655], [-89.180437, 48.45063], [-89.180922, 48.450666], [-89.181276, 48.450733], [-89.181498, 48.450831], [-89.181589, 48.45096], [-89.181549, 48.451121], [-89.181532, 48.451242], [-89.181539, 48.451322], [-89.181569, 48.451362], [-89.181623, 48.451362], [-89.181663, 48.451382], [-89.18169, 48.451423], [-89.181704, 48.451483], [-89.181704, 48.451563], [-89.18168, 48.45161], [-89.181633, 48.451624], [-89.181562, 48.451603], [-89.181468, 48.45155], [-89.181367, 48.451516], [-89.181259, 48.451503], [-89.181144, 48.45151], [-89.181023, 48.451536], [-89.180932, 48.451592], [-89.180871, 48.451677], [-89.180841, 48.451791], [-89.180841, 48.451934], [-89.180807, 48.45207], [-89.18074, 48.4522], [-89.180639, 48.452322], [-89.180504, 48.452438], [-89.180383, 48.452597], [-89.180275, 48.452798], [-89.18018, 48.453041], [-89.1801, 48.453327], [-89.180015, 48.453512], [-89.179928, 48.453597], [-89.179837, 48.453582], [-89.179742, 48.453465], [-89.179705, 48.453356], [-89.179726, 48.453253], [-89.179803, 48.453157], [-89.179938, 48.453068], [-89.180052, 48.452905], [-89.180147, 48.452668], [-89.180221, 48.452358], [-89.180275, 48.451974], [-89.180282, 48.451699], [-89.180241, 48.451534], [-89.180154, 48.451478], [-89.180019, 48.451532], [-89.179918, 48.451592], [-89.17985, 48.451659], [-89.179817, 48.451733], [-89.179817, 48.451813], [-89.179719, 48.451916], [-89.179523, 48.452041], [-89.17923, 48.452188], [-89.178839, 48.452358], [-89.178526, 48.45257], [-89.17829, 48.452825], [-89.178131, 48.453122], [-89.178051, 48.453461], [-89.177976, 48.453715], [-89.177909, 48.453885], [-89.177848, 48.45397], [-89.177794, 48.45397], [-89.177744, 48.453999], [-89.177697, 48.454057], [-89.177653, 48.454144], [-89.177613, 48.45426], [-89.177528, 48.454334], [-89.1774, 48.454365], [-89.177228, 48.454354]]}}, {"type": "Feature", "properties": {"lead": 48, "band": "edge"}, "geometry": {"type": "LineString", "coordinates": [[-89.165002, 48.456636], [-89.164759, 48.456484], [-89.164597, 48.456321], [-89.164516, 48.456147], [-89.164516, 48.455961], [-89.164597, 48.455765], [-89.164668, 48.455673], [-89.164729, 48.455687], [-89.164779, 48.455805], [-89.16482, 48.456028], [-89.16487, 48.456196], [-89.164931, 48.456307], [-89.165002, 48.456363], [-89.165083, 48.456363], [-89.165153, 48.456394], [-89.165214, 48.456457], [-89.165265, 48.456551], [-89.165305, 48.456676], [-89.165275, 48.456732], [-89.165174, 48.456718], [-89.165002, 48.456636]]}}, {"type": "Feature", "properties": {"lead": 48, "band": "edge"}, "geometry": {"type": "LineString", "coordinates": [[-89.156368, 48.473898], [-89.156192, 48.473898], [-89.156075, 48.473873], [-89.156014, 48.473824], [-89.15601, 48.473751], [-89.156064, 48.473653], [-89.156078, 48.473543], [-89.156051, 48.473423], [-89.155984, 48.473291], [-89.155876, 48.473148], [-89.155768, 48.473039], [-89.15566, 48.472963], [-89.155552, 48.472921], [-89.155444, 48.472912], [-89.15534, 48.472854], [-89.155239, 48.472746], [-89.155141, 48.47259], [-89.155047, 48.472385], [-89.154915, 48.472231], [-89.154747, 48.472128], [-89.154541, 48.472077], [-89.154299, 48.472077], [-89.15416, 48.47205], [-89.154127, 48.471997], [-89.154197, 48.471916], [-89.154373, 48.471809], [-89.154507, 48.47168], [-89.154602, 48.471528], [-89.154656, 48.471354], [-89.154669, 48.471157], [-89.154753, 48.470981], [-89.154908, 48.470825], [-89.155134, 48.470689], [-89.155431, 48.470573], [-89.155724, 48.470501], [-89.156014, 48.470475], [-89.1563, 48.470492], [-89.156583, 48.470555], [-89.156782, 48.47062], [-89.156897, 48.470687], [-89.156927, 48.470756], [-89.156873, 48.470827], [-89.156813, 48.470867], [-89.156745, 48.470876], [-89.156671, 48.470854], [-89.15659, 48.4708], [-89.156442, 48.470767], [-89.156226, 48.470754], [-89.155943, 48.47076], [-89.155593, 48.470787], [-89.155343, 48.470879], [-89.155195, 48.471035], [-89.155148, 48.471256], [-89.155202, 48.471541], [-89.155252, 48.471769], [-89.155299, 48.471939], [-89.155343, 48.47205], [-89.155384, 48.472104], [-89.155438, 48.472144], [-89.155505, 48.472171], [-89.155586, 48.472184], [-89.15568, 48.472184], [-89.155738, 48.4722], [-89.155758, 48.472231], [-89.155741, 48.472278], [-89.155687, 48.47234], [-89.155673, 48.472387], [-89.1557, 48.472418], [-89.155768, 48.472434], [-89.155876, 48.472434], [-89.155963, 48.472476], [-89.156031, 48.472561], [-89.156078, 48.472688], [-89.156105, 48.472858], [-89.156149, 48.472985], [-89.156209, 48.47307], [-89.156287, 48.473112], [-89.156381, 48.473112], [-89.156472, 48.473141], [-89.15656, 48.4732], [-89.156644, 48.473287], [-89.156725, 48.473403], [-89.156772, 48.47351], [-89.156786, 48.473608], [-89.156765, 48.473697], [-89.156711, 48.473778], [-89.156627, 48.473838], [-89.156513, 48.473878], [-89.156368, 48.473898]]}}, {"type": "Feature", "properties": {"lead": 48, "band": "edge"}, "geometry": {"type": "LineString", "coordinates": [[-89.153759, 48.47226], [-89.153786, 48.472215], [-89.15381, 48.472182], [-89.15383, 48.47216], [-89.153847, 48.472148], [-89.15386, 48.472148], [-89.15386, 48.47216], [-89.153847, 48.472182], [-89.15382, 48.472215], [-89.15378, 48.47226], [-89.153756, 48.472282], [-89.153749, 48.472282], [-89.153759, 48.47226]]}}, {"type": "Feature", "properties": {"lead": 72, "band": "edge"}, "geometry": {"type": "LineString", "coordinates": [[-89.184565, 48.450326], [-89.18415, 48.450125], [-89.183625, 48.449849], [-89.183116, 48.449543], [-89.182624, 48.449208], [-89.182149, 48.448844], [-89.18169, 48.448451], [-89.181343, 48.448125], [-89.181107, 48.447866], [-89.180983, 48.447674], [-89.180969, 48.447549], [-89.18103, 48.44741], [-89.181165, 48.447259], [-89.181373, 48.447093], [-89.181657, 48.446915], [-89.181926, 48.446781], [-89.182182, 48.446691], [-89.182425, 48.446647], [-89.182654, 48.446647], [-89.182829, 48.44662], [-89.182951, 48.446566], [-89.183018, 48.446486], [-89.183032, 48.446379], [-89.183069, 48.446278], [-89.183129, 48.446185], [-89.183214, 48.446097], [-89.183321, 48.446017], [-89.1835, 48.445901], [-89.183749, 48.445749], [-89.18407, 48.445562], [-89.18446, 48.445338], [-89.184801, 48.445162], [-89.185091, 48.445032], [-89.18533, 48.44495], [-89.185519, 48.444914], [-89.18566, 48.444945], [-89.185755, 48.445044], [-89.185802, 48.445209], [-89.185802, 48.445441], [-89.185728, 48.445635], [-89.185579, 48.445792], [-89.185357, 48.44591], [-89.18506, 48.44599], [-89.184814, 48.446084], [-89.184619, 48.446191], [-89.184474, 48.446312], [-89.18438, 48.446446], [-89.184407, 48.446622], [-89.184555, 48.446841], [-89.184824, 48.447102], [-89.185215, 48.447406], [-89.185509, 48.447703], [-89.185704, 48.447993], [-89.185802, 48.448277], [-89.185802, 48.448554], [-89.18565, 48.448647], [-89.185347, 48.448558], [-89.184892, 48.448286], [-89.184285, 48.44783], [-89.18378, 48.447495], [-89.183375, 48.447281], [-89.183072, 48.447187], [-89.18287, 48.447214], [-89.182691, 48.447256], [-89.182536, 48.447314], [-89.182405, 48.447388], [-89.182297, 48.447477], [-89.182401, 48.447701], [-89.182718, 48.448058], [-89.183247, 48.448549], [-89.183989, 48.449174], [-89.184555, 48.449663], [-89.184946, 48.450016], [-89.185161, 48.450233], [-89.185202, 48.450313], [-89.185212, 48.45038], [-89.185192, 48.450434], [-89.185141, 48.450474], [-89.18506, 48.450501], [-89.184868, 48.450451], [-89.184565, 48.450326]]}}, {"type": "Feature", "properties": {"lead": 72, "band": "edge"}, "geometry": {"type": "LineString", "coordinates": [[-89.182486, 48.450992], [-89.182432, 48.450911], [-89.182415, 48.450851], [-89.182435, 48.450811], [-89.182492, 48.450791], [-89.182587, 48.450791], [-89.182647, 48.450811], [-89.182674, 48.450851], [-89.182668, 48.450911], [-89.182627, 48.450992], [-89.182583, 48.451032], [-89.182536, 48.451032], [-89.182486, 48.450992]]}}, {"type": "Feature", "properties": {"lead": 72, "band": "edge"}, "geometry": {"type": "LineString", "coordinates": [[-89.177188, 48.454287], [-89.176945, 48.454189], [-89.176824, 48.453992], [-89.176824, 48.453698], [-89.176945, 48.453305], [-89.177188, 48.452814], [-89.177454, 48.452403], [-89.177744, 48.452072], [-89.178057, 48.451822], [-89.178394, 48.451653], [-89.178698, 48.451474], [-89.178967, 48.451286], [-89.179203, 48.45109], [-89.179405, 48.450885], [-89.179668, 48.450737], [-89.179992, 48.450648], [-89.180376, 48.450617], [-89.180821, 48.450643], [-89.181144, 48.45069], [-89.181347, 48.450757], [-89.181427, 48.450844], [-89.181387, 48.450952], [-89.18138, 48.451048], [-89.181407, 48.451132], [-89.181468, 48.451206], [-89.181562, 48.451269], [-89.181633, 48.451336], [-89.18168, 48.451407], [-89.181704, 48.451483], [-89.181704, 48.451563], [-89.18168, 48.45161], [-89.181633, 48.451624], [-89.181562, 48.451603], [-89.181468, 48.45155], [-89.181367, 48.451516], [-89.181259, 48.451503], [-89.181144, 48.45151], [-89.181023, 48.451536], [-89.180932, 48.451592], [-89.180871, 48.451677], [-89.180841, 48.451791], [-89.180841, 48.451934], [-89.180807, 48.45207], [-89.18074, 48.4522], [-89.180639, 48.452322], [-89.180504, 48.452438], [-89.180383, 48.452597], [-89.180275, 48.452798], [-89.18018, 48.453041], [-89.1801, 48.453327], [-89.180015, 48.453512], [-89.179928, 48.453597], [-89.179837, 48.453582], [-89.179742, 48.453465], [-89.179705, 48.453356], [-89.179726, 48.453253], [-89.179803, 48.453157], [-89.179938, 48.453068], [-89.180052, 48.452905], [-89.180147, 48.452668], [-89.180221, 48.452358], [-89.180275, 48.451974], [-89.180282, 48.451699], [-89.180241, 48.451534], [-89.180154, 48.451478], [-89.180019, 48.451532], [-89.179918, 48.451592], [-89.17985, 48.451659], [-89.179817, 48.451733], [-89.179817, 48.451813], [-89.179719, 48.451916], [-89.179523, 48.452041], [-89.17923, 48.452188], [-89.178839, 48.452358], [-89.178526, 48.45257], [-89.17829, 48.452825], [-89.178131, 48.453122], [-89.178051, 48.453461], [-89.177976, 48.453715], [-89.177909, 48.453885], [-89.177848, 48.45397], [-89.177794, 48.45397], [-89.177744, 48.453999], [-89.177697, 48.454057], [-89.177653, 48.454144], [-89.177613, 48.45426], [-89.177522, 48.454323], [-89.17738, 48.454332], [-89.177188, 48.454287]]}}, {"type": "Feature", "properties": {"lead": 72, "band": "edge"}, "geometry": {"type": "LineString", "coordinates": [[-89.175971, 48.454207], [-89.175934, 48.454207], [-89.175934, 48.454198], [-89.175971, 48.454187], [-89.176045, 48.454173], [-89.176157, 48.454157], [-89.176305, 48.45414], [-89.176379, 48.454133], [-89.176379, 48.454137], [-89.176305, 48.454153], [-89.176157, 48.45418], [-89.176045, 48.454198], [-89.175971, 48.454207]]}}, {"type": "Feature", "properties": {"lead": 72, "band": "edge"}, "geometry": {"type": "LineString", "coordinates": [[-89.165022, 48.456676], [-89.164793, 48.456551], [-89.164618, 48.456421], [-89.164496, 48.456287], [-89.164429, 48.456149], [-89.164415, 48.456006], [-89.164422, 48.455881], [-89.164449, 48.455774], [-89.164496, 48.455685], [-89.164564, 48.455613], [-89.164628, 48.455613], [-89.164688, 48.455685], [-89.164746, 48.455827], [-89.1648, 48.456042], [-89.16486, 48.456202], [-89.164928, 48.45631], [-89.165002, 48.456363], [-89.165083, 48.456363], [-89.165153, 48.456394], [-89.165214, 48.456457], [-89.165265, 48.456551], [-89.165305, 48.456676], [-89.165278, 48.456738], [-89.165184, 48.456738], [-89.165022, 48.456676]]}}, {"type": "Feature", "properties": {"lead": 72, "band": "edge"}, "geometry": {"type": "LineString", "coordinates": [[-89.156368, 48.473898], [-89.156192, 48.473898], [-89.156075, 48.473873], [-89.156014, 48.473824], [-89.15601, 48.473751], [-89.156064, 48.473653], [-89.156078, 48.473543], [-89.156051, 48.473423], [-89.155984, 48.473291], [-89.155876, 48.473148], [-89.155768, 48.473039], [-89.15566, 48.472963], [-89.155552, 48.472921], [-89.155444, 48.472912], [-89.15534, 48.472854], [-89.155239, 48.472746], [-89.155141, 48.47259], [-89.155047, 48.472385], [-89.154949, 48.472224], [-89.154848, 48.472108], [-89.154743, 48.472037], [-89.154636, 48.47201], [-89.154507, 48.472012], [-89.154359, 48.472043], [-89.154191, 48.472104], [-89.154002, 48.472193], [-89.153881, 48.472233], [-89.153827, 48.472224], [-89.15384, 48.472166], [-89.153921, 48.472059], [-89.154019, 48.471963], [-89.154133, 48.471878], [-89.154265, 48.471805], [-89.154413, 48.471742], [-89.154528, 48.471646], [-89.154609, 48.471517], [-89.154656, 48.471354], [-89.154669, 48.471157], [-89.154753, 48.470981], [-89.154908, 48.470825], [-89.155134, 48.470689], [-89.155431, 48.470573], [-89.155724, 48.470501], [-89.156014, 48.470475], [-89.1563, 48.470492], [-89.156583, 48.470555], [-89.156782, 48.47062], [-89.156897, 48.470687], [-89.156927, 48.470756], [-89.156873, 48.470827], [-89.156725, 48.470881], [-89.156482, 48.470916], [-89.156145, 48.470934], [-89.155714, 48.470934], [-89.155404, 48.470999], [-89.155215, 48.471128], [-89.155148, 48.471323], [-89.155202, 48.471582], [-89.155252, 48.471789], [-89.155299, 48.471945], [-89.155343, 48.47205], [-89.155384, 48.472104], [-89.155438, 48.472144], [-89.155505, 48.472171], [-89.155586, 48.472184], [-89.15568, 48.472184], [-89.155738, 48.4722], [-89.155758, 48.472231], [-89.155741, 48.472278], [-89.155687, 48.47234], [-89.155673, 48.472387], [-89.1557, 48.472418], [-89.155768, 48.472434], [-89.155876, 48.472434], [-89.155963, 48.472476], [-89.156031, 48.472561], [-89.156078, 48.472688], [-89.156105, 48.472858], [-89.156149, 48.472985], [-89.156209, 48.47307], [-89.156287, 48.473112], [-89.156381, 48.473112], [-89.156472, 48.473141], [-89.15656, 48.4732], [-89.156644, 48.473287], [-89.156725, 48.473403], [-89.156772, 48.47351], [-89.156786, 48.473608], [-89.156765, 48.473697], [-89.156711, 48.473778], [-89.156627, 48.473838], [-89.156513, 48.473878], [-89.156368, 48.473898]]}}, {"type": "Feature", "properties": {"lead": 96, "band": "edge"}, "geometry": {"type": "LineString", "coordinates": [[-89.185488, 48.446084], [-89.185478, 48.446071], [-89.185478, 48.446044], [-89.185488, 48.446024], [-89.185509, 48.44601], [-89.185539, 48.446004], [-89.185579, 48.446004], [-89.1856, 48.44601], [-89.1856, 48.446024], [-89.185579, 48.446044], [-89.185539, 48.446071], [-89.185509, 48.446084], [-89.185488, 48.446084]]}}, {"type": "Feature", "properties": {"lead": 96, "band": "edge"}, "geometry": {"type": "LineString", "coordinates": [[-89.185155, 48.450541], [-89.184939, 48.450541], [-89.1847, 48.450498], [-89.184437, 48.450413], [-89.18415, 48.450286], [-89.18384, 48.450116], [-89.18346, 48.449864], [-89.183008, 48.449529], [-89.182486, 48.449112], [-89.181892, 48.448612], [-89.181444, 48.448205], [-89.181141, 48.447893], [-89.180983, 48.447674], [-89.180969, 48.447549], [-89.18103, 48.44741], [-89.181165, 48.447259], [-89.181373, 48.447093], [-89.181657, 48.446915], [-89.181926, 48.446781], [-89.182182, 48.446691], [-89.182425, 48.446647], [-89.182654, 48.446647], [-89.182829, 48.44662], [-89.182951, 48.446566], [-89.183018, 48.446486], [-89.183032, 48.446379], [-89.183069, 48.446278], [-89.183129, 48.446185], [-89.183214, 48.446097], [-89.183321, 48.446017], [-89.1835, 48.445901], [-89.183749, 48.445749], [-89.18407, 48.445562], [-89.18446, 48.445338], [-89.184801, 48.445162], [-89.185091, 48.445032], [-89.18533, 48.44495], [-89.185519, 48.444914], [-89.18566, 48.444945], [-89.185755, 48.445044], [-89.185802, 48.445209], [-89.185802, 48.445441], [-89.185728, 48.445635], [-89.185579, 48.445792], [-89.185357, 48.44591], [-89.18506, 48.44599], [-89.184814, 48.446084], [-89.184619, 48.446191], [-89.184474, 48.446312], [-89.18438, 48.446446], [-89.184407, 48.446622], [-89.184555, 48.446841], [-89.184824, 48.447102], [-89.185215, 48.447406], [-89.185509, 48.447703], [-89.185704, 48.447993], [-89.185802, 48.448277], [-89.185802, 48.448554], [-89.185714, 48.44869], [-89.185539, 48.448685], [-89.185276, 48.44854], [-89.184926, 48.448254], [-89.184578, 48.44804], [-89.184235, 48.447897], [-89.183894, 48.447826], [-89.183557, 48.447826], [-89.183281, 48.447799], [-89.183065, 48.447745], [-89.18291, 48.447665], [-89.182816, 48.447558], [-89.182711, 48.447491], [-89.182597, 48.447464], [-89.182472, 48.447477], [-89.182337, 48.447531], [-89.182445, 48.447754], [-89.182796, 48.448147], [-89.183389, 48.44871], [-89.184225, 48.449442], [-89.184797, 48.449991], [-89.185107, 48.450358], [-89.185155, 48.450541]]}}, {"type": "Feature", "properties": {"lead": 96, "band": "edge"}, "geometry": {"type": "LineString", "coordinates": [[-89.182587, 48.451362], [-89.182492, 48.451362], [-89.182411, 48.451318], [-89.182344, 48.451228], [-89.18229, 48.451094], [-89.18225, 48.450916], [-89.182283, 48.450771], [-89.182391, 48.450659], [-89.182573, 48.450581], [-89.182829, 48.450536], [-89.183032, 48.450516], [-89.18318, 48.450521], [-89.183274, 48.45055], [-89.183315, 48.450603], [-89.183305, 48.450643], [-89.183244, 48.45067], [-89.183133, 48.450684], [-89.182971, 48.450684], [-89.18285, 48.450726], [-89.182769, 48.450811], [-89.182728, 48.450938], [-89.182728, 48.451108], [-89.182705, 48.451235], [-89.182657, 48.45132], [-89.182587, 48.451362]]}}, {"type": "Feature", "properties": {"lead": 96, "band": "edge"}, "geometry": {"type": "LineString", "coordinates": [[-89.182769, 48.451827], [-89.182688, 48.451827], [-89.182627, 48.451811], [-89.182587, 48.45178], [-89.182566, 48.451733], [-89.182566, 48.45167], [-89.182587, 48.451624], [-89.182627, 48.451592], [-89.182688, 48.451577], [-89.182769, 48.451577], [-89.182829, 48.451592], [-89.18287, 48.451624], [-89.18289, 48.45167], [-89.18289, 48.451733], [-89.18287, 48.45178], [-89.182829, 48.451811], [-89.182769, 48.451827]]}}, {"type": "Feature", "properties": {"lead": 96, "band": "edge"}, "geometry": {"type": "LineString", "coordinates": [[-89.174977, 48.455006], [-89.174842, 48.455006], [-89.174741, 48.45499], [-89.174674, 48.454959], [-89.17464, 48.454912], [-89.17464, 48.45485], [-89.174596, 48.454783], [-89.174509, 48.454711], [-89.174377, 48.454635], [-89.174202, 48.454555], [-89.17405, 48.454452], [-89.173922, 48.454327], [-89.173818, 48.45418], [-89.173737, 48.45401], [-89.173622, 48.453876], [-89.173474, 48.453778], [-89.173292, 48.453715], [-89.173076, 48.453689], [-89.172905, 48.453651], [-89.172776, 48.453602], [-89.172692, 48.453541], [-89.172652, 48.45347], [-89.172692, 48.453425], [-89.172814, 48.453407], [-89.173016, 48.453416], [-89.173299, 48.453452], [-89.173565, 48.453544], [-89.173814, 48.453691], [-89.174047, 48.453894], [-89.174263, 48.454153], [-89.174478, 48.454347], [-89.174694, 48.454477], [-89.17491, 48.454541], [-89.175125, 48.454541], [-89.175365, 48.454508], [-89.175628, 48.454441], [-89.175914, 48.454341], [-89.176224, 48.454207], [-89.176504, 48.453992], [-89.176753, 48.453698], [-89.176972, 48.453323], [-89.177161, 48.452867], [-89.177393, 48.452476], [-89.17767, 48.45215], [-89.17799, 48.451889], [-89.178354, 48.451693], [-89.178667, 48.451498], [-89.17893, 48.451306], [-89.179143, 48.451117], [-89.179304, 48.450929], [-89.1795, 48.450782], [-89.179729, 48.450675], [-89.179992, 48.450608], [-89.180288, 48.450581], [-89.180571, 48.450574], [-89.180841, 48.450588], [-89.181097, 48.450621], [-89.18134, 48.450675], [-89.181508, 48.450717], [-89.181603, 48.450748], [-89.181623, 48.450768], [-89.181569, 48.450777], [-89.181529, 48.45082], [-89.181502, 48.450896], [-89.181488, 48.451005], [-89.181488, 48.451148], [-89.181502, 48.451255], [-89.181529, 48.451327], [-89.181569, 48.451362], [-89.181623, 48.451362], [-89.181663, 48.451382], [-89.18169, 48.451423], [-89.181704, 48.451483], [-89.181704, 48.451563], [-89.18168, 48.45161], [-89.181633, 48.451624], [-89.181562, 48.451603], [-89.181468, 48.45155], [-89.181367, 48.451516], [-89.181259, 48.451503], [-89.181144, 48.45151], [-89.181023, 48.451536], [-89.180932, 48.451592], [-89.180871, 48.451677], [-89.180841, 48.451791], [-89.180841, 48.451934], [-89.180807, 48.45207], [-89.18074, 48.4522], [-89.180639, 48.452322], [-89.180504, 48.452438], [-89.180383, 48.452597], [-89.180275, 48.452798], [-89.18018, 48.453041], [-89.1801, 48.453327], [-89.180015, 48.453512], [-89.179928, 48.453597], [-89.179837, 48.453582], [-89.179742, 48.453465], [-89.179705, 48.453356], [-89.179726, 48.453253], [-89.179803, 48.453157], [-89.179938, 48.453068], [-89.180036, 48.45297], [-89.180096, 48.452863], [-89.18012, 48.452747], [-89.180106, 48.452622], [-89.18012, 48.45249], [-89.18016, 48.452351], [-89.180228, 48.452206], [-89.180322, 48.452054], [-89.180383, 48.451925], [-89.18041, 48.451818], [-89.180403, 48.451733], [-89.180362, 48.45167], [-89.180302, 48.451626], [-89.180221, 48.451599], [-89.18012, 48.45159], [-89.179998, 48.451599], [-89.179908, 48.451626], [-89.179847, 48.45167], [-89.179817, 48.451733], [-89.179817, 48.451813], [-89.179719, 48.451916], [-89.179523, 48.452041], [-89.17923, 48.452188], [-89.178839, 48.452358], [-89.178512, 48.452592], [-89.178249, 48.452892], [-89.178051, 48.453256], [-89.177916, 48.453684], [-89.17773, 48.454012], [-89.177495, 48.45424], [-89.177208, 48.454367], [-89.176871, 48.454394], [-89.176598, 48.454434], [-89.176389, 48.454488], [-89.176244, 48.454555], [-89.176163, 48.454635], [-89.176059, 48.454689], [-89.175931, 48.454716], [-89.175779, 48.454716], [-89.175604, 48.454689], [-89.175462, 48.454691], [-89.175355, 48.454722], [-89.17528, 48.454783], [-89.17524, 48.454872], [-89.175176, 48.454939], [-89.175088, 48.454984], [-89.174977, 48.455006]]}}, {"type": "Feature", "properties": {"lead": 96, "band": "edge"}, "geometry": {"type": "LineString", "coordinates": [[-89.165521, 48.456921], [-89.165265, 48.456841], [-89.165046, 48.456758], [-89.164864, 48.456673], [-89.164719, 48.456586], [-89.164611, 48.456497], [-89.164527, 48.456394], [-89.164466, 48.456278], [-89.164429, 48.456149], [-89.164415, 48.456006], [-89.164439, 48.45587], [-89.1645, 48.45574], [-89.164597, 48.455618], [-89.164732, 48.455501], [-89.16485, 48.455443], [-89.164951, 48.455443], [-89.165035, 48.455501], [-89.165103, 48.455618], [-89.165133, 48.455711], [-89.165126, 48.455783], [-89.165083, 48.455832], [-89.165002, 48.455859], [-89.164941, 48.455901], [-89.164901, 48.455959], [-89.16488, 48.456033], [-89.16488, 48.456122], [-89.164934, 48.456209], [-89.165042, 48.456294], [-89.165204, 48.456377], [-89.16542, 48.456457], [-89.165592, 48.456546], [-89.16572, 48.456644], [-89.165804, 48.456752], [-89.165844, 48.456868], [-89.165811, 48.456935], [-89.165703, 48.456953], [-89.165521, 48.456921]]}}, {"type": "Feature", "properties": {"lead": 96, "band": "edge"}, "geometry": {"type": "LineString", "coordinates": [[-89.156368, 48.473898], [-89.156192, 48.473898], [-89.156075, 48.473873], [-89.156014, 48.473824], [-89.15601, 48.473751], [-89.156064, 48.473653], [-89.156078, 48.473543], [-89.156051, 48.473423], [-89.155984, 48.473291], [-89.155876, 48.473148], [-89.155768, 48.473039], [-89.15566, 48.472963], [-89.155552, 48.472921], [-89.155444, 48.472912], [-89.15534, 48.472854], [-89.155239, 48.472746], [-89.155141, 48.47259], [-89.155047, 48.472385], [-89.154935, 48.472238], [-89.154807, 48.472148], [-89.154662, 48.472117], [-89.154501, 48.472144], [-89.154332, 48.4722], [-89.154157, 48.472285], [-89.153975, 48.472398], [-89.153786, 48.472541], [-89.153648, 48.472633], [-89.15356, 48.472673], [-89.153523, 48.472662], [-89.153537, 48.472599], [-89.153577, 48.472514], [-89.153645, 48.472407], [-89.153739, 48.472278], [-89.15386, 48.472126], [-89.153988, 48.471997], [-89.154123, 48.47189], [-89.154265, 48.471805], [-89.154413, 48.471742], [-89.154528, 48.471646], [-89.154609, 48.471517], [-89.154656, 48.471354], [-89.154669, 48.471157], [-89.154753, 48.470981], [-89.154908, 48.470825], [-89.155134, 48.470689], [-89.155431, 48.470573], [-89.1557, 48.470488], [-89.155943, 48.470434], [-89.156159, 48.470412], [-89.156347, 48.470421], [-89.156519, 48.470448], [-89.156674, 48.470492], [-89.156813, 48.470555], [-89.156934, 48.470635], [-89.157015, 48.470707], [-89.157055, 48.470769], [-89.157055, 48.470823], [-89.157015, 48.470867], [-89.15689, 48.47091], [-89.156681, 48.47095], [-89.156388, 48.470988], [-89.15601, 48.471024], [-89.155727, 48.471064], [-89.155539, 48.471108], [-89.155444, 48.471157], [-89.155444, 48.471211], [-89.155421, 48.471251], [-89.155374, 48.471278], [-89.155303, 48.471291], [-89.155208, 48.471291], [-89.155161, 48.471347], [-89.155161, 48.471459], [-89.155208, 48.471626], [-89.155303, 48.471849], [-89.155397, 48.472017], [-89.155492, 48.472128], [-89.155586, 48.472184], [-89.15568, 48.472184], [-89.155738, 48.4722], [-89.155758, 48.472231], [-89.155741, 48.472278], [-89.155687, 48.47234], [-89.155673, 48.472387], [-89.1557, 48.472418], [-89.155768, 48.472434], [-89.155876, 48.472434], [-89.155963, 48.472476], [-89.156031, 48.472561], [-89.156078, 48.472688], [-89.156105, 48.472858], [-89.156149, 48.472985], [-89.156209, 48.47307], [-89.156287, 48.473112], [-89.156381, 48.473112], [-89.156472, 48.473141], [-89.15656, 48.4732], [-89.156644, 48.473287], [-89.156725, 48.473403], [-89.156772, 48.47351], [-89.156786, 48.473608], [-89.156765, 48.473697], [-89.156711, 48.473778], [-89.156627, 48.473838], [-89.156513, 48.473878], [-89.156368, 48.473898]]}}, {"type": "Feature", "properties": {"lead": 120, "band": "edge"}, "geometry": {"type": "LineString", "coordinates": [[-89.185488, 48.446084], [-89.185478, 48.446071], [-89.185478, 48.446044], [-89.185488, 48.446024], [-89.185509, 48.44601], [-89.185539, 48.446004], [-89.185579, 48.446004], [-89.1856, 48.44601], [-89.1856, 48.446024], [-89.185579, 48.446044], [-89.185539, 48.446071], [-89.185509, 48.446084], [-89.185488, 48.446084]]}}, {"type": "Feature", "properties": {"lead": 120, "band": "edge"}, "geometry": {"type": "LineString", "coordinates": [[-89.185107, 48.450358], [-89.185155, 48.450541], [-89.184939, 48.450541], [-89.184744, 48.450514], [-89.184568, 48.45046], [-89.184413, 48.45038], [-89.184278, 48.450273], [-89.18415, 48.450192], [-89.184029, 48.450139], [-89.183914, 48.450112], [-89.183807, 48.450112], [-89.183561, 48.449971], [-89.183176, 48.44969], [-89.182654, 48.449268], [-89.181994, 48.448705], [-89.181495, 48.448252], [-89.181158, 48.447908], [-89.180983, 48.447674], [-89.180969, 48.447549], [-89.18103, 48.44741], [-89.181165, 48.447259], [-89.181373, 48.447093], [-89.181657, 48.446915], [-89.181926, 48.446781], [-89.182182, 48.446691], [-89.182425, 48.446647], [-89.182654, 48.446647], [-89.182829, 48.44662], [-89.182951, 48.446566], [-89.183018, 48.446486], [-89.183032, 48.446379], [-89.183069, 48.446278], [-89.183129, 48.446185], [-89.183214, 48.446097], [-89.183321, 48.446017], [-89.1835, 48.445901], [-89.183749, 48.445749], [-89.18407, 48.445562], [-89.18446, 48.445338], [-89.184801, 48.445162], [-89.185091, 48.445032], [-89.18533, 48.44495], [-89.185519, 48.444914], [-89.18566, 48.444945], [-89.185755, 48.445044], [-89.185802, 48.445209], [-89.185802, 48.445441], [-89.185748, 48.445629], [-89.18564, 48.445771], [-89.185478, 48.44587], [-89.185263, 48.445923], [-89.185057, 48.446004], [-89.184861, 48.446111], [-89.184676, 48.446245], [-89.184501, 48.446406], [-89.184467, 48.446602], [-89.184575, 48.446834], [-89.184824, 48.447102], [-89.185215, 48.447406], [-89.185509, 48.447703], [-89.185704, 48.447993], [-89.185802, 48.448277], [-89.185802, 48.448554], [-89.185714, 48.44869], [-89.185539, 48.448685], [-89.185276, 48.44854], [-89.184926, 48.448254], [-89.184589, 48.448047], [-89.184265, 48.447917], [-89.183955, 48.447866], [-89.183658, 48.447893], [-89.183402, 48.447879], [-89.183187, 48.447826], [-89.183011, 48.447732], [-89.182877, 48.447598], [-89.182742, 48.447511], [-89.182607, 48.447471], [-89.182472, 48.447477], [-89.182337, 48.447531], [-89.182445, 48.447754], [-89.182796, 48.448147], [-89.183389, 48.44871], [-89.184225, 48.449442], [-89.184797, 48.449991], [-89.185107, 48.450358]]}}, {"type": "Feature", "properties": {"lead": 120, "band": "edge"}, "geometry": {"type": "LineString", "coordinates": [[-89.175206, 48.455064], [-89.174916, 48.455113], [-89.174741, 48.455113], [-89.17462, 48.455091], [-89.174553, 48.455046], [-89.174539, 48.454979], [-89.174579, 48.45489], [-89.174556, 48.454809], [-89.174468, 48.454738], [-89.174317, 48.454675], [-89.174101, 48.454622], [-89.173899, 48.454533], [-89.17371, 48.454408], [-89.173535, 48.454247], [-89.173373, 48.45405], [-89.173181, 48.453894], [-89.172958, 48.453778], [-89.172706, 48.453702], [-89.172423, 48.453666], [-89.172247, 48.453624], [-89.17218, 48.453575], [-89.17222, 48.453519], [-89.172369, 48.453456], [-89.172541, 48.453414], [-89.172736, 48.453392], [-89.172955, 48.45339], [-89.173198, 48.453407], [-89.173444, 48.45349], [-89.173693, 48.453637], [-89.173946, 48.453849], [-89.174202, 48.454126], [-89.174448, 48.454334], [-89.174684, 48.454472], [-89.17491, 48.454541], [-89.175125, 48.454541], [-89.175365, 48.454508], [-89.175628, 48.454441], [-89.175914, 48.454341], [-89.176224, 48.454207], [-89.176504, 48.453992], [-89.176753, 48.453698], [-89.176972, 48.453323], [-89.177161, 48.452867], [-89.177393, 48.452476], [-89.17767, 48.45215], [-89.17799, 48.451889], [-89.178354, 48.451693], [-89.178667, 48.451498], [-89.17893, 48.451306], [-89.179143, 48.451117], [-89.179304, 48.450929], [-89.1795, 48.450782], [-89.179729, 48.450675], [-89.179992, 48.450608], [-89.180288, 48.450581], [-89.180575, 48.450574], [-89.180851, 48.450588], [-89.181117, 48.450621], [-89.181373, 48.450675], [-89.18169, 48.45069], [-89.182068, 48.450668], [-89.182506, 48.450608], [-89.183005, 48.450509], [-89.183369, 48.450463], [-89.183598, 48.450467], [-89.183692, 48.450523], [-89.183652, 48.45063], [-89.183567, 48.45073], [-89.183439, 48.450824], [-89.183267, 48.450911], [-89.183052, 48.450992], [-89.18289, 48.451074], [-89.182782, 48.451159], [-89.182728, 48.451246], [-89.182728, 48.451336], [-89.182752, 48.451416], [-89.182799, 48.451487], [-89.18287, 48.45155], [-89.182964, 48.451603], [-89.183021, 48.451666], [-89.183042, 48.451737], [-89.183025, 48.451818], [-89.182971, 48.451907], [-89.182897, 48.451961], [-89.182802, 48.451979], [-89.182688, 48.451961], [-89.182553, 48.451907], [-89.182452, 48.451816], [-89.182384, 48.451686], [-89.182351, 48.451519], [-89.182351, 48.451313], [-89.18232, 48.451146], [-89.18226, 48.451016], [-89.182169, 48.450925], [-89.182047, 48.450871], [-89.181933, 48.450838], [-89.181825, 48.450824], [-89.181724, 48.450831], [-89.18163, 48.450858], [-89.181582, 48.45092], [-89.181582, 48.451018], [-89.18163, 48.451152], [-89.181724, 48.451322], [-89.181731, 48.451458], [-89.18165, 48.451561], [-89.181481, 48.45163], [-89.181225, 48.451666], [-89.180979, 48.45182], [-89.180743, 48.452092], [-89.180517, 48.452483], [-89.180302, 48.452992], [-89.180116, 48.453345], [-89.179961, 48.453541], [-89.179837, 48.453582], [-89.179742, 48.453465], [-89.179705, 48.453349], [-89.179726, 48.453233], [-89.179803, 48.453117], [-89.179938, 48.453001], [-89.180059, 48.452851], [-89.180167, 48.452668], [-89.180261, 48.452452], [-89.180342, 48.452202], [-89.180393, 48.451999], [-89.180413, 48.451842], [-89.180403, 48.451733], [-89.180362, 48.45167], [-89.180302, 48.451626], [-89.180221, 48.451599], [-89.18012, 48.45159], [-89.179998, 48.451599], [-89.179908, 48.451626], [-89.179847, 48.45167], [-89.179817, 48.451733], [-89.179817, 48.451813], [-89.179719, 48.451916], [-89.179523, 48.452041], [-89.17923, 48.452188], [-89.178839, 48.452358], [-89.178512, 48.452592], [-89.178249, 48.452892], [-89.178051, 48.453256], [-89.177916, 48.453684], [-89.177656, 48.454055], [-89.177272, 48.454367], [-89.176763, 48.454622], [-89.17613, 48.454818], [-89.175611, 48.454966], [-89.175206, 48.455064]]}}, {"type": "Feature", "properties": {"lead": 120, "band": "edge"}, "geometry": {"type": "LineString", "coordinates": [[-89.165521, 48.456921], [-89.165265, 48.456841], [-89.165046, 48.456758], [-89.164864, 48.456673], [-89.164719, 48.456586], [-89.164611, 48.456497], [-89.164527, 48.456394], [-89.164466, 48.456278], [-89.164429, 48.456149], [-89.164415, 48.456006], [-89.164439, 48.45587], [-89.1645, 48.45574], [-89.164597, 48.455618], [-89.164732, 48.455501], [-89.16485, 48.455443], [-89.164951, 48.455443], [-89.165035, 48.455501], [-89.165103, 48.455618], [-89.165133, 48.455705], [-89.165126, 48.455763], [-89.165083, 48.455792], [-89.165002, 48.455792], [-89.164941, 48.455821], [-89.164901, 48.455879], [-89.16488, 48.455966], [-89.16488, 48.456082], [-89.164934, 48.456189], [-89.165042, 48.456287], [-89.165204, 48.456377], [-89.16542, 48.456457], [-89.165592, 48.456546], [-89.16572, 48.456644], [-89.165804, 48.456752], [-89.165844, 48.456868], [-89.165811, 48.456935], [-89.165703, 48.456953], [-89.165521, 48.456921]]}}, {"type": "Feature", "properties": {"lead": 120, "band": "edge"}, "geometry": {"type": "LineString", "coordinates": [[-89.156368, 48.473898], [-89.156192, 48.473898], [-89.156075, 48.473873], [-89.156014, 48.473824], [-89.15601, 48.473751], [-89.156064, 48.473653], [-89.156078, 48.473543], [-89.156051, 48.473423], [-89.155984, 48.473291], [-89.155876, 48.473148], [-89.155768, 48.473039], [-89.15566, 48.472963], [-89.155552, 48.472921], [-89.155444, 48.472912], [-89.15534, 48.472854], [-89.155239, 48.472746], [-89.155141, 48.47259], [-89.155047, 48.472385], [-89.154942, 48.472231], [-89.154828, 48.472128], [-89.154703, 48.472077], [-89.154568, 48.472077], [-89.154416, 48.47211], [-89.154248, 48.472177], [-89.154063, 48.472278], [-89.15386, 48.472412], [-89.153739, 48.472468], [-89.153699, 48.472445], [-89.153739, 48.472345], [-89.15386, 48.472166], [-89.153988, 48.472017], [-89.154123, 48.471896], [-89.154265, 48.471805], [-89.154413, 48.471742], [-89.154528, 48.471646], [-89.154609, 48.471517], [-89.154656, 48.471354], [-89.154669, 48.471157], [-89.154753, 48.470981], [-89.154908, 48.470825], [-89.155134, 48.470689], [-89.155431, 48.470573], [-89.155724, 48.470501], [-89.156014, 48.470475], [-89.1563, 48.470492], [-89.156583, 48.470555], [-89.156782, 48.470606], [-89.156897, 48.470646], [-89.156927, 48.470675], [-89.156873, 48.470693], [-89.156843, 48.47072], [-89.156836, 48.470756], [-89.156853, 48.4708], [-89.156893, 48.470854], [-89.15687, 48.470894], [-89.156782, 48.470921], [-89.156631, 48.470934], [-89.156415, 48.470934], [-89.156189, 48.470957], [-89.155953, 48.471001], [-89.155707, 48.471068], [-89.155451, 48.471157], [-89.155283, 48.47128], [-89.155202, 48.471436], [-89.155208, 48.471626], [-89.155303, 48.471849], [-89.155397, 48.472017], [-89.155492, 48.472128], [-89.155586, 48.472184], [-89.15568, 48.472184], [-89.155738, 48.4722], [-89.155758, 48.472231], [-89.155741, 48.472278], [-89.155687, 48.47234], [-89.155673, 48.472387], [-89.1557, 48.472418], [-89.155768, 48.472434], [-89.155876, 48.472434], [-89.155963, 48.472476], [-89.156031, 48.472561], [-89.156078, 48.472688], [-89.156105, 48.472858], [-89.156149, 48.472985], [-89.156209, 48.47307], [-89.156287, 48.473112], [-89.156381, 48.473112], [-89.156472, 48.473141], [-89.15656, 48.4732], [-89.156644, 48.473287], [-89.156725, 48.473403], [-89.156772, 48.47351], [-89.156786, 48.473608], [-89.156765, 48.473697], [-89.156711, 48.473778], [-89.156627, 48.473838], [-89.156513, 48.473878], [-89.156368, 48.473898]]}}]}