{"type": "FeatureCollection", "features": [{"type": "Feature", "properties": {"lead": 0, "band": "edge"}, "geometry": {"type": "LineString", "coordinates": [[-89.228875, 48.353236], [-89.228875, 48.353209], [-89.228885, 48.353189], [-89.228905, 48.353176], [-89.228935, 48.353169], [-89.228976, 48.353169], [-89.228996, 48.353176], [-89.228996, 48.353189], [-89.228976, 48.353209], [-89.228935, 48.353236], [-89.228905, 48.353249], [-89.228885, 48.353249], [-89.228875, 48.353236]]}}, {"type": "Feature", "properties": {"lead": 0, "band": "edge"}, "geometry": {"type": "LineString", "coordinates": [[-89.229198, 48.35333], [-89.229215, 48.353305], [-89.229249, 48.353292], [-89.229299, 48.35329], [-89.229367, 48.353299], [-89.2294, 48.353312], [-89.2294, 48.35333], [-89.229367, 48.353352], [-89.229299, 48.353379], [-89.229249, 48.35339], [-89.229215, 48.353386], [-89.229198, 48.353366], [-89.229198, 48.35333]]}}, {"type": "Feature", "properties": {"lead": 0, "band": "edge"}, "geometry": {"type": "LineString", "coordinates": [[-89.229576, 48.353415], [-89.229586, 48.353384], [-89.229606, 48.353366], [-89.229636, 48.353361], [-89.229677, 48.35337], [-89.229697, 48.353386], [-89.229697, 48.353408], [-89.229677, 48.353437], [-89.229636, 48.353473], [-89.229606, 48.353489], [-89.229586, 48.353484], [-89.229576, 48.35346], [-89.229576, 48.353415]]}}, {"type": "Feature", "properties": {"lead": 0, "band": "edge"}, "geometry": {"type": "LineString", "coordinates": [[-89.230742, 48.356139], [-89.230405, 48.356139], [-89.230034, 48.356104], [-89.22963, 48.356032], [-89.229191, 48.355925], [-89.22872, 48.355782], [-89.228251, 48.355661], [-89.227786, 48.355562], [-89.227324, 48.355486], [-89.226866, 48.355433], [-89.226516, 48.355359], [-89.226273, 48.355265], [-89.226138, 48.355151], [-89.226111, 48.355017], [-89.226118, 48.354867], [-89.226158, 48.354701], [-89.226232, 48.35452], [-89.22634, 48.354323], [-89.226468, 48.354142], [-89.226617, 48.353976], [-89.226785, 48.353827], [-89.226974, 48.353692], [-89.226839, 48.353522], [-89.226381, 48.353317], [-89.225599, 48.353075], [-89.224494, 48.352798], [-89.223698, 48.352583], [-89.223213, 48.352431], [-89.223038, 48.352341], [-89.223172, 48.352314], [-89.223358, 48.352308], [-89.223594, 48.352321], [-89.22388, 48.352355], [-89.224217, 48.352408], [-89.224483, 48.352433], [-89.224679, 48.352428], [-89.224804, 48.352395], [-89.224858, 48.352332], [-89.224908, 48.352308], [-89.224955, 48.352321], [-89.224999, 48.352373], [-89.225039, 48.352462], [-89.2251, 48.352529], [-89.225181, 48.352574], [-89.225282, 48.352596], [-89.225403, 48.352596], [-89.225528, 48.352619], [-89.225656, 48.352663], [-89.225788, 48.35273], [-89.225922, 48.35282], [-89.226239, 48.352923], [-89.226738, 48.353039], [-89.227419, 48.353169], [-89.228281, 48.353312], [-89.228939, 48.353455], [-89.22939, 48.353598], [-89.229636, 48.353742], [-89.229677, 48.353885], [-89.229825, 48.354012], [-89.230081, 48.354124], [-89.230445, 48.35422], [-89.230917, 48.354301], [-89.231281, 48.35439], [-89.231537, 48.354489], [-89.231685, 48.354596], [-89.231726, 48.354712], [-89.231682, 48.354793], [-89.231554, 48.354838], [-89.231341, 48.354847], [-89.231045, 48.35482], [-89.230779, 48.354777], [-89.230543, 48.354719], [-89.230337, 48.354645], [-89.230162, 48.354556], [-89.229879, 48.35446], [-89.229488, 48.354357], [-89.228989, 48.354247], [-89.228383, 48.354131], [-89.227874, 48.354079], [-89.227463, 48.354093], [-89.227149, 48.354171], [-89.226933, 48.354314], [-89.226772, 48.354457], [-89.226664, 48.3546], [-89.22661, 48.354744], [-89.22661, 48.354887], [-89.226647, 48.354987], [-89.226721, 48.355046], [-89.226832, 48.355061], [-89.226981, 48.355034], [-89.227345, 48.355086], [-89.227924, 48.355216], [-89.22872, 48.355424], [-89.229731, 48.35571], [-89.230405, 48.355925], [-89.230742, 48.356068], [-89.230742, 48.356139]]}}, {"type": "Feature", "properties": {"lead": 0, "band": "edge"}, "geometry": {"type": "LineString", "coordinates": [[-89.223435, 48.357258], [-89.223435, 48.357229], [-89.223476, 48.357224], [-89.223557, 48.357244], [-89.223678, 48.357289], [-89.223749, 48.357325], [-89.223769, 48.357352], [-89.223739, 48.35737], [-89.223658, 48.357379], [-89.223587, 48.357372], [-89.223526, 48.35735], [-89.223476, 48.357312], [-89.223435, 48.357258]]}}, {"type": "Feature", "properties": {"lead": 0, "band": "edge"}, "geometry": {"type": "LineString", "coordinates": [[-89.225289, 48.358327], [-89.224955, 48.358157], [-89.224665, 48.357987], [-89.224419, 48.357817], [-89.224217, 48.357647], [-89.224109, 48.357535], [-89.224096, 48.357482], [-89.224177, 48.357486], [-89.224352, 48.357549], [-89.224585, 48.357665], [-89.224874, 48.357835], [-89.225221, 48.358059], [-89.225626, 48.358336], [-89.225835, 48.358501], [-89.225848, 48.358555], [-89.225666, 48.358497], [-89.225289, 48.358327]]}}, {"type": "Feature", "properties": {"lead": 0, "band": "edge"}, "geometry": {"type": "LineString", "coordinates": [[-89.196731, 48.311956], [-89.196583, 48.311742], [-89.196472, 48.311529], [-89.196397, 48.311318], [-89.19636, 48.31111], [-89.19636, 48.310904], [-89.196418, 48.310662], [-89.196532, 48.310385], [-89.196704, 48.310071], [-89.196933, 48.309722], [-89.197095, 48.309539], [-89.197189, 48.309521], [-89.197216, 48.309668], [-89.197176, 48.309982], [-89.197125, 48.310226], [-89.197065, 48.310401], [-89.196994, 48.310506], [-89.196913, 48.310542], [-89.196863, 48.310674], [-89.196842, 48.310902], [-89.196852, 48.311227], [-89.196893, 48.311648], [-89.196886, 48.311909], [-89.196832, 48.312012], [-89.196731, 48.311956]]}}, {"type": "Feature", "properties": {"lead": 0, "band": "edge"}, "geometry": {"type": "LineString", "coordinates": [[-89.22235, 48.352032], [-89.222364, 48.351999], [-89.222391, 48.351985], [-89.222431, 48.351992], [-89.222485, 48.352019], [-89.222512, 48.352046], [-89.222512, 48.352073], [-89.222485, 48.3521], [-89.222431, 48.352126], [-89.222391, 48.352133], [-89.222364, 48.35212], [-89.22235, 48.352086], [-89.22235, 48.352032]]}}, {"type": "Feature", "properties": {"lead": 0, "band": "edge"}, "geometry": {"type": "LineString", "coordinates": [[-89.21557, 48.354032], [-89.21558, 48.353983], [-89.215789, 48.353983], [-89.216196, 48.354032], [-89.216803, 48.354131], [-89.217154, 48.354205], [-89.217248, 48.354254], [-89.217086, 48.354278], [-89.216668, 48.354278], [-89.216308, 48.354254], [-89.216004, 48.354205], [-89.215758, 48.354131], [-89.21557, 48.354032]]}}, {"type": "Feature", "properties": {"lead": 0, "band": "edge"}, "geometry": {"type": "LineString", "coordinates": [[-89.219034, 48.35639], [-89.21898, 48.356318], [-89.218963, 48.356262], [-89.218984, 48.356222], [-89.219041, 48.356198], [-89.219135, 48.356189], [-89.219216, 48.356193], [-89.219283, 48.356211], [-89.219337, 48.356242], [-89.219378, 48.356287], [-89.219388, 48.35633], [-89.219368, 48.35637], [-89.219317, 48.356408], [-89.219236, 48.356444], [-89.219162, 48.356453], [-89.219095, 48.356435], [-89.219034, 48.35639]]}}, {"type": "Feature", "properties": {"lead": 0, "band": "edge"}, "geometry": {"type": "LineString", "coordinates": [[-89.219762, 48.356538], [-89.219772, 48.356517], [-89.219792, 48.356504], [-89.219823, 48.356497], [-89.219863, 48.356497], [-89.219883, 48.356504], [-89.219883, 48.356517], [-89.219863, 48.356538], [-89.219823, 48.356564], [-89.219792, 48.356578], [-89.219772, 48.356578], [-89.219762, 48.356564], [-89.219762, 48.356538]]}}, {"type": "Feature", "properties": {"lead": 0, "band": "edge"}, "geometry": {"type": "LineString", "coordinates": [[-89.223051, 48.35711], [-89.223068, 48.357095], [-89.223102, 48.35709], [-89.223152, 48.357097], [-89.22322, 48.357115], [-89.223253, 48.35713], [-89.223253, 48.357144], [-89.22322, 48.357155], [-89.223152, 48.357164], [-89.223102, 48.357164], [-89.223068, 48.357155], [-89.223051, 48.357137], [-89.223051, 48.35711]]}}, {"type": "Feature", "properties": {"lead": 24, "band": "edge"}, "geometry": {"type": "LineString", "coordinates": [[-89.22235, 48.352086], [-89.22235, 48.352032], [-89.222364, 48.351999], [-89.222391, 48.351985], [-89.222431, 48.351992], [-89.222485, 48.352019], [-89.222512, 48.352046], [-89.222512, 48.352073], [-89.222485, 48.3521], [-89.222431, 48.352126], [-89.222391, 48.352133], [-89.222364, 48.35212], [-89.22235, 48.352086]]}}, {"type": "Feature", "properties": {"lead": 24, "band": "edge"}, "geometry": {"type": "LineString", "coordinates": [[-89.227149, 48.352842], [-89.227166, 48.352813], [-89.2272, 48.3528], [-89.22725, 48.352802], [-89.227318, 48.35282], [-89.227351, 48.35284], [-89.227351, 48.352862], [-89.227318, 48.352887], [-89.22725, 48.352914], [-89.2272, 48.352923], [-89.227166, 48.352914], [-89.227149, 48.352887], [-89.227149, 48.352842]]}}, {"type": "Feature", "properties": {"lead": 24, "band": "edge"}, "geometry": {"type": "LineString", "coordinates": [[-89.229751, 48.356153], [-89.228881, 48.355976], [-89.228302, 48.355846], [-89.228012, 48.355764], [-89.228012, 48.355728], [-89.227914, 48.355694], [-89.227719, 48.355663], [-89.227425, 48.355634], [-89.227035, 48.355607], [-89.226718, 48.35554], [-89.226475, 48.355433], [-89.226307, 48.355285], [-89.226212, 48.355097], [-89.226172, 48.354902], [-89.226185, 48.354701], [-89.226253, 48.354493], [-89.226374, 48.354278], [-89.226509, 48.354088], [-89.226657, 48.353923], [-89.226819, 48.353782], [-89.226994, 48.353665], [-89.226846, 48.353513], [-89.226374, 48.353325], [-89.225579, 48.353102], [-89.22446, 48.352842], [-89.223624, 48.352628], [-89.223071, 48.352458], [-89.222802, 48.352332], [-89.222815, 48.352252], [-89.222869, 48.352191], [-89.222964, 48.352151], [-89.223098, 48.352131], [-89.223274, 48.352131], [-89.223415, 48.35212], [-89.223523, 48.352097], [-89.223597, 48.352064], [-89.223638, 48.352019], [-89.223668, 48.352006], [-89.223688, 48.352024], [-89.223698, 48.352073], [-89.223698, 48.352153], [-89.223752, 48.352205], [-89.22386, 48.352227], [-89.224022, 48.35222], [-89.224237, 48.352185], [-89.224389, 48.352173], [-89.224477, 48.352187], [-89.2245, 48.352225], [-89.22446, 48.352287], [-89.224467, 48.352326], [-89.224521, 48.352339], [-89.224622, 48.352328], [-89.22477, 48.352292], [-89.224888, 48.352281], [-89.224975, 48.352294], [-89.225033, 48.352332], [-89.22506, 48.352395], [-89.22509, 48.352431], [-89.225124, 48.35244], [-89.225161, 48.352422], [-89.225201, 48.352377], [-89.225252, 48.352348], [-89.225312, 48.352334], [-89.225383, 48.352337], [-89.225464, 48.352355], [-89.225525, 48.352388], [-89.225565, 48.352437], [-89.225585, 48.352502], [-89.225585, 48.352583], [-89.225619, 48.352643], [-89.225687, 48.352683], [-89.225788, 48.352704], [-89.225922, 48.352704], [-89.226024, 48.352713], [-89.226091, 48.35273], [-89.226125, 48.352757], [-89.226125, 48.352793], [-89.226155, 48.35282], [-89.226216, 48.352838], [-89.226307, 48.352847], [-89.226428, 48.352847], [-89.226522, 48.352833], [-89.22659, 48.352806], [-89.22663, 48.352766], [-89.226644, 48.352713], [-89.226684, 48.352699], [-89.226751, 48.352726], [-89.226846, 48.352793], [-89.226967, 48.3529], [-89.227102, 48.352972], [-89.22725, 48.353008], [-89.227412, 48.353008], [-89.227587, 48.352972], [-89.227719, 48.352961], [-89.227806, 48.352974], [-89.22785, 48.353012], [-89.22785, 48.353075], [-89.227867, 48.353111], [-89.227901, 48.35312], [-89.227951, 48.353102], [-89.228019, 48.353057], [-89.228329, 48.353084], [-89.228881, 48.353182], [-89.229677, 48.353352], [-89.230715, 48.353594], [-89.231523, 48.353784], [-89.232103, 48.353923], [-89.232454, 48.35401], [-89.232575, 48.354046], [-89.232669, 48.354099], [-89.232737, 48.354171], [-89.232777, 48.35426], [-89.232791, 48.354368], [-89.23278, 48.354448], [-89.232747, 48.354502], [-89.23269, 48.354529], [-89.232609, 48.354529], [-89.232558, 48.354545], [-89.232538, 48.354576], [-89.232548, 48.354623], [-89.232588, 48.354685], [-89.232639, 48.354726], [-89.2327, 48.354744], [-89.23277, 48.354739], [-89.232851, 48.354712], [-89.232912, 48.354661], [-89.232952, 48.354585], [-89.232973, 48.354484], [-89.232973, 48.354359], [-89.23307, 48.354287], [-89.233266, 48.354269], [-89.233559, 48.354305], [-89.23395, 48.354395], [-89.234253, 48.354482], [-89.234469, 48.354567], [-89.234597, 48.35465], [-89.234637, 48.35473], [-89.234496, 48.354797], [-89.234172, 48.354851], [-89.233667, 48.354891], [-89.232979, 48.354918], [-89.232379, 48.354927], [-89.231867, 48.354918], [-89.231443, 48.354891], [-89.231106, 48.354847], [-89.230721, 48.35477], [-89.23029, 48.354663], [-89.229811, 48.354524], [-89.229286, 48.354354], [-89.228797, 48.354247], [-89.228346, 48.354202], [-89.227931, 48.35422], [-89.227554, 48.354301], [-89.22726, 48.354404], [-89.227051, 48.354529], [-89.226927, 48.354677], [-89.226886, 48.354847], [-89.22688, 48.354967], [-89.226907, 48.355039], [-89.226967, 48.355061], [-89.227062, 48.355034], [-89.227429, 48.355088], [-89.228069, 48.355222], [-89.228982, 48.355437], [-89.230169, 48.355732], [-89.231102, 48.355987], [-89.231783, 48.356202], [-89.232211, 48.356377], [-89.232386, 48.356511], [-89.232228, 48.356555], [-89.231736, 48.356511], [-89.23091, 48.356377], [-89.229751, 48.356153]]}}, {"type": "Feature", "properties": {"lead": 24, "band": "edge"}, "geometry": {"type": "LineString", "coordinates": [[-89.22936, 48.356314], [-89.22936, 48.356287], [-89.229373, 48.356267], [-89.2294, 48.356254], [-89.229441, 48.356247], [-89.229495, 48.356247], [-89.229522, 48.356254], [-89.229522, 48.356267], [-89.229495, 48.356287], [-89.229441, 48.356314], [-89.2294, 48.356327], [-89.229373, 48.356327], [-89.22936, 48.356314]]}}, {"type": "Feature", "properties": {"lead": 24, "band": "edge"}, "geometry": {"type": "LineString", "coordinates": [[-89.218994, 48.356806], [-89.218714, 48.356728], [-89.218505, 48.356634], [-89.218367, 48.356524], [-89.218299, 48.356399], [-89.218333, 48.356303], [-89.218468, 48.356236], [-89.218704, 48.356198], [-89.219041, 48.356189], [-89.219374, 48.356202], [-89.219705, 48.356238], [-89.220032, 48.356296], [-89.220355, 48.356377], [-89.220537, 48.356466], [-89.220578, 48.356564], [-89.220476, 48.356672], [-89.220234, 48.356788], [-89.219964, 48.35686], [-89.219668, 48.356887], [-89.219344, 48.356869], [-89.218994, 48.356806]]}}, {"type": "Feature", "properties": {"lead": 24, "band": "edge"}, "geometry": {"type": "LineString", "coordinates": [[-89.226024, 48.35911], [-89.225912, 48.359096], [-89.225838, 48.35907], [-89.225801, 48.359029], [-89.225801, 48.358976], [-89.225778, 48.358935], [-89.22573, 48.358909], [-89.22566, 48.358895], [-89.225565, 48.358895], [-89.225441, 48.358859], [-89.225286, 48.358788], [-89.2251, 48.35868], [-89.224884, 48.358537], [-89.224702, 48.358401], [-89.224554, 48.358271], [-89.22444, 48.358148], [-89.224359, 48.358032], [-89.224146, 48.357877], [-89.223803, 48.357685], [-89.223328, 48.357455], [-89.222721, 48.357186], [-89.222306, 48.356987], [-89.222084, 48.356857], [-89.222054, 48.356797], [-89.222215, 48.356806], [-89.222472, 48.356864], [-89.222822, 48.356972], [-89.223267, 48.357128], [-89.223806, 48.357334], [-89.224312, 48.357553], [-89.224783, 48.357786], [-89.225221, 48.358032], [-89.225626, 48.358291], [-89.225939, 48.358513], [-89.226162, 48.358696], [-89.226293, 48.358841], [-89.226334, 48.358949], [-89.226327, 48.359029], [-89.226273, 48.359083], [-89.226172, 48.35911], [-89.226024, 48.35911]]}}, {"type": "Feature", "properties": {"lead": 24, "band": "edge"}, "geometry": {"type": "LineString", "coordinates": [[-89.197756, 48.31278], [-89.197392, 48.312565], [-89.197088, 48.312353], [-89.196846, 48.312142], [-89.196664, 48.311934], [-89.196542, 48.311728], [-89.196458, 48.3115], [-89.196411, 48.311249], [-89.196401, 48.310976], [-89.196428, 48.31068], [-89.196505, 48.31038], [-89.196633, 48.310076], [-89.196812, 48.309767], [-89.197041, 48.309453], [-89.19725, 48.309218], [-89.197439, 48.309062], [-89.197607, 48.308983], [-89.197756, 48.308983], [-89.197867, 48.308997], [-89.197941, 48.309024], [-89.197978, 48.309064], [-89.197978, 48.309118], [-89.197948, 48.309216], [-89.197887, 48.309359], [-89.197796, 48.309548], [-89.197675, 48.30978], [-89.19755, 48.309975], [-89.197422, 48.310132], [-89.197291, 48.310251], [-89.197156, 48.310331], [-89.197065, 48.310472], [-89.197018, 48.310674], [-89.197014, 48.310936], [-89.197055, 48.311258], [-89.197129, 48.311542], [-89.197237, 48.311789], [-89.197378, 48.311997], [-89.197553, 48.312167], [-89.197739, 48.312315], [-89.197934, 48.31244], [-89.19814, 48.312543], [-89.198355, 48.312624], [-89.198494, 48.312706], [-89.198554, 48.312792], [-89.198537, 48.312879], [-89.198443, 48.312968], [-89.198281, 48.312982], [-89.198052, 48.312919], [-89.197756, 48.31278]]}}, {"type": "Feature", "properties": {"lead": 24, "band": "edge"}, "geometry": {"type": "LineString", "coordinates": [[-89.1994, 48.313891], [-89.199265, 48.313761], [-89.199117, 48.313644], [-89.198955, 48.313541], [-89.19878, 48.313452], [-89.198703, 48.313385], [-89.198723, 48.31334], [-89.198841, 48.313318], [-89.199056, 48.313318], [-89.199238, 48.313376], [-89.199387, 48.313492], [-89.199501, 48.313667], [-89.199582, 48.3139], [-89.199612, 48.314038], [-89.199592, 48.314083], [-89.199521, 48.314034], [-89.1994, 48.313891]]}}, {"type": "Feature", "properties": {"lead": 24, "band": "edge"}, "geometry": {"type": "LineString", "coordinates": [[-89.201267, 48.33186], [-89.201277, 48.331846], [-89.201298, 48.331837], [-89.201328, 48.331833], [-89.201368, 48.331833], [-89.201389, 48.331837], [-89.201389, 48.331846], [-89.201368, 48.33186], [-89.201328, 48.331878], [-89.201298, 48.331887], [-89.201277, 48.331887], [-89.201267, 48.331878], [-89.201267, 48.33186]]}}, {"type": "Feature", "properties": {"lead": 24, "band": "edge"}, "geometry": {"type": "LineString", "coordinates": [[-89.202089, 48.3322], [-89.201955, 48.332182], [-89.201843, 48.332162], [-89.201756, 48.332139], [-89.201692, 48.332115], [-89.201651, 48.332088], [-89.201651, 48.332068], [-89.201692, 48.332054], [-89.201773, 48.332048], [-89.201894, 48.332048], [-89.201998, 48.332059], [-89.202086, 48.332081], [-89.202157, 48.332115], [-89.202211, 48.33216], [-89.202218, 48.332189], [-89.202177, 48.332202], [-89.202089, 48.3322]]}}, {"type": "Feature", "properties": {"lead": 24, "band": "edge"}, "geometry": {"type": "LineString", "coordinates": [[-89.216405, 48.35426], [-89.216025, 48.354205], [-89.215721, 48.354129], [-89.215496, 48.354032], [-89.215347, 48.353916], [-89.215266, 48.353824], [-89.215253, 48.353757], [-89.215307, 48.353715], [-89.215428, 48.353697], [-89.215553, 48.353701], [-89.215681, 48.353728], [-89.215812, 48.353777], [-89.215947, 48.353849], [-89.216082, 48.353894], [-89.216217, 48.353912], [-89.216352, 48.353903], [-89.216486, 48.353867], [-89.216608, 48.353862], [-89.216715, 48.353889], [-89.21681, 48.353947], [-89.216891, 48.354037], [-89.217005, 48.354106], [-89.217154, 48.354155], [-89.217336, 48.354184], [-89.217551, 48.354193], [-89.217693, 48.354209], [-89.21776, 48.354231], [-89.217753, 48.35426], [-89.217673, 48.354296], [-89.217497, 48.354314], [-89.217228, 48.354314], [-89.216864, 48.354296], [-89.216405, 48.35426]]}}, {"type": "Feature", "properties": {"lead": 24, "band": "edge"}, "geometry": {"type": "LineString", "coordinates": [[-89.217086, 48.356216], [-89.216988, 48.356189], [-89.216914, 48.356162], [-89.216864, 48.356135], [-89.216837, 48.356108], [-89.216877, 48.35609], [-89.216985, 48.356081], [-89.21716, 48.356081], [-89.217403, 48.35609], [-89.217561, 48.356108], [-89.217636, 48.356135], [-89.217625, 48.356171], [-89.217531, 48.356216], [-89.21743, 48.356242], [-89.217322, 48.356251], [-89.217208, 48.356242], [-89.217086, 48.356216]]}}, {"type": "Feature", "properties": {"lead": 48, "band": "edge"}, "geometry": {"type": "LineString", "coordinates": [[-89.222364, 48.35212], [-89.22235, 48.352086], [-89.22235, 48.352032], [-89.222364, 48.351999], [-89.222391, 48.351985], [-89.222431, 48.351992], [-89.222485, 48.352019], [-89.222512, 48.352046], [-89.222512, 48.352073], [-89.222485, 48.3521], [-89.222431, 48.352126], [-89.222391, 48.352133], [-89.222364, 48.35212]]}}, {"type": "Feature", "properties": {"lead": 48, "band": "edge"}, "geometry": {"type": "LineString", "coordinates": [[-89.228875, 48.353236], [-89.228875, 48.353209], [-89.228885, 48.353189], [-89.228905, 48.353176], [-89.228935, 48.353169], [-89.228976, 48.353169], [-89.228996, 48.353176], [-89.228996, 48.353189], [-89.228976, 48.353209], [-89.228935, 48.353236], [-89.228905, 48.353249], [-89.228885, 48.353249], [-89.228875, 48.353236]]}}, {"type": "Feature", "properties": {"lead": 48, "band": "edge"}, "geometry": {"type": "LineString", "coordinates": [[-89.215738, 48.354117], [-89.215536, 48.35401], [-89.215539, 48.353956], [-89.215748, 48.353956], [-89.216163, 48.35401], [-89.216783, 48.354117], [-89.217143, 48.354198], [-89.217245, 48.354252], [-89.217086, 48.354278], [-89.216668, 48.354278], [-89.216304, 48.354252], [-89.215994, 48.354198], [-89.215738, 48.354117]]}}, {"type": "Feature", "properties": {"lead": 48, "band": "edge"}, "geometry": {"type": "LineString", "coordinates": [[-89.231301, 48.356403], [-89.23087, 48.356341], [-89.230398, 48.356251], [-89.229886, 48.356135], [-89.229333, 48.355992], [-89.22874, 48.355822], [-89.228197, 48.355688], [-89.227705, 48.355589], [-89.227264, 48.355527], [-89.226873, 48.3555], [-89.226566, 48.355439], [-89.226344, 48.355345], [-89.226206, 48.355218], [-89.226152, 48.355057], [-89.226142, 48.354882], [-89.226175, 48.354694], [-89.226253, 48.354493], [-89.226374, 48.354278], [-89.226509, 48.354088], [-89.226657, 48.353923], [-89.226819, 48.353782], [-89.226994, 48.353665], [-89.226849, 48.353509], [-89.226384, 48.353312], [-89.225599, 48.353075], [-89.224494, 48.352798], [-89.223718, 48.352583], [-89.223274, 48.352431], [-89.223159, 48.352341], [-89.223375, 48.352314], [-89.2236, 48.352308], [-89.223836, 48.352321], [-89.224082, 48.352355], [-89.224339, 48.352408], [-89.224544, 48.352433], [-89.224699, 48.352428], [-89.224804, 48.352395], [-89.224858, 48.352332], [-89.224898, 48.352301], [-89.224925, 48.352301], [-89.224938, 48.352332], [-89.224938, 48.352395], [-89.224979, 48.352449], [-89.22506, 48.352493], [-89.225181, 48.352529], [-89.225343, 48.352556], [-89.225478, 48.352592], [-89.225585, 48.352636], [-89.225666, 48.35269], [-89.22572, 48.352753], [-89.225929, 48.352827], [-89.226293, 48.352912], [-89.226812, 48.353008], [-89.227486, 48.353115], [-89.228025, 48.353211], [-89.22843, 48.353296], [-89.228699, 48.35337], [-89.228834, 48.353433], [-89.228945, 48.353464], [-89.229033, 48.353464], [-89.229097, 48.353433], [-89.229137, 48.35337], [-89.229202, 48.35333], [-89.229289, 48.353312], [-89.2294, 48.353317], [-89.229535, 48.353343], [-89.229626, 48.353399], [-89.229673, 48.353484], [-89.229677, 48.353598], [-89.229636, 48.353742], [-89.22967, 48.353858], [-89.229778, 48.353947], [-89.22996, 48.35401], [-89.230216, 48.354046], [-89.230418, 48.354064], [-89.230566, 48.354064], [-89.230661, 48.354046], [-89.230701, 48.35401], [-89.230762, 48.354005], [-89.230843, 48.354032], [-89.230944, 48.35409], [-89.231065, 48.35418], [-89.23118, 48.354247], [-89.231288, 48.354292], [-89.231389, 48.354314], [-89.231483, 48.354314], [-89.231574, 48.35435], [-89.231662, 48.354422], [-89.231746, 48.354529], [-89.231827, 48.354672], [-89.231803, 48.354773], [-89.231675, 48.354831], [-89.231443, 48.354847], [-89.231106, 48.35482], [-89.230809, 48.354777], [-89.230553, 48.354719], [-89.230337, 48.354645], [-89.230162, 48.354556], [-89.229892, 48.35446], [-89.229528, 48.354357], [-89.22907, 48.354247], [-89.228517, 48.354131], [-89.228049, 48.354073], [-89.227665, 48.354073], [-89.227365, 48.354131], [-89.227149, 48.354247], [-89.226974, 48.354377], [-89.226839, 48.35452], [-89.226745, 48.354677], [-89.226691, 48.354847], [-89.226687, 48.354967], [-89.226735, 48.355039], [-89.226832, 48.355061], [-89.226981, 48.355034], [-89.227378, 48.355086], [-89.228025, 48.355216], [-89.228922, 48.355424], [-89.230068, 48.35571], [-89.230937, 48.355947], [-89.23153, 48.356135], [-89.231847, 48.356274], [-89.231887, 48.356363], [-89.23181, 48.356415], [-89.231614, 48.356428], [-89.231301, 48.356403]]}}, {"type": "Feature", "properties": {"lead": 48, "band": "edge"}, "geometry": {"type": "LineString", "coordinates": [[-89.23211, 48.356417], [-89.23211, 48.356363], [-89.23212, 48.356327], [-89.23214, 48.356309], [-89.232171, 48.356309], [-89.232211, 48.356327], [-89.232231, 48.35635], [-89.232231, 48.356377], [-89.232211, 48.356408], [-89.232171, 48.356444], [-89.23214, 48.356457], [-89.23212, 48.356448], [-89.23211, 48.356417]]}}, {"type": "Feature", "properties": {"lead": 48, "band": "edge"}, "geometry": {"type": "LineString", "coordinates": [[-89.219351, 48.35686], [-89.219149, 48.356815], [-89.219004, 48.356746], [-89.218916, 48.356652], [-89.218886, 48.356533], [-89.218913, 48.35639], [-89.219027, 48.356309], [-89.21923, 48.356292], [-89.219519, 48.356336], [-89.219897, 48.356444], [-89.220129, 48.356544], [-89.220217, 48.356638], [-89.22016, 48.356725], [-89.219957, 48.356806], [-89.219755, 48.356855], [-89.219553, 48.356873], [-89.219351, 48.35686]]}}, {"type": "Feature", "properties": {"lead": 48, "band": "edge"}, "geometry": {"type": "LineString", "coordinates": [[-89.22603, 48.358828], [-89.225788, 48.358712], [-89.225596, 48.358602], [-89.225454, 48.358499], [-89.225363, 48.358403], [-89.225323, 48.358314], [-89.225259, 48.35824], [-89.225171, 48.358182], [-89.22506, 48.358139], [-89.224925, 48.358112], [-89.224719, 48.35803], [-89.224443, 48.357891], [-89.224096, 48.357696], [-89.223678, 48.357446], [-89.223462, 48.357294], [-89.223449, 48.35724], [-89.223638, 48.357285], [-89.224028, 48.357428], [-89.224423, 48.3576], [-89.22482, 48.357801], [-89.225221, 48.358032], [-89.225626, 48.358291], [-89.225939, 48.358506], [-89.226162, 48.358676], [-89.226293, 48.358801], [-89.226334, 48.358882], [-89.226303, 48.358913], [-89.226202, 48.358895], [-89.22603, 48.358828]]}}, {"type": "Feature", "properties": {"lead": 72, "band": "edge"}, "geometry": {"type": "LineString", "coordinates": [[-89.216004, 48.354205], [-89.215758, 48.354131], [-89.21557, 48.354032], [-89.21558, 48.353983], [-89.215789, 48.353983], [-89.216196, 48.354032], [-89.216803, 48.354131], [-89.217154, 48.354205], [-89.217248, 48.354254], [-89.217086, 48.354278], [-89.216668, 48.354278], [-89.216308, 48.354254], [-89.216004, 48.354205]]}}, {"type": "Feature", "properties": {"lead": 72, "band": "edge"}, "geometry": {"type": "LineString", "coordinates": [[-89.230917, 48.356323], [-89.230229, 48.356207], [-89.22963, 48.35609], [-89.229117, 48.355974], [-89.228693, 48.355858], [-89.228356, 48.355741], [-89.228005, 48.355647], [-89.227641, 48.355576], [-89.227264, 48.355527], [-89.226873, 48.3555], [-89.226566, 48.355439], [-89.226344, 48.355345], [-89.226206, 48.355218], [-89.226152, 48.355057], [-89.226142, 48.354882], [-89.226175, 48.354694], [-89.226253, 48.354493], [-89.226374, 48.354278], [-89.226509, 48.354088], [-89.226657, 48.353923], [-89.226819, 48.353782], [-89.226994, 48.353665], [-89.226883, 48.353516], [-89.226485, 48.353332], [-89.225801, 48.353115], [-89.224831, 48.352865], [-89.2242, 48.352677], [-89.223911, 48.352551], [-89.223961, 48.352489], [-89.224352, 48.352489], [-89.224686, 48.352511], [-89.224962, 48.352556], [-89.225181, 48.352623], [-89.225343, 48.352713], [-89.2257, 48.352822], [-89.226253, 48.352952], [-89.227001, 48.353102], [-89.227944, 48.353272], [-89.228652, 48.353413], [-89.229124, 48.353525], [-89.22936, 48.353607], [-89.22936, 48.353661], [-89.22934, 48.353701], [-89.229299, 48.353728], [-89.229239, 48.353742], [-89.229158, 48.353742], [-89.229107, 48.353755], [-89.229087, 48.353782], [-89.229097, 48.353822], [-89.229137, 48.353876], [-89.229319, 48.353952], [-89.229643, 48.35405], [-89.230108, 48.354171], [-89.230715, 48.354314], [-89.23118, 48.354444], [-89.231503, 48.35456], [-89.231685, 48.354663], [-89.231726, 48.354753], [-89.231682, 48.354813], [-89.231554, 48.354844], [-89.231341, 48.354847], [-89.231045, 48.35482], [-89.230779, 48.354777], [-89.230543, 48.354719], [-89.230337, 48.354645], [-89.230162, 48.354556], [-89.229923, 48.354469], [-89.229619, 48.354384], [-89.229252, 48.354301], [-89.228821, 48.35422], [-89.228497, 48.354151], [-89.228281, 48.354093], [-89.228174, 48.354046], [-89.228174, 48.35401], [-89.22811, 48.353983], [-89.227982, 48.353965], [-89.227789, 48.353956], [-89.227533, 48.353956], [-89.227321, 48.353985], [-89.227153, 48.354044], [-89.227028, 48.354131], [-89.226947, 48.354247], [-89.226863, 48.354334], [-89.226775, 48.354392], [-89.226684, 48.354422], [-89.22659, 48.354422], [-89.226519, 48.354457], [-89.226472, 48.354529], [-89.226448, 48.354636], [-89.226448, 48.354779], [-89.226792, 48.354961], [-89.227479, 48.35518], [-89.228511, 48.355437], [-89.229886, 48.355732], [-89.230917, 48.355974], [-89.231604, 48.356162], [-89.231948, 48.356296], [-89.231948, 48.356377], [-89.231776, 48.356408], [-89.231432, 48.35639], [-89.230917, 48.356323]]}}, {"type": "Feature", "properties": {"lead": 72, "band": "edge"}, "geometry": {"type": "LineString", "coordinates": [[-89.23211, 48.356417], [-89.23211, 48.356363], [-89.23212, 48.356327], [-89.23214, 48.356309], [-89.232171, 48.356309], [-89.232211, 48.356327], [-89.232231, 48.35635], [-89.232231, 48.356377], [-89.232211, 48.356408], [-89.232171, 48.356444], [-89.23214, 48.356457], [-89.23212, 48.356448], [-89.23211, 48.356417]]}}, {"type": "Feature", "properties": {"lead": 72, "band": "edge"}, "geometry": {"type": "LineString", "coordinates": [[-89.231948, 48.356564], [-89.231948, 48.356538], [-89.231958, 48.356517], [-89.231978, 48.356504], [-89.232009, 48.356497], [-89.232049, 48.356497], [-89.232069, 48.356504], [-89.232069, 48.356517], [-89.232049, 48.356538], [-89.232009, 48.356564], [-89.231978, 48.356578], [-89.231958, 48.356578], [-89.231948, 48.356564]]}}, {"type": "Feature", "properties": {"lead": 72, "band": "edge"}, "geometry": {"type": "LineString", "coordinates": [[-89.219351, 48.35686], [-89.219149, 48.356815], [-89.219004, 48.356746], [-89.218916, 48.356652], [-89.218886, 48.356533], [-89.218913, 48.35639], [-89.219027, 48.356309], [-89.21923, 48.356292], [-89.219519, 48.356336], [-89.219897, 48.356444], [-89.220129, 48.356544], [-89.220217, 48.356638], [-89.22016, 48.356725], [-89.219957, 48.356806], [-89.219755, 48.356855], [-89.219553, 48.356873], [-89.219351, 48.35686]]}}, {"type": "Feature", "properties": {"lead": 72, "band": "edge"}, "geometry": {"type": "LineString", "coordinates": [[-89.222674, 48.357016], [-89.222674, 48.35698], [-89.222697, 48.35696], [-89.222744, 48.356956], [-89.222815, 48.356967], [-89.22291, 48.356994], [-89.222957, 48.357016], [-89.222957, 48.357034], [-89.22291, 48.357048], [-89.222815, 48.357057], [-89.222744, 48.357054], [-89.222697, 48.357041], [-89.222674, 48.357016]]}}, {"type": "Feature", "properties": {"lead": 72, "band": "edge"}, "geometry": {"type": "LineString", "coordinates": [[-89.225141, 48.358278], [-89.224305, 48.357795], [-89.223776, 48.357468], [-89.223553, 48.357298], [-89.223638, 48.357285], [-89.224028, 48.357428], [-89.224423, 48.3576], [-89.22482, 48.357801], [-89.225221, 48.358032], [-89.225626, 48.358291], [-89.225939, 48.358506], [-89.226162, 48.358676], [-89.226293, 48.358801], [-89.226334, 48.358882], [-89.226155, 48.358821], [-89.225757, 48.35862], [-89.225141, 48.358278]]}}, {"type": "Feature", "properties": {"lead": 96, "band": "edge"}, "geometry": {"type": "LineString", "coordinates": [[-89.22235, 48.352086], [-89.22235, 48.352032], [-89.222364, 48.351999], [-89.222391, 48.351985], [-89.222431, 48.351992], [-89.222485, 48.352019], [-89.222512, 48.352046], [-89.222512, 48.352073], [-89.222485, 48.3521], [-89.222431, 48.352126], [-89.222391, 48.352133], [-89.222364, 48.35212], [-89.22235, 48.352086]]}}, {"type": "Feature", "properties": {"lead": 96, "band": "edge"}, "geometry": {"type": "LineString", "coordinates": [[-89.228875, 48.353236], [-89.228875, 48.353209], [-89.228885, 48.353189], [-89.228905, 48.353176], [-89.228935, 48.353169], [-89.228976, 48.353169], [-89.228996, 48.353176], [-89.228996, 48.353189], [-89.228976, 48.353209], [-89.228935, 48.353236], [-89.228905, 48.353249], [-89.228885, 48.353249], [-89.228875, 48.353236]]}}, {"type": "Feature", "properties": {"lead": 96, "band": "edge"}, "geometry": {"type": "LineString", "coordinates": [[-89.229198, 48.353366], [-89.229198, 48.35333], [-89.229215, 48.353305], [-89.229249, 48.353292], [-89.229299, 48.35329], [-89.229367, 48.353299], [-89.2294, 48.353312], [-89.2294, 48.35333], [-89.229367, 48.353352], [-89.229299, 48.353379], [-89.229249, 48.35339], [-89.229215, 48.353386], [-89.229198, 48.353366]]}}, {"type": "Feature", "properties": {"lead": 96, "band": "edge"}, "geometry": {"type": "LineString", "coordinates": [[-89.229576, 48.35346], [-89.229576, 48.353415], [-89.229586, 48.353384], [-89.229606, 48.353366], [-89.229636, 48.353361], [-89.229677, 48.35337], [-89.229697, 48.353386], [-89.229697, 48.353408], [-89.229677, 48.353437], [-89.229636, 48.353473], [-89.229606, 48.353489], [-89.229586, 48.353484], [-89.229576, 48.35346]]}}, {"type": "Feature", "properties": {"lead": 96, "band": "edge"}, "geometry": {"type": "LineString", "coordinates": [[-89.215758, 48.354131], [-89.21557, 48.354032], [-89.21558, 48.353983], [-89.215789, 48.353983], [-89.216196, 48.354032], [-89.216803, 48.354131], [-89.217154, 48.354205], [-89.217248, 48.354254], [-89.217086, 48.354278], [-89.216668, 48.354278], [-89.216308, 48.354254], [-89.216004, 48.354205], [-89.215758, 48.354131]]}}, {"type": "Feature", "properties": {"lead": 96, "band": "edge"}, "geometry": {"type": "LineString", "coordinates": [[-89.231301, 48.356403], [-89.23087, 48.356341], [-89.230398, 48.356251], [-89.229886, 48.356135], [-89.229333, 48.355992], [-89.22874, 48.355822], [-89.228197, 48.355688], [-89.227705, 48.355589], [-89.227264, 48.355527], [-89.226873, 48.3555], [-89.226566, 48.355439], [-89.226344, 48.355345], [-89.226206, 48.355218], [-89.226152, 48.355057], [-89.226142, 48.354882], [-89.226175, 48.354694], [-89.226253, 48.354493], [-89.226374, 48.354278], [-89.226509, 48.354088], [-89.226657, 48.353923], [-89.226819, 48.353782], [-89.226994, 48.353665], [-89.226849, 48.353509], [-89.226384, 48.353312], [-89.225599, 48.353075], [-89.224494, 48.352798], [-89.223698, 48.352583], [-89.223213, 48.352431], [-89.223038, 48.352341], [-89.223172, 48.352314], [-89.223358, 48.352308], [-89.223594, 48.352321], [-89.22388, 48.352355], [-89.224217, 48.352408], [-89.224483, 48.352433], [-89.224679, 48.352428], [-89.224804, 48.352395], [-89.224858, 48.352332], [-89.224908, 48.352308], [-89.224955, 48.352321], [-89.224999, 48.352373], [-89.225039, 48.352462], [-89.2251, 48.352529], [-89.225181, 48.352574], [-89.225282, 48.352596], [-89.225403, 48.352596], [-89.225528, 48.352619], [-89.225656, 48.352663], [-89.225788, 48.35273], [-89.225922, 48.35282], [-89.226239, 48.352923], [-89.226738, 48.353039], [-89.227419, 48.353169], [-89.228281, 48.353312], [-89.228939, 48.353455], [-89.22939, 48.353598], [-89.229636, 48.353742], [-89.229677, 48.353885], [-89.229825, 48.354012], [-89.230081, 48.354124], [-89.230445, 48.35422], [-89.230917, 48.354301], [-89.231281, 48.35439], [-89.231537, 48.354489], [-89.231685, 48.354596], [-89.231726, 48.354712], [-89.231682, 48.354793], [-89.231554, 48.354838], [-89.231341, 48.354847], [-89.231045, 48.35482], [-89.230779, 48.354777], [-89.230543, 48.354719], [-89.230337, 48.354645], [-89.230162, 48.354556], [-89.229879, 48.35446], [-89.229488, 48.354357], [-89.228989, 48.354247], [-89.228383, 48.354131], [-89.227874, 48.354079], [-89.227463, 48.354093], [-89.227149, 48.354171], [-89.226933, 48.354314], [-89.226772, 48.354457], [-89.226664, 48.3546], [-89.22661, 48.354744], [-89.22661, 48.354887], [-89.226647, 48.354987], [-89.226721, 48.355046], [-89.226832, 48.355061], [-89.226981, 48.355034], [-89.227378, 48.355086], [-89.228025, 48.355216], [-89.228922, 48.355424], [-89.230068, 48.35571], [-89.230937, 48.355947], [-89.23153, 48.356135], [-89.231847, 48.356274], [-89.231887, 48.356363], [-89.23181, 48.356415], [-89.231614, 48.356428], [-89.231301, 48.356403]]}}, {"type": "Feature", "properties": {"lead": 96, "band": "edge"}, "geometry": {"type": "LineString", "coordinates": [[-89.23211, 48.356417], [-89.23211, 48.356363], [-89.23212, 48.356327], [-89.23214, 48.356309], [-89.232171, 48.356309], [-89.232211, 48.356327], [-89.232231, 48.35635], [-89.232231, 48.356377], [-89.232211, 48.356408], [-89.232171, 48.356444], [-89.23214, 48.356457], [-89.23212, 48.356448], [-89.23211, 48.356417]]}}, {"type": "Feature", "properties": {"lead": 96, "band": "edge"}, "geometry": {"type": "LineString", "coordinates": [[-89.219149, 48.356815], [-89.219004, 48.356746], [-89.218916, 48.356652], [-89.218886, 48.356533], [-89.218913, 48.35639], [-89.219027, 48.356309], [-89.21923, 48.356292], [-89.219519, 48.356336], [-89.219897, 48.356444], [-89.22016, 48.356538], [-89.220308, 48.356618], [-89.220342, 48.356685], [-89.220261, 48.356739], [-89.220177, 48.356766], [-89.220089, 48.356766], [-89.219998, 48.356739], [-89.219904, 48.356685], [-89.219826, 48.356665], [-89.219765, 48.356679], [-89.219722, 48.356725], [-89.219695, 48.356806], [-89.219624, 48.356855], [-89.219509, 48.356873], [-89.219351, 48.35686], [-89.219149, 48.356815]]}}, {"type": "Feature", "properties": {"lead": 96, "band": "edge"}, "geometry": {"type": "LineString", "coordinates": [[-89.224305, 48.357795], [-89.223776, 48.357468], [-89.223553, 48.357298], [-89.223638, 48.357285], [-89.224028, 48.357428], [-89.224423, 48.3576], [-89.22482, 48.357801], [-89.225221, 48.358032], [-89.225626, 48.358291], [-89.225939, 48.358506], [-89.226162, 48.358676], [-89.226293, 48.358801], [-89.226334, 48.358882], [-89.226155, 48.358821], [-89.225757, 48.35862], [-89.225141, 48.358278], [-89.224305, 48.357795]]}}, {"type": "Feature", "properties": {"lead": 120, "band": "edge"}, "geometry": {"type": "LineString", "coordinates": [[-89.228875, 48.353236], [-89.228875, 48.353209], [-89.228885, 48.353189], [-89.228905, 48.353176], [-89.228935, 48.353169], [-89.228976, 48.353169], [-89.228996, 48.353176], [-89.228996, 48.353189], [-89.228976, 48.353209], [-89.228935, 48.353236], [-89.228905, 48.353249], [-89.228885, 48.353249], [-89.228875, 48.353236]]}}, {"type": "Feature", "properties": {"lead": 120, "band": "edge"}, "geometry": {"type": "LineString", "coordinates": [[-89.229198, 48.353366], [-89.229198, 48.35333], [-89.229215, 48.353305], [-89.229249, 48.353292], [-89.229299, 48.35329], [-89.229367, 48.353299], [-89.2294, 48.353312], [-89.2294, 48.35333], [-89.229367, 48.353352], [-89.229299, 48.353379], [-89.229249, 48.35339], [-89.229215, 48.353386], [-89.229198, 48.353366]]}}, {"type": "Feature", "properties": {"lead": 120, "band": "edge"}, "geometry": {"type": "LineString", "coordinates": [[-89.229576, 48.35346], [-89.229576, 48.353415], [-89.229586, 48.353384], [-89.229606, 48.353366], [-89.229636, 48.353361], [-89.229677, 48.35337], [-89.229697, 48.353386], [-89.229697, 48.353408], [-89.229677, 48.353437], [-89.229636, 48.353473], [-89.229606, 48.353489], [-89.229586, 48.353484], [-89.229576, 48.35346]]}}, {"type": "Feature", "properties": {"lead": 120, "band": "edge"}, "geometry": {"type": "LineString", "coordinates": [[-89.226071, 48.355039], [-89.226071, 48.354949], [-89.226101, 48.354829], [-89.226162, 48.354677], [-89.226253, 48.354493], [-89.226374, 48.354278], [-89.226509, 48.354088], [-89.226657, 48.353923], [-89.226819, 48.353782], [-89.226994, 48.353665], [-89.226873, 48.35352], [-89.226455, 48.353346], [-89.22574, 48.353142], [-89.224729, 48.352909], [-89.223961, 48.352717], [-89.223435, 48.352565], [-89.223152, 48.352453], [-89.223112, 48.352381], [-89.22321, 48.352341], [-89.223445, 48.352332], [-89.22382, 48.352355], [-89.224332, 48.352408], [-89.22478, 48.352478], [-89.225164, 48.352563], [-89.225484, 48.352663], [-89.22574, 48.35278], [-89.225976, 48.352867], [-89.226192, 48.352925], [-89.226388, 48.352954], [-89.226563, 48.352954], [-89.226714, 48.352968], [-89.226842, 48.352994], [-89.226947, 48.353035], [-89.227028, 48.353088], [-89.227153, 48.353135], [-89.227321, 48.353176], [-89.227533, 48.353209], [-89.227789, 48.353236], [-89.227982, 48.353265], [-89.22811, 48.353296], [-89.228174, 48.35333], [-89.228174, 48.353366], [-89.228228, 48.353393], [-89.228335, 48.35341], [-89.228497, 48.353419], [-89.228713, 48.353419], [-89.228908, 48.353433], [-89.229084, 48.35346], [-89.229239, 48.3535], [-89.229373, 48.353554], [-89.229451, 48.353601], [-89.229471, 48.353641], [-89.229434, 48.353674], [-89.22934, 48.353701], [-89.229279, 48.353735], [-89.229252, 48.353775], [-89.229259, 48.353822], [-89.229299, 48.353876], [-89.229448, 48.353938], [-89.229704, 48.35401], [-89.230068, 48.35409], [-89.230539, 48.35418], [-89.230927, 48.354269], [-89.23123, 48.354359], [-89.231449, 48.354448], [-89.231584, 48.354538], [-89.231685, 48.354618], [-89.231753, 48.35469], [-89.231786, 48.354753], [-89.231786, 48.354806], [-89.231712, 48.35484], [-89.231564, 48.354853], [-89.231341, 48.354847], [-89.231045, 48.35482], [-89.230779, 48.354777], [-89.230543, 48.354719], [-89.230337, 48.354645], [-89.230162, 48.354556], [-89.229923, 48.354469], [-89.229619, 48.354384], [-89.229252, 48.354301], [-89.228821, 48.35422], [-89.228497, 48.354151], [-89.228281, 48.354093], [-89.228174, 48.354046], [-89.228174, 48.35401], [-89.22812, 48.353983], [-89.228012, 48.353965], [-89.22785, 48.353956], [-89.227634, 48.353956], [-89.227429, 48.353985], [-89.227233, 48.354044], [-89.227048, 48.354131], [-89.226873, 48.354247], [-89.226731, 48.35437], [-89.226623, 48.3545], [-89.226549, 48.354636], [-89.226509, 48.354779], [-89.226543, 48.354896], [-89.22665, 48.354985], [-89.226832, 48.355048], [-89.227088, 48.355084], [-89.227193, 48.355113], [-89.227146, 48.355135], [-89.226947, 48.355151], [-89.226596, 48.35516], [-89.226334, 48.355144], [-89.226158, 48.355104], [-89.226071, 48.355039]]}}, {"type": "Feature", "properties": {"lead": 120, "band": "edge"}, "geometry": {"type": "LineString", "coordinates": [[-89.215758, 48.354131], [-89.21557, 48.354032], [-89.21558, 48.353983], [-89.215789, 48.353983], [-89.216196, 48.354032], [-89.216803, 48.354131], [-89.217154, 48.354205], [-89.217248, 48.354254], [-89.217086, 48.354278], [-89.216668, 48.354278], [-89.216308, 48.354254], [-89.216004, 48.354205], [-89.215758, 48.354131]]}}, {"type": "Feature", "properties": {"lead": 120, "band": "edge"}, "geometry": {"type": "LineString", "coordinates": [[-89.226826, 48.355312], [-89.226826, 48.355285], [-89.226846, 48.355265], [-89.226886, 48.355251], [-89.226947, 48.355245], [-89.227028, 48.355245], [-89.227068, 48.355251], [-89.227068, 48.355265], [-89.227028, 48.355285], [-89.226947, 48.355312], [-89.226886, 48.355325], [-89.226846, 48.355325], [-89.226826, 48.355312]]}}, {"type": "Feature", "properties": {"lead": 120, "band": "edge"}, "geometry": {"type": "LineString", "coordinates": [[-89.229899, 48.356032], [-89.229683, 48.356032], [-89.229394, 48.35599], [-89.22903, 48.355905], [-89.228592, 48.355777], [-89.228079, 48.355607], [-89.227739, 48.355473], [-89.22757, 48.355374], [-89.227574, 48.355312], [-89.227749, 48.355285], [-89.227978, 48.355285], [-89.228261, 48.355312], [-89.228598, 48.355366], [-89.228989, 48.355446], [-89.229323, 48.35552], [-89.229599, 48.355587], [-89.229818, 48.355647], [-89.22998, 48.355701], [-89.230101, 48.355757], [-89.230182, 48.355815], [-89.230223, 48.355876], [-89.230223, 48.355938], [-89.230169, 48.355985], [-89.230061, 48.356016], [-89.229899, 48.356032]]}}, {"type": "Feature", "properties": {"lead": 120, "band": "edge"}, "geometry": {"type": "LineString", "coordinates": [[-89.219034, 48.35639], [-89.21898, 48.356318], [-89.218963, 48.356262], [-89.218984, 48.356222], [-89.219041, 48.356198], [-89.219135, 48.356189], [-89.219216, 48.356193], [-89.219283, 48.356211], [-89.219337, 48.356242], [-89.219378, 48.356287], [-89.219388, 48.35633], [-89.219368, 48.35637], [-89.219317, 48.356408], [-89.219236, 48.356444], [-89.219162, 48.356453], [-89.219095, 48.356435], [-89.219034, 48.35639]]}}]}