{"type": "FeatureCollection", "features": [{"type": "Feature", "properties": {"lead": 0}, "geometry": {"type": "LineString", "coordinates": [[-89.068836, 48.489493], [-89.066896, 48.489493]]}}, {"type": "Feature", "properties": {"lead": 0}, "geometry": {"type": "LineString", "coordinates": [[-89.061824, 48.489361], [-89.061767, 48.48936], [-89.061654, 48.489358], [-89.061484, 48.489355], [-89.061257, 48.489351], [-89.060973, 48.489346], [-89.060633, 48.48934], [-89.060236, 48.489332], [-89.059782, 48.489324], [-89.059371, 48.489322], [-89.059003, 48.489326], [-89.058677, 48.489337], [-89.058394, 48.489353], [-89.058154, 48.489376], [-89.057957, 48.489404], [-89.057802, 48.489439], [-89.05769, 48.489481], [-89.057592, 48.489517], [-89.057509, 48.489547], [-89.057439, 48.489573], [-89.057383, 48.489594], [-89.057341, 48.489609], [-89.057313, 48.489619], [-89.057299, 48.489625]]}}, {"type": "Feature", "properties": {"lead": 0}, "geometry": {"type": "LineString", "coordinates": [[-89.092607, 48.485279], [-89.092604, 48.485274], [-89.0926, 48.485265], [-89.092593, 48.485251], [-89.092583, 48.485233], [-89.092572, 48.485209], [-89.092558, 48.485182], [-89.092541, 48.485149], [-89.092523, 48.485112], [-89.092516, 48.485076], [-89.09252, 48.485041], [-89.092537, 48.485007], [-89.092565, 48.484974], [-89.092604, 48.484942], [-89.092655, 48.484912], [-89.092718, 48.484882], [-89.092793, 48.484853], [-89.092858, 48.484828], [-89.092914, 48.484806], [-89.092961, 48.484788], [-89.092998, 48.484774], [-89.093026, 48.484763], [-89.093045, 48.484756], [-89.093054, 48.484752]]}}, {"type": "Feature", "properties": {"lead": 0}, "geometry": {"type": "LineString", "coordinates": [[-89.089175, 48.484522], [-89.089174, 48.484537], [-89.089171, 48.484568], [-89.089166, 48.484614], [-89.08916, 48.484676], [-89.089152, 48.484753], [-89.089143, 48.484846], [-89.089132, 48.484954], [-89.089119, 48.485077], [-89.089116, 48.485187], [-89.089122, 48.485284], [-89.089138, 48.485367], [-89.089163, 48.485437], [-89.089197, 48.485494], [-89.08924, 48.485537], [-89.089293, 48.485567], [-89.089355, 48.485583], [-89.089404, 48.485599], [-89.089438, 48.485615], [-89.089458, 48.48563], [-89.089464, 48.485644], [-89.089456, 48.485658], [-89.089435, 48.485671], [-89.089399, 48.485684], [-89.089349, 48.485697], [-89.089306, 48.485707], [-89.089268, 48.485717], [-89.089237, 48.485724], [-89.089212, 48.485731], [-89.089194, 48.485735], [-89.089181, 48.485738], [-89.089175, 48.48574]]}}, {"type": "Feature", "properties": {"lead": 0}, "geometry": {"type": "LineString", "coordinates": [[-89.099718, 48.484192], [-89.099711, 48.484197], [-89.099697, 48.484206], [-89.099676, 48.48422], [-89.099648, 48.484239], [-89.099613, 48.484262], [-89.099571, 48.48429], [-89.099522, 48.484322], [-89.099466, 48.484359], [-89.099412, 48.484388], [-89.099361, 48.48441], [-89.099312, 48.484424], [-89.099266, 48.48443], [-89.099221, 48.484429], [-89.099179, 48.484419], [-89.09914, 48.484402], [-89.099102, 48.484378], [-89.099054, 48.484357], [-89.098995, 48.484341], [-89.098925, 48.484328], [-89.098844, 48.48432], [-89.098753, 48.484316], [-89.09865, 48.484316], [-89.098537, 48.48432], [-89.098412, 48.484328], [-89.098301, 48.484342], [-89.098201, 48.48436], [-89.098114, 48.484384], [-89.098039, 48.484413], [-89.097977, 48.484447], [-89.097928, 48.484486], [-89.09789, 48.48453], [-89.097865, 48.484579], [-89.097828, 48.48462], [-89.097778, 48.484653], [-89.097716, 48.484678], [-89.097642, 48.484695], [-89.097555, 48.484703], [-89.097455, 48.484703], [-89.097343, 48.484695], [-89.097219, 48.484678], [-89.097101, 48.484671], [-89.096989, 48.484673], [-89.096883, 48.484684], [-89.096784, 48.484705], [-89.096691, 48.484735], [-89.096604, 48.484774], [-89.096523, 48.484822], [-89.096448, 48.48488], [-89.096361, 48.484931], [-89.096262, 48.484976], [-89.09615, 48.485016], [-89.096025, 48.485048], [-89.095889, 48.485075], [-89.095739, 48.485096], [-89.095578, 48.48511], [-89.095404, 48.485118], [-89.095239, 48.485133], [-89.095084, 48.485153], [-89.094938, 48.48518], [-89.094801, 48.485213], [-89.094673, 48.485252], [-89.094555, 48.485297], [-89.094447, 48.485349], [-89.094347, 48.485407], [-89.094244, 48.485456], [-89.094136, 48.485499], [-89.094025, 48.485533], [-89.09391, 48.48556], [-89.093791, 48.485579], [-89.093669, 48.48559], [-89.093542, 48.485594], [-89.093412, 48.48559], [-89.093297, 48.485586], [-89.093199, 48.485583], [-89.093118, 48.48558], [-89.093053, 48.485578], [-89.093004, 48.485577], [-89.092971, 48.485576], [-89.092955, 48.485575]]}}, {"type": "Feature", "properties": {"lead": 0}, "geometry": {"type": "LineString", "coordinates": [[-89.092457, 48.484028], [-89.092444, 48.484028], [-89.092418, 48.484028], [-89.092378, 48.484028], [-89.092325, 48.484028], [-89.092259, 48.484028], [-89.09218, 48.484028], [-89.092087, 48.484028], [-89.091982, 48.484028], [-89.091883, 48.484032], [-89.091791, 48.48404], [-89.091707, 48.484053], [-89.091629, 48.484069], [-89.091558, 48.48409], [-89.091495, 48.484114], [-89.091438, 48.484143], [-89.091388, 48.484176], [-89.091317, 48.484205], [-89.091226, 48.484229], [-89.091113, 48.48425], [-89.090979, 48.484267], [-89.090825, 48.484279], [-89.090649, 48.484287], [-89.090453, 48.484291], [-89.090235, 48.484291], [-89.090045, 48.484291], [-89.089882, 48.484291], [-89.089746, 48.484291], [-89.089637, 48.484291], [-89.089555, 48.484291], [-89.089501, 48.484291], [-89.089474, 48.484291]]}}, {"type": "Feature", "properties": {"lead": 24}, "geometry": {"type": "LineString", "coordinates": [[-89.061625, 48.489295], [-89.061572, 48.489295], [-89.061464, 48.489295], [-89.061303, 48.489295], [-89.061089, 48.489295], [-89.060821, 48.489295], [-89.060499, 48.489295], [-89.060124, 48.489295], [-89.059695, 48.489295], [-89.059306, 48.489301], [-89.058956, 48.489311], [-89.058646, 48.489326], [-89.058376, 48.489347], [-89.058145, 48.489373], [-89.057954, 48.489403], [-89.057802, 48.489439], [-89.05769, 48.489481], [-89.057592, 48.489517], [-89.057509, 48.489547], [-89.057439, 48.489573], [-89.057383, 48.489594], [-89.057341, 48.489609], [-89.057313, 48.489619], [-89.057299, 48.489625]]}}, {"type": "Feature", "properties": {"lead": 24}, "geometry": {"type": "LineString", "coordinates": [[-89.099718, 48.484192], [-89.099711, 48.484197], [-89.099697, 48.484206], [-89.099676, 48.48422], [-89.099648, 48.484239], [-89.099613, 48.484262], [-89.099571, 48.48429], [-89.099522, 48.484322], [-89.099466, 48.484359], [-89.099413, 48.484387], [-89.099363, 48.484405], [-89.099317, 48.484415], [-89.099273, 48.484415], [-89.099233, 48.484405], [-89.099196, 48.484387], [-89.099161, 48.484359], [-89.09913, 48.484322], [-89.099103, 48.48429], [-89.09908, 48.484262], [-89.09906, 48.484239], [-89.099045, 48.48422], [-89.099033, 48.484206], [-89.099025, 48.484197], [-89.099022, 48.484192]]}}, {"type": "Feature", "properties": {"lead": 24}, "geometry": {"type": "LineString", "coordinates": [[-89.098624, 48.484192], [-89.098611, 48.484199], [-89.098584, 48.484213], [-89.098545, 48.484233], [-89.098492, 48.484259], [-89.098426, 48.484293], [-89.098346, 48.484333], [-89.098254, 48.48438], [-89.098148, 48.484433], [-89.09804, 48.48448], [-89.09793, 48.48452], [-89.097817, 48.484554], [-89.097702, 48.48458], [-89.097585, 48.4846], [-89.097465, 48.484614], [-89.097343, 48.48462], [-89.097219, 48.48462], [-89.097101, 48.484628], [-89.096989, 48.484642], [-89.096883, 48.484664], [-89.096784, 48.484692], [-89.096691, 48.484728], [-89.096604, 48.484772], [-89.096523, 48.484822], [-89.096448, 48.48488], [-89.096358, 48.484931], [-89.096252, 48.484976], [-89.096131, 48.485016], [-89.095994, 48.485048], [-89.095842, 48.485075], [-89.095674, 48.485096], [-89.095491, 48.48511], [-89.095292, 48.485118], [-89.095109, 48.485132], [-89.094941, 48.48515], [-89.094788, 48.485174], [-89.094652, 48.485203], [-89.09453, 48.485237], [-89.094425, 48.485276], [-89.094335, 48.48532], [-89.09426, 48.485369], [-89.094182, 48.485413], [-89.094099, 48.48545], [-89.094013, 48.485481], [-89.093923, 48.485505], [-89.093829, 48.485524], [-89.093731, 48.485536], [-89.093629, 48.485542], [-89.093523, 48.485542], [-89.093431, 48.485542], [-89.093352, 48.485542], [-89.093286, 48.485542], [-89.093233, 48.485542], [-89.093193, 48.485542], [-89.093167, 48.485542], [-89.093154, 48.485542]]}}, {"type": "Feature", "properties": {"lead": 24}, "geometry": {"type": "LineString", "coordinates": [[-89.092457, 48.484028], [-89.089474, 48.484291]]}}, {"type": "Feature", "properties": {"lead": 48}, "geometry": {"type": "LineString", "coordinates": [[-89.060233, 48.489032], [-89.057299, 48.489295]]}}, {"type": "Feature", "properties": {"lead": 48}, "geometry": {"type": "LineString", "coordinates": [[-89.09206, 48.483896], [-89.092043, 48.4839], [-89.092011, 48.483908], [-89.091962, 48.483921], [-89.091896, 48.483937], [-89.091815, 48.483958], [-89.091717, 48.483983], [-89.091603, 48.484011], [-89.091472, 48.484044], [-89.091352, 48.484071], [-89.091244, 48.484092], [-89.091146, 48.484106], [-89.091059, 48.484114], [-89.090983, 48.484116], [-89.090917, 48.484112], [-89.090863, 48.484102], [-89.090819, 48.484085], [-89.090781, 48.484071], [-89.090749, 48.484059], [-89.090721, 48.484048], [-89.0907, 48.48404], [-89.090683, 48.484034], [-89.090673, 48.48403], [-89.090667, 48.484028]]}}, {"type": "Feature", "properties": {"lead": 72}, "geometry": {"type": "LineString", "coordinates": [[-89.061028, 48.489164], [-89.060981, 48.489166], [-89.060886, 48.48917], [-89.060744, 48.489176], [-89.060554, 48.489184], [-89.060317, 48.489195], [-89.060033, 48.489207], [-89.059701, 48.489221], [-89.059322, 48.489238], [-89.058979, 48.489257], [-89.058673, 48.48928], [-89.058404, 48.489306], [-89.058171, 48.489335], [-89.057974, 48.489366], [-89.057814, 48.489401], [-89.05769, 48.489439], [-89.057603, 48.489481], [-89.057527, 48.489517], [-89.057462, 48.489547], [-89.057408, 48.489573], [-89.057364, 48.489594], [-89.057331, 48.489609], [-89.05731, 48.489619], [-89.057299, 48.489625]]}}, {"type": "Feature", "properties": {"lead": 72}, "geometry": {"type": "LineString", "coordinates": [[-89.09206, 48.483896], [-89.092031, 48.483902], [-89.091973, 48.483915], [-89.091887, 48.483933], [-89.091772, 48.483958], [-89.091628, 48.483989], [-89.091456, 48.484026], [-89.091255, 48.484069], [-89.091025, 48.484118], [-89.090815, 48.48416], [-89.090625, 48.484194], [-89.090456, 48.48422], [-89.090307, 48.484239], [-89.090178, 48.48425], [-89.090069, 48.484253], [-89.08998, 48.484248], [-89.089912, 48.484236], [-89.089852, 48.484225], [-89.089801, 48.484216], [-89.089758, 48.484208], [-89.089724, 48.484202], [-89.089698, 48.484197], [-89.089681, 48.484194], [-89.089672, 48.484192]]}}, {"type": "Feature", "properties": {"lead": 96}, "geometry": {"type": "LineString", "coordinates": [[-89.061327, 48.489197], [-89.061278, 48.489198], [-89.06118, 48.489201], [-89.061033, 48.489206], [-89.060837, 48.489212], [-89.060593, 48.48922], [-89.060299, 48.489229], [-89.059956, 48.48924], [-89.059565, 48.489252], [-89.059208, 48.489268], [-89.058886, 48.489288], [-89.058599, 48.489311], [-89.058348, 48.489338], [-89.058131, 48.489368], [-89.057949, 48.489402], [-89.057802, 48.489439], [-89.05769, 48.489481], [-89.057592, 48.489517], [-89.057509, 48.489547], [-89.057439, 48.489573], [-89.057383, 48.489594], [-89.057341, 48.489609], [-89.057313, 48.489619], [-89.057299, 48.489625]]}}, {"type": "Feature", "properties": {"lead": 96}, "geometry": {"type": "LineString", "coordinates": [[-89.098126, 48.484225], [-89.098092, 48.484239], [-89.098022, 48.484265], [-89.097917, 48.484306], [-89.097777, 48.484359], [-89.097602, 48.484426], [-89.097392, 48.484506], [-89.097147, 48.4846], [-89.096868, 48.484707], [-89.096602, 48.484799], [-89.09635, 48.484878], [-89.096112, 48.484941], [-89.095889, 48.484991], [-89.095679, 48.485026], [-89.095483, 48.485046], [-89.095301, 48.485053], [-89.095133, 48.485044], [-89.094987, 48.485037], [-89.094861, 48.485031], [-89.094756, 48.485026], [-89.094672, 48.485022], [-89.094609, 48.485019], [-89.094567, 48.485017], [-89.094546, 48.485016]]}}, {"type": "Feature", "properties": {"lead": 96}, "geometry": {"type": "LineString", "coordinates": [[-89.09206, 48.483896], [-89.092043, 48.483902], [-89.092011, 48.483915], [-89.091962, 48.483933], [-89.091896, 48.483958], [-89.091815, 48.483989], [-89.091717, 48.484026], [-89.091603, 48.484069], [-89.091472, 48.484118], [-89.091337, 48.48416], [-89.091197, 48.484194], [-89.091052, 48.48422], [-89.090903, 48.484239], [-89.090749, 48.48425], [-89.090591, 48.484253], [-89.090428, 48.484248], [-89.09026, 48.484236], [-89.090113, 48.484225], [-89.089987, 48.484216], [-89.089882, 48.484208], [-89.089798, 48.484202], [-89.089735, 48.484197], [-89.089693, 48.484194], [-89.089672, 48.484192]]}}, {"type": "Feature", "properties": {"lead": 120}, "geometry": {"type": "LineString", "coordinates": [[-89.061028, 48.489164], [-89.060984, 48.489166], [-89.060896, 48.48917], [-89.060763, 48.489176], [-89.060586, 48.489184], [-89.060364, 48.489195], [-89.060098, 48.489207], [-89.059788, 48.489221], [-89.059434, 48.489238], [-89.05911, 48.489257], [-89.058816, 48.48928], [-89.058553, 48.489306], [-89.05832, 48.489335], [-89.058117, 48.489366], [-89.057944, 48.489401], [-89.057802, 48.489439], [-89.05769, 48.489481], [-89.057592, 48.489517], [-89.057509, 48.489547], [-89.057439, 48.489573], [-89.057383, 48.489594], [-89.057341, 48.489609], [-89.057313, 48.489619], [-89.057299, 48.489625]]}}, {"type": "Feature", "properties": {"lead": 120}, "geometry": {"type": "LineString", "coordinates": [[-89.09206, 48.483896], [-89.092031, 48.483902], [-89.091973, 48.483915], [-89.091887, 48.483933], [-89.091772, 48.483958], [-89.091628, 48.483989], [-89.091456, 48.484026], [-89.091255, 48.484069], [-89.091025, 48.484118], [-89.090818, 48.48416], [-89.090634, 48.484192], [-89.090474, 48.484217], [-89.090338, 48.484234], [-89.090224, 48.484242], [-89.090134, 48.484242], [-89.090067, 48.484234], [-89.090024, 48.484217], [-89.089986, 48.484203], [-89.089953, 48.48419], [-89.089926, 48.48418], [-89.089904, 48.484172], [-89.089888, 48.484166], [-89.089877, 48.484162], [-89.089871, 48.48416]]}}]}