{"type": "FeatureCollection", "features": [{"type": "Feature", "properties": {"lead": 0, "band": "edge"}, "geometry": {"type": "LineString", "coordinates": [[-89.058104, 48.488962], [-89.058506, 48.488879], [-89.058917, 48.488821], [-89.059338, 48.488788], [-89.059769, 48.488779], [-89.06018, 48.488801], [-89.060571, 48.488855], [-89.060942, 48.48894], [-89.061293, 48.489056], [-89.061424, 48.489145], [-89.061336, 48.489207], [-89.06103, 48.489243], [-89.060504, 48.489252], [-89.06011, 48.489268], [-89.059847, 48.48929], [-89.059715, 48.489319], [-89.059715, 48.489355], [-89.059628, 48.489381], [-89.059452, 48.489399], [-89.05919, 48.489408], [-89.058839, 48.489408], [-89.058566, 48.489399], [-89.058371, 48.489381], [-89.058253, 48.489355], [-89.058212, 48.489319], [-89.058064, 48.48935], [-89.057808, 48.489448], [-89.057444, 48.489613], [-89.056972, 48.489845], [-89.056628, 48.490098], [-89.056413, 48.49037], [-89.056325, 48.490662], [-89.056366, 48.490974], [-89.056362, 48.491175], [-89.056315, 48.491264], [-89.056224, 48.491242], [-89.056089, 48.491108], [-89.055988, 48.490965], [-89.055921, 48.490814], [-89.055887, 48.490653], [-89.055887, 48.490483], [-89.055964, 48.490294], [-89.05612, 48.490084], [-89.056352, 48.489854], [-89.056662, 48.489604], [-89.056992, 48.48939], [-89.057127, 48.489322], [-89.057127, 48.489355], [-89.057137, 48.489372], [-89.057157, 48.489372], [-89.057188, 48.489355], [-89.057228, 48.489319], [-89.057248, 48.489292], [-89.057248, 48.489274], [-89.057233, 48.489268], [-89.057343, 48.489212], [-89.057714, 48.489069], [-89.058104, 48.488962]]}}, {"type": "Feature", "properties": {"lead": 0, "band": "edge"}, "geometry": {"type": "LineString", "coordinates": [[-89.051041, 48.496052], [-89.050866, 48.496007], [-89.050896, 48.495929], [-89.051132, 48.495817], [-89.051573, 48.495672], [-89.05222, 48.495494], [-89.052696, 48.495373], [-89.052999, 48.495311], [-89.05313, 48.495306], [-89.05309, 48.49536], [-89.052972, 48.49542], [-89.052776, 48.495487], [-89.052503, 48.495561], [-89.052153, 48.495641], [-89.0519, 48.495715], [-89.051745, 48.495782], [-89.051688, 48.495842], [-89.051728, 48.495895], [-89.051718, 48.495936], [-89.051658, 48.495962], [-89.051546, 48.495976], [-89.051385, 48.495976], [-89.051273, 48.495985], [-89.051213, 48.496002], [-89.051203, 48.496029], [-89.051243, 48.496065], [-89.05123, 48.496081], [-89.051162, 48.496076], [-89.051041, 48.496052]]}}, {"type": "Feature", "properties": {"lead": 0, "band": "edge"}, "geometry": {"type": "LineString", "coordinates": [[-89.031447, 48.500107], [-89.031259, 48.500053], [-89.031158, 48.499993], [-89.031144, 48.499926], [-89.031218, 48.499852], [-89.03138, 48.499772], [-89.0317, 48.499692], [-89.032179, 48.499612], [-89.032816, 48.499531], [-89.033611, 48.499451], [-89.034339, 48.499353], [-89.034999, 48.499237], [-89.035593, 48.499103], [-89.036118, 48.498951], [-89.036829, 48.498829], [-89.037726, 48.498735], [-89.038808, 48.49867], [-89.040075, 48.498635], [-89.0412, 48.498572], [-89.042184, 48.498483], [-89.043027, 48.498367], [-89.043728, 48.498224], [-89.044388, 48.498057], [-89.045008, 48.497865], [-89.045588, 48.497649], [-89.046127, 48.497408], [-89.046734, 48.497165], [-89.047408, 48.496919], [-89.048149, 48.496672], [-89.048958, 48.496422], [-89.049592, 48.49623], [-89.05005, 48.496096], [-89.050333, 48.49602], [-89.050441, 48.496002], [-89.050532, 48.496005], [-89.050606, 48.496027], [-89.050663, 48.496069], [-89.050704, 48.496132], [-89.050758, 48.496179], [-89.050825, 48.49621], [-89.050906, 48.496226], [-89.051, 48.496226], [-89.051071, 48.496239], [-89.051118, 48.496266], [-89.051142, 48.496306], [-89.051142, 48.496359], [-89.051088, 48.4964], [-89.05098, 48.496426], [-89.050818, 48.49644], [-89.050603, 48.49644], [-89.050407, 48.496462], [-89.050232, 48.496507], [-89.050077, 48.496574], [-89.049942, 48.496663], [-89.049723, 48.496743], [-89.04942, 48.496814], [-89.049032, 48.496877], [-89.04856, 48.49693], [-89.048163, 48.497], [-89.047839, 48.497084], [-89.04759, 48.497185], [-89.047415, 48.497301], [-89.047243, 48.497381], [-89.047074, 48.497426], [-89.046909, 48.497435], [-89.046747, 48.497408], [-89.046616, 48.497414], [-89.046515, 48.497455], [-89.046444, 48.497528], [-89.046404, 48.497635], [-89.046319, 48.497716], [-89.046191, 48.497769], [-89.046019, 48.497796], [-89.045804, 48.497796], [-89.045578, 48.497832], [-89.045342, 48.497903], [-89.045096, 48.49801], [-89.04484, 48.498153], [-89.04458, 48.49826], [-89.044318, 48.498331], [-89.044051, 48.498367], [-89.043782, 48.498367], [-89.04358, 48.498376], [-89.043445, 48.498394], [-89.043377, 48.49842], [-89.043377, 48.498456], [-89.043313, 48.498496], [-89.043185, 48.498541], [-89.042993, 48.49859], [-89.042737, 48.498644], [-89.042461, 48.498684], [-89.042164, 48.49871], [-89.041847, 48.498724], [-89.04151, 48.498724], [-89.041237, 48.498737], [-89.041028, 48.498764], [-89.040884, 48.498804], [-89.040803, 48.498858], [-89.040675, 48.498898], [-89.040499, 48.498925], [-89.040277, 48.498938], [-89.040007, 48.498938], [-89.039805, 48.498947], [-89.03967, 48.498965], [-89.039603, 48.498991], [-89.039603, 48.499027], [-89.039411, 48.499067], [-89.039027, 48.499112], [-89.03845, 48.499161], [-89.037682, 48.499215], [-89.037052, 48.499277], [-89.03656, 48.499348], [-89.036206, 48.499429], [-89.03599, 48.499518], [-89.03568, 48.499585], [-89.035276, 48.499629], [-89.034777, 48.499652], [-89.034184, 48.499652], [-89.033641, 48.499665], [-89.033149, 48.499692], [-89.032708, 48.499732], [-89.032317, 48.499786], [-89.032024, 48.499846], [-89.031828, 48.499913], [-89.03173, 48.499986], [-89.03173, 48.500067], [-89.031683, 48.500113], [-89.031589, 48.500127], [-89.031447, 48.500107]]}}, {"type": "Feature", "properties": {"lead": 0, "band": "edge"}, "geometry": {"type": "LineString", "coordinates": [[-89.026271, 48.501115], [-89.02617, 48.501106], [-89.026102, 48.501088], [-89.026069, 48.501061], [-89.026069, 48.501026], [-89.026146, 48.500959], [-89.026301, 48.500861], [-89.026534, 48.500731], [-89.026844, 48.500571], [-89.027188, 48.500426], [-89.027565, 48.500296], [-89.027976, 48.500183], [-89.028421, 48.500084], [-89.028812, 48.500013], [-89.029149, 48.499968], [-89.029432, 48.499951], [-89.029661, 48.49996], [-89.029769, 48.499968], [-89.029756, 48.499977], [-89.029621, 48.499986], [-89.029365, 48.499995], [-89.029173, 48.500013], [-89.029045, 48.50004], [-89.028981, 48.500076], [-89.028981, 48.50012], [-89.02895, 48.500154], [-89.02889, 48.500176], [-89.028799, 48.500187], [-89.028677, 48.500187], [-89.028586, 48.500196], [-89.028526, 48.500214], [-89.028495, 48.500241], [-89.028495, 48.500276], [-89.028451, 48.500303], [-89.028364, 48.500321], [-89.028232, 48.50033], [-89.028057, 48.50033], [-89.027882, 48.500365], [-89.027707, 48.500437], [-89.027531, 48.500544], [-89.027356, 48.500687], [-89.027194, 48.500794], [-89.027046, 48.500865], [-89.026911, 48.500901], [-89.02679, 48.500901], [-89.026699, 48.500914], [-89.026638, 48.500941], [-89.026608, 48.500981], [-89.026608, 48.501035], [-89.026574, 48.501075], [-89.026507, 48.501102], [-89.026406, 48.501115], [-89.026271, 48.501115]]}}, {"type": "Feature", "properties": {"lead": 0, "band": "edge"}, "geometry": {"type": "LineString", "coordinates": [[-89.024741, 48.501494], [-89.024872, 48.501458], [-89.024933, 48.501449], [-89.024923, 48.501467], [-89.024842, 48.501512], [-89.024751, 48.50155], [-89.02465, 48.501581], [-89.024539, 48.501606], [-89.024417, 48.501623], [-89.024377, 48.501621], [-89.024417, 48.501599], [-89.024539, 48.501557], [-89.024741, 48.501494]]}}, {"type": "Feature", "properties": {"lead": 0, "band": "edge"}, "geometry": {"type": "LineString", "coordinates": [[-89.022456, 48.50198], [-89.022456, 48.501962], [-89.02248, 48.501947], [-89.022527, 48.501933], [-89.022598, 48.501922], [-89.022692, 48.501913], [-89.022739, 48.501913], [-89.022739, 48.501922], [-89.022692, 48.50194], [-89.022598, 48.501967], [-89.022527, 48.501983], [-89.02248, 48.501987], [-89.022456, 48.50198]]}}, {"type": "Feature", "properties": {"lead": 0, "band": "edge"}, "geometry": {"type": "LineString", "coordinates": [[-88.98736, 48.501262], [-88.98735, 48.501229], [-88.987371, 48.501189], [-88.987421, 48.501142], [-88.987502, 48.501088], [-88.98764, 48.501026], [-88.987836, 48.500954], [-88.988088, 48.500874], [-88.988398, 48.500785], [-88.988796, 48.500638], [-88.989281, 48.500432], [-88.989854, 48.500169], [-88.990515, 48.499848], [-88.991135, 48.499571], [-88.991715, 48.499339], [-88.992254, 48.499152], [-88.992752, 48.499009], [-88.993197, 48.498918], [-88.993588, 48.498878], [-88.993925, 48.498889], [-88.994208, 48.498951], [-88.99439, 48.49902], [-88.994471, 48.499096], [-88.994451, 48.499179], [-88.99433, 48.499268], [-88.994175, 48.499322], [-88.993986, 48.499339], [-88.993764, 48.499322], [-88.993507, 48.499268], [-88.993261, 48.499241], [-88.993025, 48.499241], [-88.9928, 48.499268], [-88.992584, 48.499322], [-88.992385, 48.499402], [-88.992203, 48.499509], [-88.992038, 48.499643], [-88.99189, 48.499803], [-88.991708, 48.499922], [-88.991492, 48.499997], [-88.991243, 48.500031], [-88.99096, 48.500022], [-88.990707, 48.500049], [-88.990484, 48.500111], [-88.990292, 48.500209], [-88.990131, 48.500343], [-88.989986, 48.500444], [-88.989858, 48.50051], [-88.989746, 48.500544], [-88.989652, 48.500544], [-88.989551, 48.500566], [-88.989443, 48.500611], [-88.989329, 48.500678], [-88.989207, 48.500767], [-88.989029, 48.500847], [-88.988793, 48.500919], [-88.988499, 48.500981], [-88.988149, 48.501035], [-88.987876, 48.501088], [-88.987681, 48.501142], [-88.987563, 48.501195], [-88.987522, 48.501249], [-88.987482, 48.501282], [-88.987441, 48.501296], [-88.987401, 48.501289], [-88.98736, 48.501262]]}}, {"type": "Feature", "properties": {"lead": 0, "band": "edge"}, "geometry": {"type": "LineString", "coordinates": [[-88.987421, 48.503934], [-88.98736, 48.503914], [-88.98732, 48.503874], [-88.9873, 48.503814], [-88.9873, 48.503733], [-88.987397, 48.503617], [-88.987593, 48.503466], [-88.987886, 48.503278], [-88.988277, 48.503055], [-88.988601, 48.502852], [-88.988857, 48.50267], [-88.989045, 48.502507], [-88.989167, 48.502364], [-88.989281, 48.502257], [-88.989389, 48.502186], [-88.98949, 48.50215], [-88.989585, 48.50215], [-88.989676, 48.502128], [-88.989763, 48.502083], [-88.989848, 48.502016], [-88.989928, 48.501927], [-88.990137, 48.501804], [-88.990474, 48.501648], [-88.990939, 48.501458], [-88.991533, 48.501235], [-88.991991, 48.501052], [-88.992314, 48.50091], [-88.992503, 48.500807], [-88.992557, 48.500745], [-88.992672, 48.500684], [-88.992847, 48.500626], [-88.993083, 48.500571], [-88.993379, 48.500517], [-88.993622, 48.50045], [-88.993811, 48.50037], [-88.993945, 48.500276], [-88.994026, 48.500169], [-88.994121, 48.500089], [-88.994229, 48.500035], [-88.99435, 48.500009], [-88.994485, 48.500009], [-88.994603, 48.499986], [-88.994704, 48.499942], [-88.994788, 48.499875], [-88.994855, 48.499786], [-88.994899, 48.499763], [-88.994919, 48.499808], [-88.994916, 48.499919], [-88.994889, 48.500098], [-88.994835, 48.500256], [-88.994754, 48.500394], [-88.994646, 48.500513], [-88.994512, 48.500611], [-88.994282, 48.50072], [-88.993959, 48.500841], [-88.993541, 48.500972], [-88.993029, 48.501115], [-88.99252, 48.501278], [-88.992014, 48.501461], [-88.991512, 48.501664], [-88.991014, 48.501887], [-88.990474, 48.502161], [-88.989895, 48.502487], [-88.989275, 48.502864], [-88.988614, 48.503292], [-88.988098, 48.503613], [-88.987728, 48.503827], [-88.987502, 48.503934], [-88.987421, 48.503934]]}}, {"type": "Feature", "properties": {"lead": 0, "band": "edge"}, "geometry": {"type": "LineString", "coordinates": [[-89.014725, 48.504527], [-89.014604, 48.504518], [-89.014638, 48.50446], [-89.014826, 48.504353], [-89.01517, 48.504197], [-89.015669, 48.503992], [-89.016164, 48.503809], [-89.016656, 48.503649], [-89.017145, 48.50351], [-89.01763, 48.503394], [-89.017886, 48.503361], [-89.017913, 48.50341], [-89.017711, 48.503542], [-89.01728, 48.503756], [-89.016912, 48.503923], [-89.016609, 48.504043], [-89.01637, 48.504117], [-89.016195, 48.504144], [-89.016053, 48.504177], [-89.015945, 48.504217], [-89.015871, 48.504264], [-89.015831, 48.504318], [-89.015746, 48.504358], [-89.015618, 48.504385], [-89.015446, 48.504398], [-89.015231, 48.504398], [-89.015069, 48.504407], [-89.014961, 48.504425], [-89.014907, 48.504452], [-89.014907, 48.504487], [-89.014877, 48.504512], [-89.014816, 48.504525], [-89.014725, 48.504527]]}}, {"type": "Feature", "properties": {"lead": 0, "band": "edge"}, "geometry": {"type": "LineString", "coordinates": [[-89.000611, 48.510977], [-89.000524, 48.510959], [-89.000524, 48.510932], [-89.000611, 48.510897], [-89.000787, 48.510852], [-89.000975, 48.510772], [-89.001178, 48.510656], [-89.001393, 48.510504], [-89.001622, 48.510317], [-89.00204, 48.510087], [-89.002647, 48.509815], [-89.003442, 48.509501], [-89.004426, 48.509144], [-89.005249, 48.508821], [-89.005909, 48.508531], [-89.006408, 48.508274], [-89.006745, 48.508051], [-89.007048, 48.507868], [-89.007318, 48.507726], [-89.007554, 48.507623], [-89.007756, 48.507561], [-89.008012, 48.507436], [-89.008322, 48.507248], [-89.008686, 48.506999], [-89.009104, 48.506686], [-89.009515, 48.506414], [-89.00992, 48.506182], [-89.010317, 48.50599], [-89.010708, 48.505839], [-89.01115, 48.505692], [-89.011642, 48.505549], [-89.012184, 48.505411], [-89.012777, 48.505277], [-89.013269, 48.505143], [-89.01366, 48.505009], [-89.01395, 48.504875], [-89.014139, 48.504741], [-89.01427, 48.504668], [-89.014344, 48.504655], [-89.014361, 48.504701], [-89.014321, 48.504808], [-89.014267, 48.504889], [-89.014199, 48.504942], [-89.014119, 48.504969], [-89.014024, 48.504969], [-89.013923, 48.504998], [-89.013815, 48.505056], [-89.013701, 48.505143], [-89.013579, 48.505259], [-89.013465, 48.505339], [-89.013357, 48.505384], [-89.013256, 48.505393], [-89.013162, 48.505366], [-89.013071, 48.505368], [-89.012983, 48.505399], [-89.012899, 48.50546], [-89.012818, 48.505549], [-89.012723, 48.505616], [-89.012616, 48.50566], [-89.012494, 48.505683], [-89.012359, 48.505683], [-89.01211, 48.505745], [-89.011746, 48.50587], [-89.011268, 48.506057], [-89.010674, 48.506307], [-89.010219, 48.506517], [-89.009903, 48.506686], [-89.009724, 48.506816], [-89.009684, 48.506905], [-89.009458, 48.50707], [-89.009047, 48.507311], [-89.00845, 48.507627], [-89.007668, 48.50802], [-89.007082, 48.50833], [-89.006691, 48.508557], [-89.006496, 48.508702], [-89.006496, 48.508765], [-89.006411, 48.508832], [-89.006243, 48.508903], [-89.00599, 48.508979], [-89.005653, 48.509059], [-89.005356, 48.509148], [-89.0051, 48.509246], [-89.004885, 48.509354], [-89.004709, 48.509469], [-89.004494, 48.509563], [-89.004238, 48.509635], [-89.003941, 48.509684], [-89.003604, 48.50971], [-89.003318, 48.509759], [-89.003082, 48.509831], [-89.002896, 48.509924], [-89.002762, 48.51004], [-89.002617, 48.510134], [-89.002462, 48.510205], [-89.002296, 48.510254], [-89.002121, 48.510281], [-89.00198, 48.51033], [-89.001872, 48.510402], [-89.001798, 48.510495], [-89.001757, 48.510611], [-89.001686, 48.510712], [-89.001585, 48.510796], [-89.001454, 48.510866], [-89.001292, 48.510919], [-89.001127, 48.510957], [-89.000959, 48.510979], [-89.000787, 48.510986], [-89.000611, 48.510977]]}}, {"type": "Feature", "properties": {"lead": 0, "band": "edge"}, "geometry": {"type": "LineString", "coordinates": [[-88.996797, 48.512391], [-88.996601, 48.512382], [-88.996466, 48.512364], [-88.996392, 48.512337], [-88.996379, 48.512302], [-88.996446, 48.512266], [-88.996594, 48.51223], [-88.996824, 48.512195], [-88.997134, 48.512159], [-88.997433, 48.51209], [-88.997723, 48.511987], [-88.998003, 48.511851], [-88.998273, 48.511682], [-88.998556, 48.511535], [-88.998852, 48.51141], [-88.999162, 48.511307], [-88.999486, 48.511227], [-88.999718, 48.511196], [-88.99986, 48.511213], [-88.99991, 48.51128], [-88.99987, 48.511396], [-88.999691, 48.511535], [-88.999375, 48.511695], [-88.99892, 48.511878], [-88.998327, 48.512083], [-88.997818, 48.512237], [-88.997393, 48.51234], [-88.997053, 48.512391], [-88.996797, 48.512391]]}}, {"type": "Feature", "properties": {"lead": 24, "band": "edge"}, "geometry": {"type": "LineString", "coordinates": [[-89.058104, 48.488962], [-89.058506, 48.488879], [-89.058917, 48.488821], [-89.059338, 48.488788], [-89.059769, 48.488779], [-89.06018, 48.488801], [-89.060571, 48.488855], [-89.060942, 48.48894], [-89.061293, 48.489056], [-89.06137, 48.489145], [-89.061175, 48.489207], [-89.060706, 48.489243], [-89.059965, 48.489252], [-89.059409, 48.489268], [-89.059038, 48.48929], [-89.058853, 48.489319], [-89.058853, 48.489355], [-89.058809, 48.489372], [-89.058721, 48.489372], [-89.05859, 48.489355], [-89.058415, 48.489319], [-89.058283, 48.489301], [-89.058195, 48.489301], [-89.058152, 48.489319], [-89.058152, 48.489355], [-89.058108, 48.489388], [-89.05802, 48.489419], [-89.057889, 48.489448], [-89.057714, 48.489475], [-89.057508, 48.489538], [-89.057272, 48.489636], [-89.057006, 48.48977], [-89.056709, 48.489939], [-89.056477, 48.490102], [-89.056308, 48.490258], [-89.056204, 48.490408], [-89.056163, 48.49055], [-89.056153, 48.4907], [-89.056173, 48.490856], [-89.056224, 48.491019], [-89.056305, 48.491188], [-89.056332, 48.491282], [-89.056305, 48.4913], [-89.056224, 48.491242], [-89.056089, 48.491108], [-89.055988, 48.490965], [-89.055921, 48.490814], [-89.055887, 48.490653], [-89.055887, 48.490483], [-89.055964, 48.490294], [-89.05612, 48.490084], [-89.056352, 48.489854], [-89.056662, 48.489604], [-89.056992, 48.48939], [-89.057127, 48.489322], [-89.057127, 48.489355], [-89.057137, 48.489372], [-89.057157, 48.489372], [-89.057188, 48.489355], [-89.057228, 48.489319], [-89.057248, 48.489292], [-89.057248, 48.489274], [-89.057233, 48.489268], [-89.057343, 48.489212], [-89.057714, 48.489069], [-89.058104, 48.488962]]}}, {"type": "Feature", "properties": {"lead": 24, "band": "edge"}, "geometry": {"type": "LineString", "coordinates": [[-89.05094, 48.496052], [-89.050805, 48.496007], [-89.050842, 48.495933], [-89.051051, 48.495831], [-89.051432, 48.495699], [-89.051984, 48.495538], [-89.052389, 48.495434], [-89.052645, 48.495385], [-89.052753, 48.495391], [-89.052712, 48.495454], [-89.052618, 48.495514], [-89.05247, 48.495572], [-89.052268, 48.495628], [-89.052011, 48.495681], [-89.051819, 48.495735], [-89.051691, 48.495788], [-89.051627, 48.495842], [-89.051627, 48.495895], [-89.051597, 48.495936], [-89.051536, 48.495962], [-89.051445, 48.495976], [-89.051324, 48.495976], [-89.051233, 48.495985], [-89.051172, 48.496002], [-89.051142, 48.496029], [-89.051142, 48.496065], [-89.051108, 48.496081], [-89.051041, 48.496076], [-89.05094, 48.496052]]}}, {"type": "Feature", "properties": {"lead": 24, "band": "edge"}, "geometry": {"type": "LineString", "coordinates": [[-89.031447, 48.500107], [-89.031259, 48.500053], [-89.031158, 48.499993], [-89.031144, 48.499926], [-89.031218, 48.499852], [-89.03138, 48.499772], [-89.0317, 48.499692], [-89.032179, 48.499612], [-89.032816, 48.499531], [-89.033611, 48.499451], [-89.034339, 48.499353], [-89.034999, 48.499237], [-89.035593, 48.499103], [-89.036118, 48.498951], [-89.036829, 48.498829], [-89.037726, 48.498735], [-89.038808, 48.49867], [-89.040075, 48.498635], [-89.0412, 48.498572], [-89.042184, 48.498483], [-89.043027, 48.498367], [-89.043728, 48.498224], [-89.044388, 48.498057], [-89.045008, 48.497865], [-89.045588, 48.497649], [-89.046127, 48.497408], [-89.046734, 48.497165], [-89.047408, 48.496919], [-89.048149, 48.496672], [-89.048958, 48.496422], [-89.049592, 48.49623], [-89.05005, 48.496096], [-89.050333, 48.49602], [-89.050441, 48.496002], [-89.050532, 48.496005], [-89.050606, 48.496027], [-89.050663, 48.496069], [-89.050704, 48.496132], [-89.050758, 48.496179], [-89.050825, 48.49621], [-89.050906, 48.496226], [-89.051, 48.496226], [-89.051017, 48.496239], [-89.050957, 48.496266], [-89.050818, 48.496306], [-89.050603, 48.496359], [-89.050417, 48.496422], [-89.050262, 48.496493], [-89.050138, 48.496574], [-89.050043, 48.496663], [-89.049834, 48.49675], [-89.049511, 48.496835], [-89.049073, 48.496917], [-89.04852, 48.496997], [-89.048085, 48.49708], [-89.047769, 48.497165], [-89.04757, 48.497252], [-89.047489, 48.497341], [-89.047374, 48.497401], [-89.047226, 48.497432], [-89.047044, 48.497435], [-89.046828, 48.497408], [-89.046656, 48.497414], [-89.046528, 48.497455], [-89.046444, 48.497528], [-89.046404, 48.497635], [-89.046306, 48.497725], [-89.046151, 48.497796], [-89.045939, 48.497849], [-89.045669, 48.497885], [-89.045447, 48.497939], [-89.045271, 48.49801], [-89.045143, 48.498099], [-89.045062, 48.498206], [-89.044928, 48.498287], [-89.044739, 48.49834], [-89.044496, 48.498367], [-89.0442, 48.498367], [-89.043977, 48.498376], [-89.043829, 48.498394], [-89.043755, 48.49842], [-89.043755, 48.498456], [-89.043657, 48.498503], [-89.043462, 48.498561], [-89.043168, 48.49863], [-89.042777, 48.49871], [-89.04242, 48.498764], [-89.042097, 48.498791], [-89.041807, 48.498791], [-89.041551, 48.498764], [-89.041338, 48.498757], [-89.04117, 48.498771], [-89.041045, 48.498804], [-89.040964, 48.498858], [-89.04084, 48.498898], [-89.040671, 48.498925], [-89.040459, 48.498938], [-89.040203, 48.498938], [-89.040017, 48.498947], [-89.039903, 48.498965], [-89.039859, 48.498991], [-89.039886, 48.499027], [-89.039694, 48.499067], [-89.039283, 48.499112], [-89.038653, 48.499161], [-89.037803, 48.499215], [-89.037112, 48.499277], [-89.03658, 48.499348], [-89.036206, 48.499429], [-89.03599, 48.499518], [-89.035582, 48.499598], [-89.034983, 48.49967], [-89.034191, 48.499732], [-89.033207, 48.499786], [-89.032469, 48.499846], [-89.031976, 48.499913], [-89.03173, 48.499986], [-89.03173, 48.500067], [-89.031683, 48.500113], [-89.031589, 48.500127], [-89.031447, 48.500107]]}}, {"type": "Feature", "properties": {"lead": 24, "band": "edge"}, "geometry": {"type": "LineString", "coordinates": [[-89.026069, 48.501026], [-89.026146, 48.500959], [-89.026301, 48.500861], [-89.026534, 48.500731], [-89.026844, 48.500571], [-89.027188, 48.500426], [-89.027565, 48.500296], [-89.027976, 48.500183], [-89.028421, 48.500084], [-89.028812, 48.500013], [-89.029149, 48.499968], [-89.029432, 48.499951], [-89.029661, 48.49996], [-89.029769, 48.499968], [-89.029756, 48.499977], [-89.029621, 48.499986], [-89.029365, 48.499995], [-89.029173, 48.500013], [-89.029045, 48.50004], [-89.028981, 48.500076], [-89.028981, 48.50012], [-89.02895, 48.500154], [-89.02889, 48.500176], [-89.028799, 48.500187], [-89.028677, 48.500187], [-89.028586, 48.500196], [-89.028526, 48.500214], [-89.028495, 48.500241], [-89.028495, 48.500276], [-89.028451, 48.500303], [-89.028364, 48.500321], [-89.028232, 48.50033], [-89.028057, 48.50033], [-89.027882, 48.500372], [-89.027707, 48.500457], [-89.027531, 48.500584], [-89.027356, 48.500754], [-89.027161, 48.500887], [-89.026945, 48.500986], [-89.026709, 48.501048], [-89.026453, 48.501075], [-89.026261, 48.501086], [-89.026133, 48.501081], [-89.026069, 48.501061], [-89.026069, 48.501026]]}}, {"type": "Feature", "properties": {"lead": 24, "band": "edge"}, "geometry": {"type": "LineString", "coordinates": [[-89.02468, 48.501534], [-89.024842, 48.501485], [-89.024923, 48.501476], [-89.024923, 48.501507], [-89.024842, 48.501579], [-89.024758, 48.501632], [-89.02467, 48.501668], [-89.024579, 48.501686], [-89.024485, 48.501686], [-89.024397, 48.50169], [-89.024316, 48.501699], [-89.024242, 48.501713], [-89.024175, 48.501731], [-89.024185, 48.501722], [-89.024273, 48.501686], [-89.024438, 48.501623], [-89.02468, 48.501534]]}}, {"type": "Feature", "properties": {"lead": 24, "band": "edge"}, "geometry": {"type": "LineString", "coordinates": [[-89.022294, 48.501994], [-89.022294, 48.501985], [-89.022328, 48.501974], [-89.022395, 48.50196], [-89.022497, 48.501945], [-89.022631, 48.501927], [-89.022699, 48.50192], [-89.022699, 48.501925], [-89.022631, 48.50194], [-89.022497, 48.501967], [-89.022395, 48.501985], [-89.022328, 48.501994], [-89.022294, 48.501994]]}}, {"type": "Feature", "properties": {"lead": 24, "band": "edge"}, "geometry": {"type": "LineString", "coordinates": [[-88.990953, 48.499719], [-88.992052, 48.499304], [-88.992874, 48.499018], [-88.99342, 48.498862], [-88.993689, 48.498835], [-88.993925, 48.498831], [-88.994127, 48.498849], [-88.994296, 48.498889], [-88.994431, 48.498951], [-88.994502, 48.499014], [-88.994508, 48.499076], [-88.994451, 48.499139], [-88.99433, 48.499201], [-88.994208, 48.499235], [-88.994087, 48.499239], [-88.993966, 48.499215], [-88.993844, 48.499161], [-88.993699, 48.499128], [-88.993531, 48.499114], [-88.993339, 48.499121], [-88.993123, 48.499148], [-88.992951, 48.499181], [-88.992823, 48.499221], [-88.992739, 48.499268], [-88.992699, 48.499322], [-88.992624, 48.499368], [-88.992517, 48.499409], [-88.992375, 48.499442], [-88.9922, 48.499469], [-88.992058, 48.499511], [-88.99195, 48.499569], [-88.991876, 48.499643], [-88.991836, 48.499732], [-88.991728, 48.499808], [-88.991553, 48.49987], [-88.99131, 48.499919], [-88.991, 48.499955], [-88.990737, 48.500009], [-88.990522, 48.50008], [-88.990353, 48.500169], [-88.990232, 48.500276], [-88.989982, 48.500397], [-88.989605, 48.500531], [-88.989099, 48.500678], [-88.988466, 48.500838], [-88.988334, 48.500823], [-88.988705, 48.500631], [-88.989578, 48.500263], [-88.990953, 48.499719]]}}, {"type": "Feature", "properties": {"lead": 24, "band": "edge"}, "geometry": {"type": "LineString", "coordinates": [[-88.987421, 48.503934], [-88.98736, 48.503914], [-88.98732, 48.503874], [-88.9873, 48.503814], [-88.9873, 48.503733], [-88.987397, 48.503617], [-88.987593, 48.503466], [-88.987886, 48.503278], [-88.988277, 48.503055], [-88.98859, 48.502859], [-88.988826, 48.50269], [-88.988985, 48.502547], [-88.989066, 48.502431], [-88.989147, 48.502344], [-88.989227, 48.502286], [-88.989308, 48.502257], [-88.989389, 48.502257], [-88.989484, 48.502228], [-88.989591, 48.50217], [-88.989713, 48.502083], [-88.989848, 48.501967], [-88.990056, 48.501831], [-88.99034, 48.501675], [-88.990697, 48.501499], [-88.991128, 48.501302], [-88.99158, 48.501119], [-88.992052, 48.50095], [-88.992544, 48.500794], [-88.993056, 48.500651], [-88.99346, 48.500517], [-88.993757, 48.500392], [-88.993945, 48.500276], [-88.994026, 48.500169], [-88.994121, 48.500089], [-88.994229, 48.500035], [-88.99435, 48.500009], [-88.994485, 48.500009], [-88.994603, 48.499986], [-88.994704, 48.499942], [-88.994788, 48.499875], [-88.994855, 48.499786], [-88.994899, 48.499763], [-88.994919, 48.499808], [-88.994916, 48.499919], [-88.994889, 48.500098], [-88.994835, 48.500256], [-88.994754, 48.500394], [-88.994646, 48.500513], [-88.994512, 48.500611], [-88.994282, 48.50072], [-88.993959, 48.500841], [-88.993541, 48.500972], [-88.993029, 48.501115], [-88.99252, 48.501278], [-88.992014, 48.501461], [-88.991512, 48.501664], [-88.991014, 48.501887], [-88.990474, 48.502161], [-88.989895, 48.502487], [-88.989275, 48.502864], [-88.988614, 48.503292], [-88.988098, 48.503613], [-88.987728, 48.503827], [-88.987502, 48.503934], [-88.987421, 48.503934]]}}, {"type": "Feature", "properties": {"lead": 24, "band": "edge"}, "geometry": {"type": "LineString", "coordinates": [[-89.001029, 48.510879], [-89.000908, 48.51087], [-89.000884, 48.510816], [-89.000959, 48.510718], [-89.00113, 48.510576], [-89.0014, 48.510388], [-89.001858, 48.510154], [-89.002505, 48.509873], [-89.003341, 48.509545], [-89.004366, 48.509171], [-89.005218, 48.508834], [-89.005899, 48.508535], [-89.006408, 48.508274], [-89.006745, 48.508051], [-89.007048, 48.507868], [-89.007318, 48.507726], [-89.007554, 48.507623], [-89.007756, 48.507561], [-89.008012, 48.507436], [-89.008322, 48.507248], [-89.008686, 48.506999], [-89.009104, 48.506686], [-89.009515, 48.506414], [-89.00992, 48.506182], [-89.010317, 48.50599], [-89.010708, 48.505839], [-89.01115, 48.505692], [-89.011642, 48.505549], [-89.012184, 48.505411], [-89.012777, 48.505277], [-89.013263, 48.505143], [-89.01364, 48.505009], [-89.01391, 48.504875], [-89.014071, 48.504741], [-89.014317, 48.50459], [-89.014648, 48.50442], [-89.015062, 48.504233], [-89.015561, 48.504028], [-89.016063, 48.503843], [-89.016569, 48.503678], [-89.017077, 48.503533], [-89.01759, 48.503408], [-89.017954, 48.503332], [-89.018169, 48.503305], [-89.018237, 48.503327], [-89.018156, 48.503399], [-89.018072, 48.503452], [-89.017984, 48.503488], [-89.017893, 48.503506], [-89.017799, 48.503506], [-89.017728, 48.503519], [-89.017681, 48.503546], [-89.017657, 48.503586], [-89.017657, 48.50364], [-89.017603, 48.503689], [-89.017495, 48.503733], [-89.017334, 48.503774], [-89.017118, 48.503809], [-89.016916, 48.503863], [-89.016727, 48.503934], [-89.016552, 48.504023], [-89.01639, 48.50413], [-89.016171, 48.504226], [-89.015895, 48.504311], [-89.015561, 48.504385], [-89.01517, 48.504447], [-89.014803, 48.50455], [-89.014459, 48.504692], [-89.014139, 48.504875], [-89.013842, 48.505098], [-89.013586, 48.505266], [-89.01337, 48.505377], [-89.013195, 48.505433], [-89.01306, 48.505433], [-89.012949, 48.505448], [-89.012862, 48.50548], [-89.012798, 48.505527], [-89.012757, 48.505589], [-89.012599, 48.505669], [-89.012322, 48.505767], [-89.011928, 48.505883], [-89.011416, 48.506017], [-89.010988, 48.506153], [-89.010644, 48.506292], [-89.010385, 48.506432], [-89.010209, 48.506575], [-89.010058, 48.506682], [-89.00993, 48.506753], [-89.009825, 48.506789], [-89.009744, 48.506789], [-89.009684, 48.506804], [-89.009643, 48.506836], [-89.009623, 48.506883], [-89.009623, 48.506945], [-89.009569, 48.507012], [-89.009461, 48.507083], [-89.009299, 48.507159], [-89.009084, 48.507239], [-89.008912, 48.507322], [-89.008784, 48.507407], [-89.0087, 48.507494], [-89.008659, 48.507583], [-89.008575, 48.507663], [-89.008447, 48.507734], [-89.008275, 48.507797], [-89.008059, 48.50785], [-89.0078, 48.507955], [-89.007496, 48.508111], [-89.007149, 48.508319], [-89.006758, 48.508577], [-89.00625, 48.508829], [-89.005623, 48.509075], [-89.004878, 48.509313], [-89.004015, 48.509545], [-89.003368, 48.509733], [-89.002937, 48.509875], [-89.002721, 48.509973], [-89.002721, 48.510027], [-89.002691, 48.510067], [-89.00263, 48.510094], [-89.002539, 48.510107], [-89.002418, 48.510107], [-89.002263, 48.510156], [-89.002074, 48.510254], [-89.001852, 48.510402], [-89.001595, 48.510598], [-89.001373, 48.510743], [-89.001184, 48.510837], [-89.001029, 48.510879]]}}, {"type": "Feature", "properties": {"lead": 24, "band": "edge"}, "geometry": {"type": "LineString", "coordinates": [[-88.997518, 48.512119], [-88.997417, 48.512112], [-88.997376, 48.512108], [-88.997396, 48.512105], [-88.997477, 48.512105], [-88.997605, 48.512063], [-88.997781, 48.511978], [-88.998003, 48.511851], [-88.998273, 48.511682], [-88.998556, 48.511535], [-88.998852, 48.51141], [-88.999162, 48.511307], [-88.999486, 48.511227], [-88.999718, 48.511189], [-88.99986, 48.511193], [-88.99991, 48.51124], [-88.99987, 48.511329], [-88.999722, 48.511439], [-88.999466, 48.511568], [-88.999102, 48.511717], [-88.99863, 48.511887], [-88.998236, 48.512012], [-88.997919, 48.512092], [-88.99768, 48.512128], [-88.997518, 48.512119]]}}, {"type": "Feature", "properties": {"lead": 24, "band": "edge"}, "geometry": {"type": "LineString", "coordinates": [[-88.996655, 48.512284], [-88.996534, 48.512282], [-88.996453, 48.512277], [-88.996412, 48.51227], [-88.996412, 48.512261], [-88.996453, 48.512248], [-88.996534, 48.51223], [-88.996655, 48.512208], [-88.996817, 48.512181], [-88.996938, 48.51217], [-88.997019, 48.512175], [-88.997059, 48.512195], [-88.997059, 48.51223], [-88.997019, 48.512257], [-88.996938, 48.512275], [-88.996817, 48.512284], [-88.996655, 48.512284]]}}, {"type": "Feature", "properties": {"lead": 48, "band": "edge"}, "geometry": {"type": "LineString", "coordinates": [[-89.05743, 48.489274], [-89.057447, 48.48921], [-89.057575, 48.489134], [-89.057815, 48.489047], [-89.058165, 48.488949], [-89.058586, 48.488882], [-89.059078, 48.488846], [-89.059641, 48.488841], [-89.060275, 48.488868], [-89.060548, 48.488904], [-89.06046, 48.488949], [-89.060012, 48.489002], [-89.059203, 48.489065], [-89.058576, 48.489127], [-89.058131, 48.48919], [-89.057869, 48.489252], [-89.057788, 48.489314], [-89.057703, 48.489348], [-89.057616, 48.489352], [-89.057525, 48.489328], [-89.05743, 48.489274]]}}, {"type": "Feature", "properties": {"lead": 48, "band": "edge"}, "geometry": {"type": "LineString", "coordinates": [[-89.056224, 48.489921], [-89.056217, 48.489877], [-89.056285, 48.489796], [-89.056426, 48.48968], [-89.056642, 48.489529], [-89.056834, 48.489422], [-89.057002, 48.489359], [-89.057147, 48.489341], [-89.057269, 48.489368], [-89.057339, 48.489408], [-89.05736, 48.489462], [-89.057329, 48.489529], [-89.057248, 48.489609], [-89.057154, 48.489669], [-89.057046, 48.489709], [-89.056925, 48.489729], [-89.05679, 48.489729], [-89.056679, 48.489743], [-89.056591, 48.48977], [-89.056527, 48.48981], [-89.056487, 48.489863], [-89.056436, 48.489901], [-89.056376, 48.489924], [-89.056305, 48.48993], [-89.056224, 48.489921]]}}, {"type": "Feature", "properties": {"lead": 48, "band": "edge"}, "geometry": {"type": "LineString", "coordinates": [[-89.056008, 48.49006], [-89.056032, 48.490019], [-89.056052, 48.489993], [-89.056069, 48.489979], [-89.056082, 48.489979], [-89.056082, 48.489993], [-89.056069, 48.490019], [-89.056042, 48.49006], [-89.056002, 48.490113], [-89.055978, 48.49014], [-89.055971, 48.49014], [-89.055981, 48.490113], [-89.056008, 48.49006]]}}, {"type": "Feature", "properties": {"lead": 48, "band": "edge"}, "geometry": {"type": "LineString", "coordinates": [[-89.05589, 48.490356], [-89.055897, 48.490272], [-89.055907, 48.490229], [-89.055921, 48.490229], [-89.055927, 48.490272], [-89.055927, 48.490356], [-89.055921, 48.490483], [-89.055907, 48.490653], [-89.055897, 48.490738], [-89.05589, 48.490738], [-89.055887, 48.490653], [-89.055887, 48.490483], [-89.05589, 48.490356]]}}, {"type": "Feature", "properties": {"lead": 48, "band": "edge"}, "geometry": {"type": "LineString", "coordinates": [[-89.048298, 48.496721], [-89.048513, 48.496623], [-89.048924, 48.49648], [-89.049531, 48.496292], [-89.049976, 48.496172], [-89.050259, 48.496118], [-89.05038, 48.496132], [-89.05034, 48.496212], [-89.050232, 48.496286], [-89.050057, 48.496353], [-89.049814, 48.496413], [-89.049504, 48.496466], [-89.049251, 48.496522], [-89.049056, 48.49658], [-89.048918, 48.49664], [-89.048837, 48.496703], [-89.048732, 48.496748], [-89.048604, 48.496774], [-89.048453, 48.496783], [-89.048277, 48.496774], [-89.048298, 48.496721]]}}, {"type": "Feature", "properties": {"lead": 48, "band": "edge"}, "geometry": {"type": "LineString", "coordinates": [[-89.047152, 48.496988], [-89.047206, 48.496971], [-89.047314, 48.496944], [-89.047475, 48.496908], [-89.047691, 48.496863], [-89.047799, 48.496843], [-89.047799, 48.496848], [-89.047691, 48.496877], [-89.047475, 48.49693], [-89.047314, 48.496968], [-89.047206, 48.496991], [-89.047152, 48.496997], [-89.047152, 48.496988]]}}, {"type": "Feature", "properties": {"lead": 48, "band": "edge"}, "geometry": {"type": "LineString", "coordinates": [[-89.046899, 48.497084], [-89.046933, 48.497071], [-89.046983, 48.497055], [-89.047051, 48.497037], [-89.047084, 48.497031], [-89.047084, 48.497035], [-89.047051, 48.497051], [-89.046983, 48.497078], [-89.046933, 48.497095], [-89.046899, 48.497104], [-89.046882, 48.497104], [-89.046882, 48.497095], [-89.046899, 48.497084]]}}, {"type": "Feature", "properties": {"lead": 48, "band": "edge"}, "geometry": {"type": "LineString", "coordinates": [[-89.046262, 48.497381], [-89.046316, 48.497372], [-89.046343, 48.497385], [-89.046343, 48.497421], [-89.046316, 48.497452], [-89.046262, 48.497479], [-89.046181, 48.497501], [-89.046073, 48.497519], [-89.046019, 48.497519], [-89.046019, 48.497501], [-89.046073, 48.497466], [-89.046181, 48.497412], [-89.046262, 48.497381]]}}, {"type": "Feature", "properties": {"lead": 48, "band": "edge"}, "geometry": {"type": "LineString", "coordinates": [[-89.034555, 48.49938], [-89.034278, 48.499371], [-89.03417, 48.499362], [-89.034231, 48.499353], [-89.03446, 48.499344], [-89.034764, 48.499299], [-89.035141, 48.499219], [-89.035593, 48.499103], [-89.036118, 48.498951], [-89.036651, 48.498835], [-89.03719, 48.498755], [-89.037736, 48.49871], [-89.038289, 48.498702], [-89.038585, 48.498704], [-89.038626, 48.498717], [-89.03841, 48.498742], [-89.037938, 48.498777], [-89.037487, 48.49884], [-89.037055, 48.498929], [-89.036644, 48.499045], [-89.036253, 48.499188], [-89.035849, 48.499293], [-89.035431, 48.49936], [-89.034999, 48.499389], [-89.034555, 48.49938]]}}, {"type": "Feature", "properties": {"lead": 48, "band": "edge"}, "geometry": {"type": "LineString", "coordinates": [[-89.032799, 48.499476], [-89.032886, 48.499462], [-89.033018, 48.499447], [-89.033193, 48.499429], [-89.033281, 48.499422], [-89.033281, 48.499426], [-89.033193, 48.499442], [-89.033018, 48.499469], [-89.032886, 48.499487], [-89.032799, 48.499496], [-89.032755, 48.499496], [-89.032755, 48.499487], [-89.032799, 48.499476]]}}, {"type": "Feature", "properties": {"lead": 48, "band": "edge"}, "geometry": {"type": "LineString", "coordinates": [[-89.029129, 48.500006], [-89.028994, 48.500002], [-89.028927, 48.499995], [-89.028927, 48.499986], [-89.028984, 48.499977], [-89.029098, 48.499968], [-89.02927, 48.49996], [-89.029499, 48.499951], [-89.029681, 48.499948], [-89.029816, 48.499953], [-89.029904, 48.499964], [-89.029944, 48.499982], [-89.029907, 48.499995], [-89.029793, 48.500004], [-89.029601, 48.500009], [-89.029331, 48.500009], [-89.029129, 48.500006]]}}, {"type": "Feature", "properties": {"lead": 48, "band": "edge"}, "geometry": {"type": "LineString", "coordinates": [[-89.026284, 48.500878], [-89.026305, 48.500867], [-89.026345, 48.500854], [-89.026406, 48.500838], [-89.026487, 48.50082], [-89.026527, 48.500814], [-89.026527, 48.500818], [-89.026487, 48.500834], [-89.026406, 48.500861], [-89.026345, 48.500878], [-89.026305, 48.500887], [-89.026284, 48.500887], [-89.026284, 48.500878]]}}, {"type": "Feature", "properties": {"lead": 48, "band": "edge"}, "geometry": {"type": "LineString", "coordinates": [[-88.987859, 48.500961], [-88.9879, 48.500921], [-88.988014, 48.500865], [-88.988203, 48.500794], [-88.988368, 48.500738], [-88.98851, 48.500698], [-88.988628, 48.500673], [-88.988722, 48.500664], [-88.988958, 48.500577], [-88.989335, 48.500412], [-88.989854, 48.500169], [-88.990515, 48.499848], [-88.991135, 48.499571], [-88.991715, 48.499339], [-88.992254, 48.499152], [-88.992752, 48.499009], [-88.993191, 48.498913], [-88.993568, 48.498864], [-88.993885, 48.498862], [-88.994141, 48.498907], [-88.994309, 48.498947], [-88.99439, 48.498983], [-88.994384, 48.499014], [-88.994289, 48.499041], [-88.994218, 48.499074], [-88.994171, 48.499114], [-88.994148, 48.499161], [-88.994148, 48.499215], [-88.994084, 48.499241], [-88.993956, 48.499241], [-88.993764, 48.499215], [-88.993507, 48.499161], [-88.993261, 48.499134], [-88.993025, 48.499134], [-88.9928, 48.499161], [-88.992584, 48.499215], [-88.992392, 48.499268], [-88.992223, 48.499322], [-88.992078, 48.499375], [-88.991957, 48.499429], [-88.991866, 48.499484], [-88.991806, 48.499542], [-88.991775, 48.499603], [-88.991775, 48.499665], [-88.991731, 48.499719], [-88.991644, 48.499763], [-88.991512, 48.499799], [-88.991337, 48.499826], [-88.991206, 48.499855], [-88.991118, 48.499886], [-88.991074, 48.499919], [-88.991074, 48.499955], [-88.99102, 48.499982], [-88.990912, 48.5], [-88.990751, 48.500009], [-88.990535, 48.500009], [-88.990353, 48.500035], [-88.990205, 48.500089], [-88.99009, 48.500169], [-88.990009, 48.500276], [-88.989861, 48.500377], [-88.989645, 48.50047], [-88.989362, 48.500557], [-88.989012, 48.500638], [-88.988729, 48.500713], [-88.988513, 48.500785], [-88.988365, 48.500852], [-88.988284, 48.500914], [-88.988196, 48.500959], [-88.988102, 48.500986], [-88.988001, 48.500994], [-88.987893, 48.500986], [-88.987859, 48.500961]]}}, {"type": "Feature", "properties": {"lead": 48, "band": "edge"}, "geometry": {"type": "LineString", "coordinates": [[-88.98736, 48.503914], [-88.98732, 48.503874], [-88.9873, 48.503814], [-88.9873, 48.503733], [-88.987472, 48.503559], [-88.987815, 48.503292], [-88.988331, 48.50293], [-88.989018, 48.502475], [-88.989588, 48.502121], [-88.99004, 48.501867], [-88.990373, 48.501713], [-88.990589, 48.501659], [-88.990771, 48.501597], [-88.990919, 48.501525], [-88.991034, 48.501445], [-88.991115, 48.501356], [-88.991219, 48.501282], [-88.991347, 48.501224], [-88.991499, 48.501182], [-88.991674, 48.501155], [-88.991836, 48.501113], [-88.991984, 48.501055], [-88.992119, 48.500981], [-88.99224, 48.500892], [-88.992419, 48.500805], [-88.992655, 48.50072], [-88.992948, 48.500638], [-88.993298, 48.500557], [-88.993632, 48.500455], [-88.993949, 48.50033], [-88.994249, 48.500183], [-88.994532, 48.500013], [-88.994737, 48.499924], [-88.994866, 48.499915], [-88.994916, 48.499986], [-88.994889, 48.500138], [-88.994835, 48.500276], [-88.994754, 48.500401], [-88.994646, 48.500513], [-88.994512, 48.500611], [-88.994282, 48.50072], [-88.993959, 48.500841], [-88.993541, 48.500972], [-88.993029, 48.501115], [-88.99252, 48.501278], [-88.992014, 48.501461], [-88.991512, 48.501664], [-88.991014, 48.501887], [-88.990474, 48.502161], [-88.989895, 48.502487], [-88.989275, 48.502864], [-88.988614, 48.503292], [-88.988098, 48.503613], [-88.987728, 48.503827], [-88.987502, 48.503934], [-88.987421, 48.503934], [-88.98736, 48.503914]]}}, {"type": "Feature", "properties": {"lead": 48, "band": "edge"}, "geometry": {"type": "LineString", "coordinates": [[-89.015561, 48.504162], [-89.015574, 48.504117], [-89.01575, 48.504037], [-89.016087, 48.503921], [-89.016585, 48.503769], [-89.016896, 48.503675], [-89.017017, 48.50364], [-89.016949, 48.503662], [-89.016693, 48.503742], [-89.016478, 48.503823], [-89.016302, 48.503903], [-89.016168, 48.503983], [-89.016073, 48.504063], [-89.015965, 48.504121], [-89.015844, 48.504157], [-89.015709, 48.504171], [-89.015561, 48.504162]]}}, {"type": "Feature", "properties": {"lead": 48, "band": "edge"}, "geometry": {"type": "LineString", "coordinates": [[-89.014179, 48.504639], [-89.014206, 48.504621], [-89.014226, 48.504612], [-89.01424, 48.504612], [-89.014237, 48.504621], [-89.014216, 48.504639], [-89.014179, 48.504666], [-89.014125, 48.504701], [-89.014095, 48.504719], [-89.014088, 48.504719], [-89.014105, 48.504701], [-89.014146, 48.504666], [-89.014179, 48.504639]]}}, {"type": "Feature", "properties": {"lead": 48, "band": "edge"}, "geometry": {"type": "LineString", "coordinates": [[-89.006512, 48.508209], [-89.006681, 48.508107], [-89.006981, 48.507957], [-89.007412, 48.507761], [-89.00784, 48.507536], [-89.008265, 48.507282], [-89.008686, 48.506999], [-89.009104, 48.506686], [-89.009515, 48.506414], [-89.00992, 48.506182], [-89.010317, 48.50599], [-89.010708, 48.505839], [-89.011089, 48.505709], [-89.01146, 48.505602], [-89.01182, 48.505518], [-89.012171, 48.505455], [-89.012326, 48.505455], [-89.012285, 48.505518], [-89.012049, 48.505643], [-89.011618, 48.50583], [-89.011264, 48.50597], [-89.010988, 48.506064], [-89.010789, 48.506111], [-89.010668, 48.506111], [-89.010415, 48.506218], [-89.010031, 48.506432], [-89.009515, 48.506753], [-89.008868, 48.507181], [-89.008349, 48.507503], [-89.007958, 48.507717], [-89.007695, 48.507824], [-89.00756, 48.507824], [-89.007419, 48.507853], [-89.007271, 48.507911], [-89.007116, 48.507998], [-89.006954, 48.508114], [-89.006809, 48.508198], [-89.006681, 48.508252], [-89.00657, 48.508274], [-89.006475, 48.508265], [-89.006512, 48.508209]]}}, {"type": "Feature", "properties": {"lead": 48, "band": "edge"}, "geometry": {"type": "LineString", "coordinates": [[-89.005727, 48.508569], [-89.00601, 48.508457], [-89.006172, 48.508421], [-89.006212, 48.508461], [-89.006132, 48.508577], [-89.00599, 48.508682], [-89.005788, 48.508776], [-89.005525, 48.508858], [-89.005201, 48.50893], [-89.00506, 48.508937], [-89.0051, 48.508879], [-89.005323, 48.508756], [-89.005727, 48.508569]]}}, {"type": "Feature", "properties": {"lead": 48, "band": "edge"}, "geometry": {"type": "LineString", "coordinates": [[-89.004224, 48.509309], [-89.004292, 48.5093], [-89.004265, 48.509318], [-89.004143, 48.509362], [-89.004019, 48.5094], [-89.003891, 48.509432], [-89.003759, 48.509456], [-89.003624, 48.509474], [-89.003587, 48.509472], [-89.003648, 48.509449], [-89.003806, 48.509407], [-89.004062, 48.509345], [-89.004224, 48.509309]]}}, {"type": "Feature", "properties": {"lead": 48, "band": "edge"}, "geometry": {"type": "LineString", "coordinates": [[-89.002256, 48.509967], [-89.002296, 48.509953], [-89.002357, 48.509938], [-89.002438, 48.50992], [-89.002478, 48.509913], [-89.002478, 48.509918], [-89.002438, 48.509933], [-89.002357, 48.50996], [-89.002296, 48.509978], [-89.002256, 48.509987], [-89.002236, 48.509987], [-89.002236, 48.509978], [-89.002256, 48.509967]]}}, {"type": "Feature", "properties": {"lead": 48, "band": "edge"}, "geometry": {"type": "LineString", "coordinates": [[-89.001838, 48.510214], [-89.001767, 48.510212], [-89.00172, 48.510208], [-89.001697, 48.510201], [-89.001697, 48.510192], [-89.00173, 48.510174], [-89.001798, 48.510147], [-89.001899, 48.510112], [-89.002034, 48.510067], [-89.002125, 48.510047], [-89.002172, 48.510052], [-89.002175, 48.510081], [-89.002135, 48.510134], [-89.002081, 48.510174], [-89.002013, 48.510201], [-89.001933, 48.510214], [-89.001838, 48.510214]]}}, {"type": "Feature", "properties": {"lead": 48, "band": "edge"}, "geometry": {"type": "LineString", "coordinates": [[-89.001616, 48.510281], [-89.00167, 48.510272], [-89.001697, 48.510295], [-89.001697, 48.510348], [-89.00167, 48.510393], [-89.001616, 48.510428], [-89.001535, 48.510455], [-89.001427, 48.510473], [-89.001373, 48.510469], [-89.001373, 48.510442], [-89.001427, 48.510393], [-89.001535, 48.510321], [-89.001616, 48.510281]]}}, {"type": "Feature", "properties": {"lead": 48, "band": "edge"}, "geometry": {"type": "LineString", "coordinates": [[-88.999466, 48.511289], [-88.999587, 48.51128], [-88.999648, 48.511289], [-88.999648, 48.511316], [-88.999627, 48.511336], [-88.999587, 48.511349], [-88.999526, 48.511356], [-88.999445, 48.511356], [-88.999344, 48.511361], [-88.999223, 48.511369], [-88.999081, 48.511383], [-88.99892, 48.511401], [-88.998859, 48.511403], [-88.998899, 48.51139], [-88.999041, 48.511361], [-88.999284, 48.511316], [-88.999466, 48.511289]]}}, {"type": "Feature", "properties": {"lead": 72, "band": "edge"}, "geometry": {"type": "LineString", "coordinates": [[-89.058748, 48.488853], [-89.059159, 48.488795], [-89.05954, 48.488766], [-89.059891, 48.488766], [-89.060231, 48.488788], [-89.060561, 48.488833], [-89.060881, 48.488899], [-89.061191, 48.488989], [-89.061195, 48.489065], [-89.060891, 48.489127], [-89.060282, 48.489176], [-89.059365, 48.489212], [-89.05857, 48.48929], [-89.057896, 48.48941], [-89.057343, 48.489573], [-89.056911, 48.489778], [-89.056588, 48.490008], [-89.056372, 48.490263], [-89.056264, 48.490541], [-89.056264, 48.490845], [-89.056241, 48.491048], [-89.056194, 48.491151], [-89.056123, 48.491153], [-89.056029, 48.491055], [-89.055958, 48.490939], [-89.055911, 48.490805], [-89.055887, 48.490653], [-89.055887, 48.490483], [-89.055964, 48.490294], [-89.05612, 48.490084], [-89.056352, 48.489854], [-89.056662, 48.489604], [-89.057013, 48.489388], [-89.057127, 48.489334], [-89.057127, 48.489355], [-89.057137, 48.489372], [-89.057157, 48.489372], [-89.057188, 48.489355], [-89.057228, 48.489319], [-89.057248, 48.489292], [-89.057248, 48.489278], [-89.057403, 48.489205], [-89.057835, 48.489056], [-89.058307, 48.48894], [-89.058748, 48.488853]]}}, {"type": "Feature", "properties": {"lead": 72, "band": "edge"}, "geometry": {"type": "LineString", "coordinates": [[-89.052328, 48.495418], [-89.052348, 48.495407], [-89.052389, 48.495393], [-89.05245, 48.495378], [-89.05253, 48.49536], [-89.052571, 48.495353], [-89.052571, 48.495358], [-89.05253, 48.495373], [-89.05245, 48.4954], [-89.052389, 48.495418], [-89.052348, 48.495427], [-89.052328, 48.495427], [-89.052328, 48.495418]]}}, {"type": "Feature", "properties": {"lead": 72, "band": "edge"}, "geometry": {"type": "LineString", "coordinates": [[-89.050987, 48.495953], [-89.050903, 48.495915], [-89.05099, 48.495849], [-89.05125, 48.495753], [-89.051681, 48.495628], [-89.051961, 48.495554], [-89.052089, 48.495532], [-89.052065, 48.495561], [-89.05189, 48.495641], [-89.051759, 48.495715], [-89.051671, 48.495782], [-89.051627, 48.495842], [-89.051627, 48.495895], [-89.051563, 48.495933], [-89.051435, 48.495956], [-89.051243, 48.495962], [-89.050987, 48.495953]]}}, {"type": "Feature", "properties": {"lead": 72, "band": "edge"}, "geometry": {"type": "LineString", "coordinates": [[-89.045824, 48.497729], [-89.045834, 48.497662], [-89.045976, 48.497555], [-89.046249, 48.497408], [-89.046653, 48.49722], [-89.047159, 48.49702], [-89.047765, 48.496806], [-89.048473, 48.496578], [-89.049282, 48.496337], [-89.049895, 48.496172], [-89.050313, 48.496083], [-89.050535, 48.496069], [-89.050562, 48.496132], [-89.050603, 48.496179], [-89.050657, 48.49621], [-89.050724, 48.496226], [-89.050805, 48.496226], [-89.050802, 48.496255], [-89.050714, 48.496313], [-89.050542, 48.4964], [-89.050286, 48.496516], [-89.050074, 48.496594], [-89.049905, 48.496634], [-89.04978, 48.496636], [-89.0497, 48.4966], [-89.049639, 48.496589], [-89.049598, 48.496603], [-89.049578, 48.49664], [-89.049578, 48.496703], [-89.049534, 48.49675], [-89.049447, 48.496781], [-89.049315, 48.496797], [-89.04914, 48.496797], [-89.048988, 48.49681], [-89.04886, 48.496837], [-89.048756, 48.496877], [-89.048675, 48.49693], [-89.048581, 48.496964], [-89.048473, 48.496977], [-89.048352, 48.496971], [-89.048217, 48.496944], [-89.048062, 48.496953], [-89.047886, 48.496997], [-89.047691, 48.497078], [-89.047475, 48.497194], [-89.047283, 48.497274], [-89.047115, 48.497319], [-89.04697, 48.497327], [-89.046849, 48.497301], [-89.046724, 48.497314], [-89.046596, 48.497368], [-89.046464, 48.497461], [-89.04633, 48.497595], [-89.046198, 48.497689], [-89.04607, 48.497742], [-89.045945, 48.497756], [-89.045824, 48.497729]]}}, {"type": "Feature", "properties": {"lead": 72, "band": "edge"}, "geometry": {"type": "LineString", "coordinates": [[-89.04451, 48.497974], [-89.044971, 48.497892], [-89.045248, 48.49787], [-89.045339, 48.497907], [-89.045244, 48.498006], [-89.045035, 48.49809], [-89.044712, 48.498162], [-89.044274, 48.49822], [-89.043721, 48.498264], [-89.043468, 48.498262], [-89.043516, 48.498213], [-89.043863, 48.498117], [-89.04451, 48.497974]]}}, {"type": "Feature", "properties": {"lead": 72, "band": "edge"}, "geometry": {"type": "LineString", "coordinates": [[-89.031656, 48.499844], [-89.031535, 48.499812], [-89.031602, 48.499759], [-89.031859, 48.499683], [-89.032303, 48.499585], [-89.032752, 48.499505], [-89.033203, 48.499442], [-89.033658, 48.499397], [-89.034116, 48.499371], [-89.034592, 48.499313], [-89.035084, 48.499223], [-89.035593, 48.499103], [-89.036118, 48.498951], [-89.036779, 48.498833], [-89.037574, 48.498748], [-89.038504, 48.498697], [-89.039569, 48.498679], [-89.040368, 48.49867], [-89.0409, 48.49867], [-89.041167, 48.498679], [-89.041167, 48.498697], [-89.041136, 48.49871], [-89.041076, 48.498719], [-89.040985, 48.498724], [-89.040863, 48.498724], [-89.040782, 48.498731], [-89.040742, 48.498744], [-89.040742, 48.498764], [-89.040782, 48.498791], [-89.040769, 48.498811], [-89.040702, 48.498824], [-89.04058, 48.498831], [-89.040405, 48.498831], [-89.040274, 48.498838], [-89.040186, 48.498851], [-89.040142, 48.498871], [-89.040142, 48.498898], [-89.040058, 48.498918], [-89.039889, 48.498931], [-89.039637, 48.498938], [-89.0393, 48.498938], [-89.039047, 48.498947], [-89.038878, 48.498965], [-89.038794, 48.498991], [-89.038794, 48.499027], [-89.038642, 48.499067], [-89.038339, 48.499112], [-89.037884, 48.499161], [-89.037278, 48.499215], [-89.036802, 48.499268], [-89.036459, 48.499322], [-89.036246, 48.499375], [-89.036165, 48.499429], [-89.036061, 48.499469], [-89.035933, 48.499496], [-89.035781, 48.499509], [-89.035606, 48.499509], [-89.035475, 48.499518], [-89.035387, 48.499536], [-89.035343, 48.499562], [-89.035343, 48.499598], [-89.035205, 48.499625], [-89.034929, 48.499643], [-89.034514, 48.499652], [-89.033961, 48.499652], [-89.033503, 48.499665], [-89.033139, 48.499692], [-89.03287, 48.499732], [-89.032694, 48.499786], [-89.032485, 48.499823], [-89.032243, 48.499846], [-89.031966, 48.499852], [-89.031656, 48.499844]]}}, {"type": "Feature", "properties": {"lead": 72, "band": "edge"}, "geometry": {"type": "LineString", "coordinates": [[-89.027228, 48.500522], [-89.027238, 48.500479], [-89.02742, 48.500403], [-89.027774, 48.500294], [-89.0283, 48.500151], [-89.028751, 48.500047], [-89.029129, 48.49998], [-89.029432, 48.499951], [-89.029661, 48.49996], [-89.029769, 48.499968], [-89.029756, 48.499977], [-89.029621, 48.499986], [-89.029365, 48.499995], [-89.029173, 48.500013], [-89.029045, 48.50004], [-89.028981, 48.500076], [-89.028981, 48.50012], [-89.028906, 48.500163], [-89.028758, 48.500203], [-89.028536, 48.500241], [-89.028239, 48.500276], [-89.028007, 48.500316], [-89.027838, 48.500361], [-89.027734, 48.50041], [-89.027693, 48.500464], [-89.027622, 48.500502], [-89.027521, 48.500524], [-89.02739, 48.500531], [-89.027228, 48.500522]]}}, {"type": "Feature", "properties": {"lead": 72, "band": "edge"}, "geometry": {"type": "LineString", "coordinates": [[-89.027255, 48.500584], [-89.027269, 48.500564], [-89.027295, 48.500551], [-89.027336, 48.500544], [-89.02739, 48.500544], [-89.027417, 48.500551], [-89.027417, 48.500564], [-89.02739, 48.500584], [-89.027336, 48.500611], [-89.027295, 48.500624], [-89.027269, 48.500624], [-89.027255, 48.500611], [-89.027255, 48.500584]]}}, {"type": "Feature", "properties": {"lead": 72, "band": "edge"}, "geometry": {"type": "LineString", "coordinates": [[-88.989949, 48.500049], [-88.990852, 48.499672], [-88.99162, 48.499373], [-88.992254, 48.499152], [-88.992752, 48.499009], [-88.993197, 48.498918], [-88.993588, 48.498878], [-88.993925, 48.498889], [-88.994208, 48.498951], [-88.99439, 48.499014], [-88.994471, 48.499076], [-88.994451, 48.499139], [-88.99433, 48.499201], [-88.994208, 48.499235], [-88.994087, 48.499239], [-88.993966, 48.499215], [-88.993844, 48.499161], [-88.993699, 48.499128], [-88.993531, 48.499114], [-88.993339, 48.499121], [-88.993123, 48.499148], [-88.992951, 48.499181], [-88.992823, 48.499221], [-88.992739, 48.499268], [-88.992699, 48.499322], [-88.992624, 48.499368], [-88.992517, 48.499409], [-88.992375, 48.499442], [-88.9922, 48.499469], [-88.992058, 48.499511], [-88.99195, 48.499569], [-88.991876, 48.499643], [-88.991836, 48.499732], [-88.991728, 48.499808], [-88.991553, 48.49987], [-88.99131, 48.499919], [-88.991, 48.499955], [-88.990737, 48.500009], [-88.990522, 48.50008], [-88.990353, 48.500169], [-88.990232, 48.500276], [-88.990067, 48.500386], [-88.989858, 48.500497], [-88.989605, 48.500611], [-88.989308, 48.500727], [-88.989022, 48.50082], [-88.988746, 48.500892], [-88.988479, 48.500941], [-88.988223, 48.500968], [-88.988001, 48.500999], [-88.987812, 48.501035], [-88.987657, 48.501075], [-88.987536, 48.501119], [-88.987704, 48.501039], [-88.988162, 48.500834], [-88.988911, 48.500504], [-88.989949, 48.500049]]}}, {"type": "Feature", "properties": {"lead": 72, "band": "edge"}, "geometry": {"type": "LineString", "coordinates": [[-89.026992, 48.500745], [-89.026982, 48.500698], [-89.027002, 48.500667], [-89.027053, 48.500651], [-89.027134, 48.500651], [-89.027184, 48.500658], [-89.027204, 48.500671], [-89.027194, 48.500691], [-89.027154, 48.500718], [-89.027124, 48.500747], [-89.027103, 48.500778], [-89.027093, 48.500812], [-89.027093, 48.500847], [-89.027083, 48.500858], [-89.027063, 48.500845], [-89.027033, 48.500807], [-89.026992, 48.500745]]}}, {"type": "Feature", "properties": {"lead": 72, "band": "edge"}, "geometry": {"type": "LineString", "coordinates": [[-89.026271, 48.501115], [-89.02617, 48.501106], [-89.026102, 48.501088], [-89.026069, 48.501061], [-89.026069, 48.501026], [-89.026113, 48.500986], [-89.0262, 48.500941], [-89.026332, 48.500892], [-89.026507, 48.500838], [-89.026628, 48.50082], [-89.026696, 48.500838], [-89.026709, 48.500892], [-89.026669, 48.500981], [-89.026605, 48.501048], [-89.026517, 48.501093], [-89.026406, 48.501115], [-89.026271, 48.501115]]}}, {"type": "Feature", "properties": {"lead": 72, "band": "edge"}, "geometry": {"type": "LineString", "coordinates": [[-89.024741, 48.501494], [-89.024872, 48.501458], [-89.024933, 48.501449], [-89.024923, 48.501467], [-89.024842, 48.501512], [-89.024751, 48.50155], [-89.02465, 48.501581], [-89.024539, 48.501606], [-89.024417, 48.501623], [-89.024377, 48.501621], [-89.024417, 48.501599], [-89.024539, 48.501557], [-89.024741, 48.501494]]}}, {"type": "Feature", "properties": {"lead": 72, "band": "edge"}, "geometry": {"type": "LineString", "coordinates": [[-88.987421, 48.503934], [-88.98736, 48.503914], [-88.98732, 48.503874], [-88.9873, 48.503814], [-88.9873, 48.503733], [-88.987397, 48.503617], [-88.987593, 48.503466], [-88.987886, 48.503278], [-88.988277, 48.503055], [-88.98859, 48.502859], [-88.988826, 48.50269], [-88.988985, 48.502547], [-88.989066, 48.502431], [-88.989147, 48.502344], [-88.989227, 48.502286], [-88.989308, 48.502257], [-88.989389, 48.502257], [-88.989484, 48.502228], [-88.989591, 48.50217], [-88.989713, 48.502083], [-88.989848, 48.501967], [-88.990056, 48.501831], [-88.99034, 48.501675], [-88.990697, 48.501499], [-88.991128, 48.501302], [-88.99158, 48.501119], [-88.992052, 48.50095], [-88.992544, 48.500794], [-88.993056, 48.500651], [-88.99346, 48.500517], [-88.993757, 48.500392], [-88.993945, 48.500276], [-88.994026, 48.500169], [-88.994121, 48.500089], [-88.994229, 48.500035], [-88.99435, 48.500009], [-88.994485, 48.500009], [-88.994603, 48.499986], [-88.994704, 48.499942], [-88.994788, 48.499875], [-88.994855, 48.499786], [-88.994899, 48.499763], [-88.994919, 48.499808], [-88.994916, 48.499919], [-88.994889, 48.500098], [-88.994835, 48.500256], [-88.994754, 48.500394], [-88.994646, 48.500513], [-88.994512, 48.500611], [-88.994282, 48.50072], [-88.993959, 48.500841], [-88.993541, 48.500972], [-88.993029, 48.501115], [-88.99252, 48.501278], [-88.992014, 48.501461], [-88.991512, 48.501664], [-88.991014, 48.501887], [-88.990474, 48.502161], [-88.989895, 48.502487], [-88.989275, 48.502864], [-88.988614, 48.503292], [-88.988098, 48.503613], [-88.987728, 48.503827], [-88.987502, 48.503934], [-88.987421, 48.503934]]}}, {"type": "Feature", "properties": {"lead": 72, "band": "edge"}, "geometry": {"type": "LineString", "coordinates": [[-89.022456, 48.501962], [-89.02248, 48.501947], [-89.022527, 48.501933], [-89.022598, 48.501922], [-89.022692, 48.501913], [-89.022739, 48.501913], [-89.022739, 48.501922], [-89.022692, 48.50194], [-89.022598, 48.501967], [-89.022527, 48.501983], [-89.02248, 48.501987], [-89.022456, 48.50198], [-89.022456, 48.501962]]}}, {"type": "Feature", "properties": {"lead": 72, "band": "edge"}, "geometry": {"type": "LineString", "coordinates": [[-89.000787, 48.510852], [-89.000975, 48.510772], [-89.001178, 48.510656], [-89.001393, 48.510504], [-89.001622, 48.510317], [-89.00204, 48.510087], [-89.002647, 48.509815], [-89.003442, 48.509501], [-89.004426, 48.509144], [-89.005249, 48.508821], [-89.005909, 48.508531], [-89.006408, 48.508274], [-89.006745, 48.508051], [-89.007048, 48.507868], [-89.007318, 48.507726], [-89.007554, 48.507623], [-89.007756, 48.507561], [-89.008012, 48.507436], [-89.008322, 48.507248], [-89.008686, 48.506999], [-89.009104, 48.506686], [-89.009515, 48.506414], [-89.00992, 48.506182], [-89.010317, 48.50599], [-89.010708, 48.505839], [-89.01115, 48.505692], [-89.011642, 48.505549], [-89.012184, 48.505411], [-89.012777, 48.505277], [-89.013263, 48.505143], [-89.01364, 48.505009], [-89.01391, 48.504875], [-89.014071, 48.504741], [-89.014317, 48.50459], [-89.014648, 48.50442], [-89.015062, 48.504233], [-89.015561, 48.504028], [-89.016063, 48.503843], [-89.016569, 48.503678], [-89.017077, 48.503533], [-89.01759, 48.503408], [-89.017812, 48.503388], [-89.017745, 48.503472], [-89.017388, 48.503662], [-89.01674, 48.503956], [-89.016181, 48.504186], [-89.015709, 48.504351], [-89.015325, 48.504452], [-89.015029, 48.504487], [-89.014732, 48.50457], [-89.014435, 48.504699], [-89.014139, 48.504875], [-89.013842, 48.505098], [-89.013596, 48.505259], [-89.013401, 48.505357], [-89.013256, 48.505393], [-89.013162, 48.505366], [-89.013071, 48.505368], [-89.012983, 48.505399], [-89.012899, 48.50546], [-89.012818, 48.505549], [-89.012723, 48.505616], [-89.012616, 48.50566], [-89.012494, 48.505683], [-89.012359, 48.505683], [-89.012194, 48.505716], [-89.011999, 48.505783], [-89.011773, 48.505883], [-89.011517, 48.506017], [-89.011294, 48.506118], [-89.011106, 48.506184], [-89.010951, 48.506218], [-89.010829, 48.506218], [-89.010695, 48.506254], [-89.010546, 48.506325], [-89.010385, 48.506432], [-89.010209, 48.506575], [-89.010058, 48.506682], [-89.00993, 48.506753], [-89.009825, 48.506789], [-89.009744, 48.506789], [-89.009684, 48.506804], [-89.009643, 48.506836], [-89.009623, 48.506883], [-89.009623, 48.506945], [-89.009471, 48.507077], [-89.009168, 48.507277], [-89.008713, 48.507547], [-89.008106, 48.507886], [-89.007631, 48.50814], [-89.007288, 48.50831], [-89.007075, 48.508395], [-89.006994, 48.508395], [-89.00689, 48.50843], [-89.006762, 48.508502], [-89.00661, 48.508609], [-89.006435, 48.508751], [-89.006239, 48.508872], [-89.006024, 48.50897], [-89.005788, 48.509046], [-89.005532, 48.509099], [-89.005265, 48.509175], [-89.004989, 48.509273], [-89.004703, 48.509394], [-89.004406, 48.509536], [-89.00413, 48.509643], [-89.003874, 48.509715], [-89.003638, 48.50975], [-89.003422, 48.50975], [-89.003237, 48.509773], [-89.003082, 48.509817], [-89.002957, 48.509884], [-89.002863, 48.509973], [-89.002738, 48.510054], [-89.002583, 48.510125], [-89.002398, 48.510188], [-89.002182, 48.510241], [-89.00199, 48.510317], [-89.001821, 48.510415], [-89.001676, 48.510535], [-89.001555, 48.510678], [-89.0014, 48.51079], [-89.001211, 48.51087], [-89.000989, 48.510919], [-89.000733, 48.510937], [-89.000584, 48.510939], [-89.000544, 48.510926], [-89.000611, 48.510897], [-89.000787, 48.510852]]}}, {"type": "Feature", "properties": {"lead": 72, "band": "edge"}, "geometry": {"type": "LineString", "coordinates": [[-88.996797, 48.512391], [-88.996601, 48.512382], [-88.996466, 48.512364], [-88.996392, 48.512337], [-88.996379, 48.512302], [-88.996446, 48.512266], [-88.996594, 48.51223], [-88.996824, 48.512195], [-88.997134, 48.512159], [-88.997433, 48.51209], [-88.997723, 48.511987], [-88.998003, 48.511851], [-88.998273, 48.511682], [-88.998556, 48.511535], [-88.998852, 48.51141], [-88.999162, 48.511307], [-88.999486, 48.511227], [-88.999728, 48.511189], [-88.99989, 48.511193], [-88.999971, 48.51124], [-88.999971, 48.511329], [-88.999813, 48.511454], [-88.999496, 48.511615], [-88.999021, 48.511811], [-88.998387, 48.512043], [-88.997848, 48.512217], [-88.997403, 48.512333], [-88.997053, 48.512391], [-88.996797, 48.512391]]}}, {"type": "Feature", "properties": {"lead": 96, "band": "edge"}, "geometry": {"type": "LineString", "coordinates": [[-89.058748, 48.488853], [-89.059159, 48.488795], [-89.05954, 48.488766], [-89.059891, 48.488766], [-89.060231, 48.488788], [-89.060561, 48.488833], [-89.060881, 48.488899], [-89.061191, 48.488989], [-89.061195, 48.489065], [-89.060891, 48.489127], [-89.060282, 48.489176], [-89.059365, 48.489212], [-89.058667, 48.489254], [-89.058189, 48.489303], [-89.057929, 48.489359], [-89.057889, 48.489422], [-89.057761, 48.489504], [-89.057545, 48.489607], [-89.057242, 48.489729], [-89.056851, 48.489872], [-89.056558, 48.490055], [-89.056362, 48.490278], [-89.056264, 48.490541], [-89.056264, 48.490845], [-89.056241, 48.491048], [-89.056194, 48.491151], [-89.056123, 48.491153], [-89.056029, 48.491055], [-89.055958, 48.490939], [-89.055911, 48.490805], [-89.055887, 48.490653], [-89.055887, 48.490483], [-89.055964, 48.490294], [-89.05612, 48.490084], [-89.056352, 48.489854], [-89.056662, 48.489604], [-89.057013, 48.489388], [-89.057127, 48.489334], [-89.057127, 48.489355], [-89.057137, 48.489372], [-89.057157, 48.489372], [-89.057188, 48.489355], [-89.057228, 48.489319], [-89.057248, 48.489292], [-89.057248, 48.489278], [-89.057403, 48.489205], [-89.057835, 48.489056], [-89.058307, 48.48894], [-89.058748, 48.488853]]}}, {"type": "Feature", "properties": {"lead": 96, "band": "edge"}, "geometry": {"type": "LineString", "coordinates": [[-89.052328, 48.495418], [-89.052348, 48.495407], [-89.052389, 48.495393], [-89.05245, 48.495378], [-89.05253, 48.49536], [-89.052571, 48.495353], [-89.052571, 48.495358], [-89.05253, 48.495373], [-89.05245, 48.4954], [-89.052389, 48.495418], [-89.052348, 48.495427], [-89.052328, 48.495427], [-89.052328, 48.495418]]}}, {"type": "Feature", "properties": {"lead": 96, "band": "edge"}, "geometry": {"type": "LineString", "coordinates": [[-89.050987, 48.495953], [-89.050903, 48.495915], [-89.05099, 48.495849], [-89.05125, 48.495753], [-89.051681, 48.495628], [-89.051961, 48.495554], [-89.052089, 48.495532], [-89.052065, 48.495561], [-89.05189, 48.495641], [-89.051759, 48.495715], [-89.051671, 48.495782], [-89.051627, 48.495842], [-89.051627, 48.495895], [-89.051563, 48.495933], [-89.051435, 48.495956], [-89.051243, 48.495962], [-89.050987, 48.495953]]}}, {"type": "Feature", "properties": {"lead": 96, "band": "edge"}, "geometry": {"type": "LineString", "coordinates": [[-89.046855, 48.497178], [-89.047233, 48.497013], [-89.04788, 48.496783], [-89.048796, 48.496489], [-89.049511, 48.496263], [-89.050023, 48.496107], [-89.050333, 48.49602], [-89.050441, 48.496002], [-89.050522, 48.496005], [-89.050576, 48.496027], [-89.050603, 48.496069], [-89.050603, 48.496132], [-89.050623, 48.496179], [-89.050663, 48.49621], [-89.050724, 48.496226], [-89.050805, 48.496226], [-89.050781, 48.496246], [-89.050653, 48.496286], [-89.050421, 48.496346], [-89.050084, 48.496426], [-89.049831, 48.496502], [-89.049662, 48.496574], [-89.049578, 48.49664], [-89.049578, 48.496703], [-89.049534, 48.49675], [-89.049447, 48.496781], [-89.049315, 48.496797], [-89.04914, 48.496797], [-89.048988, 48.49681], [-89.04886, 48.496837], [-89.048756, 48.496877], [-89.048675, 48.49693], [-89.048581, 48.496964], [-89.048473, 48.496977], [-89.048352, 48.496971], [-89.048217, 48.496944], [-89.048062, 48.496953], [-89.047886, 48.496997], [-89.047691, 48.497078], [-89.047475, 48.497194], [-89.047273, 48.497272], [-89.047084, 48.497312], [-89.046909, 48.497314], [-89.046747, 48.497278], [-89.046855, 48.497178]]}}, {"type": "Feature", "properties": {"lead": 96, "band": "edge"}, "geometry": {"type": "LineString", "coordinates": [[-89.045827, 48.497655], [-89.045875, 48.497588], [-89.045999, 48.497506], [-89.046201, 48.497408], [-89.046353, 48.497354], [-89.046454, 48.497345], [-89.046505, 48.497381], [-89.046505, 48.497461], [-89.046481, 48.497535], [-89.046434, 48.497602], [-89.046363, 48.497662], [-89.046269, 48.497716], [-89.046171, 48.497747], [-89.04607, 48.497756], [-89.045966, 48.497742], [-89.045858, 48.497707], [-89.045827, 48.497655]]}}, {"type": "Feature", "properties": {"lead": 96, "band": "edge"}, "geometry": {"type": "LineString", "coordinates": [[-89.043748, 48.498238], [-89.043671, 48.498202], [-89.043799, 48.498139], [-89.044132, 48.49805], [-89.044671, 48.497934], [-89.045076, 48.497858], [-89.045345, 48.497823], [-89.04548, 48.497827], [-89.04548, 48.497872], [-89.045416, 48.497925], [-89.045288, 48.497988], [-89.045096, 48.498059], [-89.04484, 48.498139], [-89.044577, 48.498197], [-89.044307, 48.498233], [-89.044031, 48.498246], [-89.043748, 48.498238]]}}, {"type": "Feature", "properties": {"lead": 96, "band": "edge"}, "geometry": {"type": "LineString", "coordinates": [[-89.032752, 48.499505], [-89.033203, 48.499442], [-89.033658, 48.499397], [-89.034116, 48.499371], [-89.034592, 48.499313], [-89.035084, 48.499223], [-89.035593, 48.499103], [-89.036118, 48.498951], [-89.036769, 48.498835], [-89.037544, 48.498755], [-89.038444, 48.49871], [-89.039468, 48.498702], [-89.040172, 48.49871], [-89.040557, 48.498737], [-89.040621, 48.498782], [-89.040365, 48.498844], [-89.039967, 48.498907], [-89.039428, 48.498969], [-89.038747, 48.499032], [-89.037925, 48.499094], [-89.037254, 48.499161], [-89.036735, 48.499232], [-89.036368, 48.499308], [-89.036152, 48.499389], [-89.03594, 48.499449], [-89.035731, 48.499489], [-89.035525, 48.499509], [-89.035323, 48.499509], [-89.035171, 48.499518], [-89.03507, 48.499536], [-89.03502, 48.499562], [-89.03502, 48.499598], [-89.034888, 48.499625], [-89.034625, 48.499643], [-89.034231, 48.499652], [-89.033705, 48.499652], [-89.033203, 48.499663], [-89.032725, 48.499685], [-89.03227, 48.499719], [-89.031838, 48.499763], [-89.031626, 48.499772], [-89.031633, 48.499745], [-89.031859, 48.499683], [-89.032303, 48.499585], [-89.032752, 48.499505]]}}, {"type": "Feature", "properties": {"lead": 96, "band": "edge"}, "geometry": {"type": "LineString", "coordinates": [[-89.029129, 48.500006], [-89.028994, 48.500002], [-89.028927, 48.499995], [-89.028927, 48.499986], [-89.028984, 48.499977], [-89.029098, 48.499968], [-89.02927, 48.49996], [-89.029499, 48.499951], [-89.029681, 48.499948], [-89.029816, 48.499953], [-89.029904, 48.499964], [-89.029944, 48.499982], [-89.029907, 48.499995], [-89.029793, 48.500004], [-89.029601, 48.500009], [-89.029331, 48.500009], [-89.029129, 48.500006]]}}, {"type": "Feature", "properties": {"lead": 96, "band": "edge"}, "geometry": {"type": "LineString", "coordinates": [[-89.028482, 48.500187], [-89.028381, 48.500185], [-89.028313, 48.50018], [-89.02828, 48.500174], [-89.02828, 48.500165], [-89.028313, 48.500151], [-89.028381, 48.500134], [-89.028482, 48.500111], [-89.028617, 48.500084], [-89.028718, 48.500073], [-89.028785, 48.500078], [-89.028819, 48.500098], [-89.028819, 48.500134], [-89.028785, 48.50016], [-89.028718, 48.500178], [-89.028617, 48.500187], [-89.028482, 48.500187]]}}, {"type": "Feature", "properties": {"lead": 96, "band": "edge"}, "geometry": {"type": "LineString", "coordinates": [[-89.027905, 48.500256], [-89.028047, 48.500234], [-89.028118, 48.500241], [-89.028118, 48.500276], [-89.028047, 48.500314], [-89.027905, 48.500354], [-89.027693, 48.500397], [-89.02741, 48.500441], [-89.027269, 48.500455], [-89.027269, 48.500437], [-89.02741, 48.500388], [-89.027693, 48.500307], [-89.027905, 48.500256]]}}, {"type": "Feature", "properties": {"lead": 96, "band": "edge"}, "geometry": {"type": "LineString", "coordinates": [[-89.026942, 48.500785], [-89.026962, 48.500767], [-89.026992, 48.500758], [-89.027033, 48.500758], [-89.027053, 48.500767], [-89.027053, 48.500785], [-89.027033, 48.500812], [-89.026992, 48.500847], [-89.026962, 48.500865], [-89.026942, 48.500865], [-89.026932, 48.500847], [-89.026932, 48.500812], [-89.026942, 48.500785]]}}, {"type": "Feature", "properties": {"lead": 96, "band": "edge"}, "geometry": {"type": "LineString", "coordinates": [[-88.990953, 48.499719], [-88.992052, 48.499304], [-88.992874, 48.499018], [-88.99342, 48.498862], [-88.993689, 48.498835], [-88.993925, 48.498831], [-88.994127, 48.498849], [-88.994296, 48.498889], [-88.994431, 48.498951], [-88.994502, 48.499014], [-88.994508, 48.499076], [-88.994451, 48.499139], [-88.99433, 48.499201], [-88.994208, 48.499235], [-88.994087, 48.499239], [-88.993966, 48.499215], [-88.993844, 48.499161], [-88.993699, 48.499128], [-88.993531, 48.499114], [-88.993339, 48.499121], [-88.993123, 48.499148], [-88.992951, 48.499181], [-88.992823, 48.499221], [-88.992739, 48.499268], [-88.992699, 48.499322], [-88.992624, 48.499368], [-88.992517, 48.499409], [-88.992375, 48.499442], [-88.9922, 48.499469], [-88.992058, 48.499511], [-88.99195, 48.499569], [-88.991876, 48.499643], [-88.991836, 48.499732], [-88.991728, 48.499808], [-88.991553, 48.49987], [-88.99131, 48.499919], [-88.991, 48.499955], [-88.990737, 48.500009], [-88.990522, 48.50008], [-88.990353, 48.500169], [-88.990232, 48.500276], [-88.989982, 48.500397], [-88.989605, 48.500531], [-88.989099, 48.500678], [-88.988466, 48.500838], [-88.988334, 48.500823], [-88.988705, 48.500631], [-88.989578, 48.500263], [-88.990953, 48.499719]]}}, {"type": "Feature", "properties": {"lead": 96, "band": "edge"}, "geometry": {"type": "LineString", "coordinates": [[-89.026271, 48.501008], [-89.02617, 48.501006], [-89.026102, 48.501001], [-89.026069, 48.500994], [-89.026069, 48.500986], [-89.026113, 48.500965], [-89.0262, 48.500934], [-89.026332, 48.500892], [-89.026507, 48.500838], [-89.026628, 48.500814], [-89.026696, 48.500818], [-89.026709, 48.500852], [-89.026669, 48.500914], [-89.026605, 48.500961], [-89.026517, 48.500992], [-89.026406, 48.501008], [-89.026271, 48.501008]]}}, {"type": "Feature", "properties": {"lead": 96, "band": "edge"}, "geometry": {"type": "LineString", "coordinates": [[-89.024235, 48.501664], [-89.024252, 48.501652], [-89.024286, 48.501639], [-89.024337, 48.501623], [-89.024404, 48.501606], [-89.024438, 48.501599], [-89.024438, 48.501603], [-89.024404, 48.501619], [-89.024337, 48.501646], [-89.024286, 48.501664], [-89.024252, 48.501673], [-89.024235, 48.501673], [-89.024235, 48.501664]]}}, {"type": "Feature", "properties": {"lead": 96, "band": "edge"}, "geometry": {"type": "LineString", "coordinates": [[-88.98736, 48.503914], [-88.98732, 48.503874], [-88.9873, 48.503814], [-88.9873, 48.503733], [-88.987397, 48.503617], [-88.987593, 48.503466], [-88.987886, 48.503278], [-88.988277, 48.503055], [-88.98859, 48.502859], [-88.988826, 48.50269], [-88.988985, 48.502547], [-88.989066, 48.502431], [-88.989147, 48.502344], [-88.989227, 48.502286], [-88.989308, 48.502257], [-88.989389, 48.502257], [-88.989484, 48.502228], [-88.989591, 48.50217], [-88.989713, 48.502083], [-88.989848, 48.501967], [-88.990056, 48.501831], [-88.99034, 48.501675], [-88.990697, 48.501499], [-88.991128, 48.501302], [-88.99158, 48.501119], [-88.992052, 48.50095], [-88.992544, 48.500794], [-88.993056, 48.500651], [-88.99346, 48.500517], [-88.993757, 48.500392], [-88.993945, 48.500276], [-88.994026, 48.500169], [-88.994121, 48.500089], [-88.994229, 48.500035], [-88.99435, 48.500009], [-88.994485, 48.500009], [-88.994603, 48.499986], [-88.994704, 48.499942], [-88.994788, 48.499875], [-88.994855, 48.499786], [-88.994899, 48.499763], [-88.994919, 48.499808], [-88.994916, 48.499919], [-88.994889, 48.500098], [-88.994835, 48.500256], [-88.994754, 48.500394], [-88.994646, 48.500513], [-88.994512, 48.500611], [-88.994282, 48.50072], [-88.993959, 48.500841], [-88.993541, 48.500972], [-88.993029, 48.501115], [-88.99252, 48.501278], [-88.992014, 48.501461], [-88.991512, 48.501664], [-88.991014, 48.501887], [-88.990474, 48.502161], [-88.989895, 48.502487], [-88.989275, 48.502864], [-88.988614, 48.503292], [-88.988098, 48.503613], [-88.987728, 48.503827], [-88.987502, 48.503934], [-88.987421, 48.503934], [-88.98736, 48.503914]]}}, {"type": "Feature", "properties": {"lead": 96, "band": "edge"}, "geometry": {"type": "LineString", "coordinates": [[-89.018055, 48.503261], [-89.018095, 48.503252], [-89.018156, 48.503243], [-89.018237, 48.503234], [-89.018277, 48.503232], [-89.018277, 48.503236], [-89.018237, 48.503247], [-89.018156, 48.503265], [-89.018095, 48.503276], [-89.018055, 48.503281], [-89.018035, 48.503278], [-89.018035, 48.503269], [-89.018055, 48.503261]]}}, {"type": "Feature", "properties": {"lead": 96, "band": "edge"}, "geometry": {"type": "LineString", "coordinates": [[-89.015332, 48.504309], [-89.015386, 48.504222], [-89.015669, 48.504084], [-89.016181, 48.503894], [-89.016922, 48.503653], [-89.017371, 48.503528], [-89.017526, 48.503519], [-89.017388, 48.503626], [-89.016956, 48.503849], [-89.016599, 48.504017], [-89.016316, 48.504128], [-89.016107, 48.504184], [-89.015972, 48.504184], [-89.015871, 48.504197], [-89.015804, 48.504224], [-89.01577, 48.504264], [-89.01577, 48.504318], [-89.015726, 48.504349], [-89.015638, 48.504358], [-89.015507, 48.504345], [-89.015332, 48.504309]]}}, {"type": "Feature", "properties": {"lead": 96, "band": "edge"}, "geometry": {"type": "LineString", "coordinates": [[-89.014816, 48.504365], [-89.01485, 48.504351], [-89.0149, 48.504336], [-89.014968, 48.504318], [-89.015002, 48.504311], [-89.015002, 48.504316], [-89.014968, 48.504331], [-89.0149, 48.504358], [-89.01485, 48.504376], [-89.014816, 48.504385], [-89.014799, 48.504385], [-89.014799, 48.504376], [-89.014816, 48.504365]]}}, {"type": "Feature", "properties": {"lead": 96, "band": "edge"}, "geometry": {"type": "LineString", "coordinates": [[-89.014442, 48.504505], [-89.014483, 48.504487], [-89.014543, 48.504465], [-89.014624, 48.504438], [-89.014665, 48.504427], [-89.014665, 48.504431], [-89.014624, 48.504452], [-89.014543, 48.504487], [-89.014483, 48.504512], [-89.014442, 48.504525], [-89.014422, 48.504527], [-89.014422, 48.504518], [-89.014442, 48.504505]]}}, {"type": "Feature", "properties": {"lead": 96, "band": "edge"}, "geometry": {"type": "LineString", "coordinates": [[-89.014179, 48.504688], [-89.01429, 48.504634], [-89.014351, 48.504626], [-89.014361, 48.504661], [-89.014321, 48.504741], [-89.01426, 48.504806], [-89.014179, 48.504855], [-89.014078, 48.504889], [-89.013957, 48.504907], [-89.013906, 48.504895], [-89.013927, 48.504855], [-89.014017, 48.504786], [-89.014179, 48.504688]]}}, {"type": "Feature", "properties": {"lead": 96, "band": "edge"}, "geometry": {"type": "LineString", "coordinates": [[-89.000975, 48.510772], [-89.001178, 48.510656], [-89.001393, 48.510504], [-89.001622, 48.510317], [-89.00204, 48.510087], [-89.002647, 48.509815], [-89.003442, 48.509501], [-89.004426, 48.509144], [-89.005249, 48.508821], [-89.005909, 48.508531], [-89.006408, 48.508274], [-89.006745, 48.508051], [-89.007048, 48.507868], [-89.007318, 48.507726], [-89.007554, 48.507623], [-89.007756, 48.507561], [-89.008012, 48.507436], [-89.008322, 48.507248], [-89.008686, 48.506999], [-89.009104, 48.506686], [-89.009515, 48.506414], [-89.00992, 48.506182], [-89.010317, 48.50599], [-89.010708, 48.505839], [-89.011143, 48.505694], [-89.011621, 48.505556], [-89.012144, 48.505424], [-89.01271, 48.505299], [-89.013037, 48.505254], [-89.013124, 48.50529], [-89.012973, 48.505406], [-89.012582, 48.505602], [-89.012194, 48.50577], [-89.01181, 48.505908], [-89.011429, 48.506017], [-89.011052, 48.506097], [-89.010769, 48.506173], [-89.01058, 48.506245], [-89.010486, 48.506312], [-89.010486, 48.506374], [-89.010432, 48.506441], [-89.010324, 48.506512], [-89.010162, 48.506588], [-89.009946, 48.506668], [-89.009785, 48.506744], [-89.009677, 48.506816], [-89.009623, 48.506883], [-89.009623, 48.506945], [-89.009471, 48.507063], [-89.009168, 48.507237], [-89.008713, 48.507467], [-89.008106, 48.507752], [-89.007598, 48.508009], [-89.007186, 48.508236], [-89.006873, 48.508435], [-89.006657, 48.508604], [-89.006411, 48.508751], [-89.006135, 48.508876], [-89.005828, 48.508979], [-89.005491, 48.509059], [-89.005174, 48.509155], [-89.004878, 48.509267], [-89.004602, 48.509394], [-89.004345, 48.509536], [-89.004099, 48.509643], [-89.003864, 48.509715], [-89.003638, 48.50975], [-89.003422, 48.50975], [-89.003237, 48.509773], [-89.003082, 48.509817], [-89.002957, 48.509884], [-89.002863, 48.509973], [-89.002738, 48.510054], [-89.002583, 48.510125], [-89.002398, 48.510188], [-89.002182, 48.510241], [-89.00199, 48.510317], [-89.001821, 48.510415], [-89.001676, 48.510535], [-89.001555, 48.510678], [-89.0014, 48.51079], [-89.001211, 48.51087], [-89.000989, 48.510919], [-89.000733, 48.510937], [-89.000584, 48.510939], [-89.000544, 48.510926], [-89.000611, 48.510897], [-89.000787, 48.510852], [-89.000975, 48.510772]]}}, {"type": "Feature", "properties": {"lead": 96, "band": "edge"}, "geometry": {"type": "LineString", "coordinates": [[-88.996601, 48.512382], [-88.996466, 48.512364], [-88.996392, 48.512337], [-88.996379, 48.512302], [-88.996446, 48.512266], [-88.996594, 48.51223], [-88.996824, 48.512195], [-88.997134, 48.512159], [-88.997433, 48.51209], [-88.997723, 48.511987], [-88.998003, 48.511851], [-88.998273, 48.511682], [-88.998556, 48.511535], [-88.998852, 48.51141], [-88.999162, 48.511307], [-88.999486, 48.511227], [-88.999728, 48.511189], [-88.99989, 48.511193], [-88.999971, 48.51124], [-88.999971, 48.511329], [-88.999813, 48.511454], [-88.999496, 48.511615], [-88.999021, 48.511811], [-88.998387, 48.512043], [-88.997848, 48.512217], [-88.997403, 48.512333], [-88.997053, 48.512391], [-88.996797, 48.512391], [-88.996601, 48.512382]]}}, {"type": "Feature", "properties": {"lead": 120, "band": "edge"}, "geometry": {"type": "LineString", "coordinates": [[-89.058748, 48.488853], [-89.059159, 48.488795], [-89.05954, 48.488766], [-89.059891, 48.488766], [-89.060231, 48.488788], [-89.060561, 48.488833], [-89.060881, 48.488899], [-89.061191, 48.488989], [-89.061195, 48.489065], [-89.060891, 48.489127], [-89.060282, 48.489176], [-89.059365, 48.489212], [-89.058667, 48.489254], [-89.058189, 48.489303], [-89.057929, 48.489359], [-89.057889, 48.489422], [-89.057761, 48.489504], [-89.057545, 48.489607], [-89.057242, 48.489729], [-89.056851, 48.489872], [-89.056558, 48.490055], [-89.056362, 48.490278], [-89.056264, 48.490541], [-89.056264, 48.490845], [-89.056241, 48.491048], [-89.056194, 48.491151], [-89.056123, 48.491153], [-89.056029, 48.491055], [-89.055958, 48.490939], [-89.055911, 48.490805], [-89.055887, 48.490653], [-89.055887, 48.490483], [-89.055964, 48.490294], [-89.05612, 48.490084], [-89.056352, 48.489854], [-89.056662, 48.489604], [-89.057013, 48.489388], [-89.057127, 48.489334], [-89.057127, 48.489355], [-89.057137, 48.489372], [-89.057157, 48.489372], [-89.057188, 48.489355], [-89.057228, 48.489319], [-89.057248, 48.489292], [-89.057248, 48.489278], [-89.057403, 48.489205], [-89.057835, 48.489056], [-89.058307, 48.48894], [-89.058748, 48.488853]]}}, {"type": "Feature", "properties": {"lead": 120, "band": "edge"}, "geometry": {"type": "LineString", "coordinates": [[-89.050987, 48.495953], [-89.050923, 48.495909], [-89.051051, 48.495828], [-89.051371, 48.495712], [-89.051883, 48.495561], [-89.052257, 48.49546], [-89.052493, 48.495411], [-89.052591, 48.495414], [-89.052551, 48.495467], [-89.052476, 48.495514], [-89.052369, 48.495554], [-89.052227, 48.495588], [-89.052052, 48.495614], [-89.05191, 48.495654], [-89.051802, 48.495708], [-89.051728, 48.495775], [-89.051688, 48.495855], [-89.051594, 48.495913], [-89.051445, 48.495949], [-89.051243, 48.495962], [-89.050987, 48.495953]]}}, {"type": "Feature", "properties": {"lead": 120, "band": "edge"}, "geometry": {"type": "LineString", "coordinates": [[-89.045824, 48.497729], [-89.045834, 48.497662], [-89.045976, 48.497555], [-89.046249, 48.497408], [-89.046653, 48.49722], [-89.047159, 48.49702], [-89.047765, 48.496806], [-89.048473, 48.496578], [-89.049282, 48.496337], [-89.049895, 48.496172], [-89.050313, 48.496083], [-89.050535, 48.496069], [-89.050562, 48.496132], [-89.050603, 48.496179], [-89.050657, 48.49621], [-89.050724, 48.496226], [-89.050805, 48.496226], [-89.050781, 48.496261], [-89.050653, 48.496333], [-89.050421, 48.49644], [-89.050084, 48.496582], [-89.049767, 48.496703], [-89.04947, 48.496801], [-89.049194, 48.496877], [-89.048938, 48.49693], [-89.048712, 48.496964], [-89.048517, 48.496977], [-89.048352, 48.496971], [-89.048217, 48.496944], [-89.048062, 48.496953], [-89.047886, 48.496997], [-89.047691, 48.497078], [-89.047475, 48.497194], [-89.047283, 48.497274], [-89.047115, 48.497319], [-89.04697, 48.497327], [-89.046849, 48.497301], [-89.046724, 48.497314], [-89.046596, 48.497368], [-89.046464, 48.497461], [-89.04633, 48.497595], [-89.046198, 48.497689], [-89.04607, 48.497742], [-89.045945, 48.497756], [-89.045824, 48.497729]]}}, {"type": "Feature", "properties": {"lead": 120, "band": "edge"}, "geometry": {"type": "LineString", "coordinates": [[-89.04451, 48.497974], [-89.044971, 48.497892], [-89.045248, 48.49787], [-89.045339, 48.497907], [-89.045244, 48.498006], [-89.045035, 48.49809], [-89.044712, 48.498162], [-89.044274, 48.49822], [-89.043721, 48.498264], [-89.043468, 48.498262], [-89.043516, 48.498213], [-89.043863, 48.498117], [-89.04451, 48.497974]]}}, {"type": "Feature", "properties": {"lead": 120, "band": "edge"}, "geometry": {"type": "LineString", "coordinates": [[-89.032303, 48.499585], [-89.032752, 48.499505], [-89.033203, 48.499442], [-89.033658, 48.499397], [-89.034116, 48.499371], [-89.034592, 48.499313], [-89.035084, 48.499223], [-89.035593, 48.499103], [-89.036118, 48.498951], [-89.036779, 48.498833], [-89.037574, 48.498748], [-89.038504, 48.498697], [-89.039569, 48.498679], [-89.040338, 48.498677], [-89.040809, 48.49869], [-89.040985, 48.498719], [-89.040863, 48.498764], [-89.040728, 48.498797], [-89.04058, 48.49882], [-89.040418, 48.498831], [-89.040243, 48.498831], [-89.040112, 48.498838], [-89.040024, 48.498851], [-89.03998, 48.498871], [-89.03998, 48.498898], [-89.039893, 48.498918], [-89.039717, 48.498931], [-89.039455, 48.498938], [-89.039104, 48.498938], [-89.038841, 48.498947], [-89.038666, 48.498965], [-89.038578, 48.498991], [-89.038578, 48.499027], [-89.03843, 48.499067], [-89.038134, 48.499112], [-89.037689, 48.499161], [-89.037096, 48.499215], [-89.036627, 48.499268], [-89.036283, 48.499322], [-89.036064, 48.499375], [-89.03597, 48.499429], [-89.035849, 48.499469], [-89.0357, 48.499496], [-89.035525, 48.499509], [-89.035323, 48.499509], [-89.035171, 48.499518], [-89.03507, 48.499536], [-89.03502, 48.499562], [-89.03502, 48.499598], [-89.034888, 48.499625], [-89.034625, 48.499643], [-89.034231, 48.499652], [-89.033705, 48.499652], [-89.033203, 48.499663], [-89.032725, 48.499685], [-89.03227, 48.499719], [-89.031838, 48.499763], [-89.031626, 48.499772], [-89.031633, 48.499745], [-89.031859, 48.499683], [-89.032303, 48.499585]]}}, {"type": "Feature", "properties": {"lead": 120, "band": "edge"}, "geometry": {"type": "LineString", "coordinates": [[-89.029331, 48.500009], [-89.029129, 48.500006], [-89.028994, 48.500002], [-89.028927, 48.499995], [-89.028927, 48.499986], [-89.028984, 48.499977], [-89.029098, 48.499968], [-89.02927, 48.49996], [-89.029499, 48.499951], [-89.029681, 48.499948], [-89.029816, 48.499953], [-89.029904, 48.499964], [-89.029944, 48.499982], [-89.029907, 48.499995], [-89.029793, 48.500004], [-89.029601, 48.500009], [-89.029331, 48.500009]]}}, {"type": "Feature", "properties": {"lead": 120, "band": "edge"}, "geometry": {"type": "LineString", "coordinates": [[-89.028482, 48.500187], [-89.028381, 48.500185], [-89.028313, 48.50018], [-89.02828, 48.500174], [-89.02828, 48.500165], [-89.028313, 48.500151], [-89.028381, 48.500134], [-89.028482, 48.500111], [-89.028617, 48.500084], [-89.028718, 48.500073], [-89.028785, 48.500078], [-89.028819, 48.500098], [-89.028819, 48.500134], [-89.028785, 48.50016], [-89.028718, 48.500178], [-89.028617, 48.500187], [-89.028482, 48.500187]]}}, {"type": "Feature", "properties": {"lead": 120, "band": "edge"}, "geometry": {"type": "LineString", "coordinates": [[-89.027905, 48.500256], [-89.028047, 48.500234], [-89.028118, 48.500241], [-89.028118, 48.500276], [-89.028047, 48.500314], [-89.027905, 48.500354], [-89.027693, 48.500397], [-89.02741, 48.500441], [-89.027269, 48.500455], [-89.027269, 48.500437], [-89.02741, 48.500388], [-89.027693, 48.500307], [-89.027905, 48.500256]]}}, {"type": "Feature", "properties": {"lead": 120, "band": "edge"}, "geometry": {"type": "LineString", "coordinates": [[-89.026942, 48.500785], [-89.026962, 48.500767], [-89.026992, 48.500758], [-89.027033, 48.500758], [-89.027053, 48.500767], [-89.027053, 48.500785], [-89.027033, 48.500812], [-89.026992, 48.500847], [-89.026962, 48.500865], [-89.026942, 48.500865], [-89.026932, 48.500847], [-89.026932, 48.500812], [-89.026942, 48.500785]]}}, {"type": "Feature", "properties": {"lead": 120, "band": "edge"}, "geometry": {"type": "LineString", "coordinates": [[-89.02619, 48.501026], [-89.026173, 48.500986], [-89.02622, 48.500941], [-89.026332, 48.500892], [-89.026507, 48.500838], [-89.026628, 48.500814], [-89.026696, 48.500818], [-89.026709, 48.500852], [-89.026669, 48.500914], [-89.026615, 48.500961], [-89.026547, 48.500992], [-89.026466, 48.501008], [-89.026372, 48.501008], [-89.026311, 48.501015], [-89.026284, 48.501028], [-89.026291, 48.501048], [-89.026332, 48.501075], [-89.026342, 48.501086], [-89.026322, 48.501081], [-89.026271, 48.501061], [-89.02619, 48.501026]]}}, {"type": "Feature", "properties": {"lead": 120, "band": "edge"}, "geometry": {"type": "LineString", "coordinates": [[-88.989949, 48.500049], [-88.990852, 48.499672], [-88.99162, 48.499373], [-88.992254, 48.499152], [-88.992752, 48.499009], [-88.993197, 48.498918], [-88.993588, 48.498878], [-88.993925, 48.498889], [-88.994208, 48.498951], [-88.99439, 48.499014], [-88.994471, 48.499076], [-88.994451, 48.499139], [-88.99433, 48.499201], [-88.994208, 48.499235], [-88.994087, 48.499239], [-88.993966, 48.499215], [-88.993844, 48.499161], [-88.993699, 48.499128], [-88.993531, 48.499114], [-88.993339, 48.499121], [-88.993123, 48.499148], [-88.992951, 48.499181], [-88.992823, 48.499221], [-88.992739, 48.499268], [-88.992699, 48.499322], [-88.992624, 48.499368], [-88.992517, 48.499409], [-88.992375, 48.499442], [-88.9922, 48.499469], [-88.992058, 48.499511], [-88.99195, 48.499569], [-88.991876, 48.499643], [-88.991836, 48.499732], [-88.991728, 48.499808], [-88.991553, 48.49987], [-88.99131, 48.499919], [-88.991, 48.499955], [-88.990737, 48.500009], [-88.990522, 48.50008], [-88.990353, 48.500169], [-88.990232, 48.500276], [-88.990067, 48.500386], [-88.989858, 48.500497], [-88.989605, 48.500611], [-88.989308, 48.500727], [-88.989022, 48.50082], [-88.988746, 48.500892], [-88.988479, 48.500941], [-88.988223, 48.500968], [-88.988001, 48.500999], [-88.987812, 48.501035], [-88.987657, 48.501075], [-88.987536, 48.501119], [-88.987704, 48.501039], [-88.988162, 48.500834], [-88.988911, 48.500504], [-88.989949, 48.500049]]}}, {"type": "Feature", "properties": {"lead": 120, "band": "edge"}, "geometry": {"type": "LineString", "coordinates": [[-89.024235, 48.501664], [-89.024252, 48.501652], [-89.024286, 48.501639], [-89.024337, 48.501623], [-89.024404, 48.501606], [-89.024438, 48.501599], [-89.024438, 48.501603], [-89.024404, 48.501619], [-89.024337, 48.501646], [-89.024286, 48.501664], [-89.024252, 48.501673], [-89.024235, 48.501673], [-89.024235, 48.501664]]}}, {"type": "Feature", "properties": {"lead": 120, "band": "edge"}, "geometry": {"type": "LineString", "coordinates": [[-88.98736, 48.503914], [-88.98732, 48.503874], [-88.9873, 48.503814], [-88.9873, 48.503733], [-88.987397, 48.503617], [-88.987593, 48.503466], [-88.987886, 48.503278], [-88.988277, 48.503055], [-88.988601, 48.502852], [-88.988857, 48.50267], [-88.989045, 48.502507], [-88.989167, 48.502364], [-88.989281, 48.502257], [-88.989389, 48.502186], [-88.98949, 48.50215], [-88.989585, 48.50215], [-88.989676, 48.502128], [-88.989763, 48.502083], [-88.989848, 48.502016], [-88.989928, 48.501927], [-88.990137, 48.501795], [-88.990474, 48.501621], [-88.990939, 48.501405], [-88.991533, 48.501146], [-88.992065, 48.500932], [-88.992537, 48.500763], [-88.992948, 48.500638], [-88.993298, 48.500557], [-88.993582, 48.50047], [-88.993797, 48.500377], [-88.993945, 48.500276], [-88.994026, 48.500169], [-88.994121, 48.500089], [-88.994229, 48.500035], [-88.99435, 48.500009], [-88.994485, 48.500009], [-88.994603, 48.499986], [-88.994704, 48.499942], [-88.994788, 48.499875], [-88.994855, 48.499786], [-88.994899, 48.499763], [-88.994919, 48.499808], [-88.994916, 48.499919], [-88.994889, 48.500098], [-88.994835, 48.500256], [-88.994754, 48.500394], [-88.994646, 48.500513], [-88.994512, 48.500611], [-88.994282, 48.50072], [-88.993959, 48.500841], [-88.993541, 48.500972], [-88.993029, 48.501115], [-88.99252, 48.501278], [-88.992014, 48.501461], [-88.991512, 48.501664], [-88.991014, 48.501887], [-88.990474, 48.502161], [-88.989895, 48.502487], [-88.989275, 48.502864], [-88.988614, 48.503292], [-88.988098, 48.503613], [-88.987728, 48.503827], [-88.987502, 48.503934], [-88.987421, 48.503934], [-88.98736, 48.503914]]}}, {"type": "Feature", "properties": {"lead": 120, "band": "edge"}, "geometry": {"type": "LineString", "coordinates": [[-89.015386, 48.504202], [-89.015669, 48.504077], [-89.016181, 48.503894], [-89.016922, 48.503653], [-89.017455, 48.503493], [-89.017778, 48.503412], [-89.017893, 48.503412], [-89.017799, 48.503493], [-89.017674, 48.503559], [-89.017519, 48.503613], [-89.017334, 48.503653], [-89.017118, 48.50368], [-89.016892, 48.503736], [-89.016656, 48.50382], [-89.01641, 48.503934], [-89.016154, 48.504077], [-89.015918, 48.504182], [-89.015703, 48.504249], [-89.015507, 48.504278], [-89.015332, 48.504269], [-89.015386, 48.504202]]}}, {"type": "Feature", "properties": {"lead": 120, "band": "edge"}, "geometry": {"type": "LineString", "coordinates": [[-89.014799, 48.504376], [-89.014816, 48.504365], [-89.01485, 48.504351], [-89.0149, 48.504336], [-89.014968, 48.504318], [-89.015002, 48.504311], [-89.015002, 48.504316], [-89.014968, 48.504331], [-89.0149, 48.504358], [-89.01485, 48.504376], [-89.014816, 48.504385], [-89.014799, 48.504385], [-89.014799, 48.504376]]}}, {"type": "Feature", "properties": {"lead": 120, "band": "edge"}, "geometry": {"type": "LineString", "coordinates": [[-89.014422, 48.504518], [-89.014442, 48.504505], [-89.014483, 48.504487], [-89.014543, 48.504465], [-89.014624, 48.504438], [-89.014665, 48.504427], [-89.014665, 48.504431], [-89.014624, 48.504452], [-89.014543, 48.504487], [-89.014483, 48.504512], [-89.014442, 48.504525], [-89.014422, 48.504527], [-89.014422, 48.504518]]}}, {"type": "Feature", "properties": {"lead": 120, "band": "edge"}, "geometry": {"type": "LineString", "coordinates": [[-89.014179, 48.504688], [-89.01429, 48.504634], [-89.014351, 48.504626], [-89.014361, 48.504661], [-89.014321, 48.504741], [-89.01426, 48.504806], [-89.014179, 48.504855], [-89.014078, 48.504889], [-89.013957, 48.504907], [-89.013906, 48.504895], [-89.013927, 48.504855], [-89.014017, 48.504786], [-89.014179, 48.504688]]}}, {"type": "Feature", "properties": {"lead": 120, "band": "edge"}, "geometry": {"type": "LineString", "coordinates": [[-89.000392, 48.510986], [-89.00048, 48.510941], [-89.000611, 48.510897], [-89.000787, 48.510852], [-89.000965, 48.510776], [-89.001147, 48.510669], [-89.001333, 48.510531], [-89.001521, 48.510362], [-89.001919, 48.510141], [-89.002526, 48.509869], [-89.003341, 48.509545], [-89.004366, 48.509171], [-89.005218, 48.508834], [-89.005899, 48.508535], [-89.006408, 48.508274], [-89.006745, 48.508051], [-89.007048, 48.507868], [-89.007318, 48.507726], [-89.007554, 48.507623], [-89.007756, 48.507561], [-89.008012, 48.507436], [-89.008322, 48.507248], [-89.008686, 48.506999], [-89.009104, 48.506686], [-89.009515, 48.506414], [-89.00992, 48.506182], [-89.010317, 48.50599], [-89.010708, 48.505839], [-89.011143, 48.505694], [-89.011621, 48.505556], [-89.012144, 48.505424], [-89.01271, 48.505299], [-89.013124, 48.505219], [-89.013387, 48.505183], [-89.013499, 48.505192], [-89.013458, 48.505246], [-89.013394, 48.505286], [-89.013306, 48.505312], [-89.013195, 48.505326], [-89.01306, 48.505326], [-89.012939, 48.505348], [-89.012831, 48.505393], [-89.012737, 48.50546], [-89.012656, 48.505549], [-89.012562, 48.505616], [-89.012454, 48.50566], [-89.012332, 48.505683], [-89.012198, 48.505683], [-89.012033, 48.505716], [-89.011837, 48.505783], [-89.011611, 48.505883], [-89.011355, 48.506017], [-89.011133, 48.506118], [-89.010944, 48.506184], [-89.010789, 48.506218], [-89.010668, 48.506218], [-89.010577, 48.506234], [-89.010516, 48.506265], [-89.010486, 48.506312], [-89.010486, 48.506374], [-89.010432, 48.506441], [-89.010324, 48.506512], [-89.010162, 48.506588], [-89.009946, 48.506668], [-89.009785, 48.506744], [-89.009677, 48.506816], [-89.009623, 48.506883], [-89.009623, 48.506945], [-89.009599, 48.506992], [-89.009552, 48.507023], [-89.009481, 48.507039], [-89.009387, 48.507039], [-89.009252, 48.507088], [-89.009077, 48.507186], [-89.008861, 48.507333], [-89.008605, 48.507529], [-89.008305, 48.507719], [-89.007962, 48.507902], [-89.007574, 48.508078], [-89.007143, 48.508247], [-89.006809, 48.508397], [-89.006573, 48.508526], [-89.006435, 48.508635], [-89.006394, 48.508725], [-89.00628, 48.508812], [-89.006091, 48.508896], [-89.005828, 48.508979], [-89.005491, 48.509059], [-89.005228, 48.509142], [-89.00504, 48.509226], [-89.004925, 48.509313], [-89.004885, 48.509403], [-89.004811, 48.509483], [-89.004703, 48.509554], [-89.004561, 48.509617], [-89.004386, 48.50967], [-89.004211, 48.509719], [-89.004035, 48.509764], [-89.00386, 48.509804], [-89.003685, 48.50984], [-89.003533, 48.509858], [-89.003405, 48.509858], [-89.003301, 48.50984], [-89.00322, 48.509804], [-89.003115, 48.509813], [-89.002987, 48.509866], [-89.002836, 48.509965], [-89.00266, 48.510107], [-89.002495, 48.510221], [-89.00234, 48.510306], [-89.002195, 48.510362], [-89.002061, 48.510388], [-89.001939, 48.510437], [-89.001831, 48.510509], [-89.001737, 48.510602], [-89.001656, 48.510718], [-89.001542, 48.510812], [-89.001393, 48.510883], [-89.001211, 48.510932], [-89.000996, 48.510959], [-89.000814, 48.510988], [-89.000665, 48.511019], [-89.000551, 48.511053], [-89.00047, 48.511089], [-89.000409, 48.511104], [-89.000369, 48.5111], [-89.000349, 48.511075], [-89.000349, 48.511031], [-89.000392, 48.510986]]}}, {"type": "Feature", "properties": {"lead": 120, "band": "edge"}, "geometry": {"type": "LineString", "coordinates": [[-88.996416, 48.51234], [-88.996503, 48.51229], [-88.996722, 48.512239], [-88.997073, 48.512186], [-88.997403, 48.512103], [-88.997713, 48.511992], [-88.998003, 48.511851], [-88.998273, 48.511682], [-88.998556, 48.511535], [-88.998852, 48.51141], [-88.999162, 48.511307], [-88.999486, 48.511227], [-88.999708, 48.511204], [-88.99983, 48.51124], [-88.99985, 48.511334], [-88.999769, 48.511485], [-88.999654, 48.511606], [-88.999506, 48.511695], [-88.999324, 48.511753], [-88.999108, 48.51178], [-88.998916, 48.511829], [-88.998748, 48.5119], [-88.998603, 48.511994], [-88.998482, 48.51211], [-88.998337, 48.512197], [-88.998168, 48.512255], [-88.997976, 48.512284], [-88.99776, 48.512284], [-88.997565, 48.512297], [-88.99739, 48.512324], [-88.997235, 48.512364], [-88.9971, 48.512418], [-88.996955, 48.512447], [-88.9968, 48.512451], [-88.996635, 48.512431], [-88.99646, 48.512386], [-88.996416, 48.51234]]}}]}